{"version": 0.6, "generator": "Overpass API 0.7.61.5 4133829e", "osm3s": {"timestamp_osm_base": "2023-11-21T12:25:00Z", "copyright": "The data included in this document is from www.openstreetmap.org. The data is made available under ODbL."}, "elements": [{"type": "node", "id": 679597576, "lat": -33.7217772, "lon": 150.6031412, "tags": {"bus": "yes", "highway": "bus_stop", "name": "Warrimoo Station, Great Western Hwy", "ref": "277414"}}, {"type": "node", "id": 696681848, "lat": -33.7218477, "lon": 150.6020003, "tags": {"highway": "bus_stop", "name": "Great Western Hwy opp Warrimoo Station", "ref": "277478"}}, {"type": "node", "id": 1228159264, "lat": -33.7123487, "lon": 150.3317177, "tags": {"bus": "yes", "gtfs_id": "278039", "highway": "bus_stop", "name": "Leura Station, Railway Pde", "public_transport": "platform", "ref": "278039", "shelter": "no"}}, {"type": "node", "id": 2329057497, "lat": -33.7156767, "lon": 150.3033042, "tags": {"bus": "yes", "gtfs_id": "2780254", "highway": "bus_stop", "name": "Katoomba Sports And Aquatic Centre, Catalina Av", "public_transport": "platform", "ref": "2780254", "shelter": "no"}}, {"type": "node", "id": 3214354886, "lat": -33.7099922, "lon": 150.3743053, "tags": {"bus": "yes", "gtfs_id": "278252", "highway": "bus_stop", "name": "Wilson Park, Great Western Highway", "public_transport": "platform", "ref": "278252"}}, {"type": "node", "id": 3592233645, "lat": -33.7247694, "lon": 150.407377, "tags": {"bench": "yes", "bus": "yes", "gtfs_id": "278418", "highway": "bus_stop", "name": "Genevieve Road Access Loop at Genevieve Road", "public_transport": "platform", "ref": "278418", "shelter": "yes", "tactile_paving": "yes"}}, {"type": "node", "id": 3608409120, "lat": -33.7211198, "lon": 150.3100963, "tags": {"bench": "no", "bin": "no", "highway": "bus_stop", "lit": "no", "name:signed": "no", "ref:signed": "no", "shelter": "no", "tactile_paving": "yes"}}, {"type": "node", "id": 3951318910, "lat": -33.7106743, "lon": 150.3311736, "tags": {"bench": "yes", "bin": "no", "bus": "yes", "gtfs_id": "278032", "highway": "bus_stop", "name": "Great Western Hwy Off Ramp at Leura Mall", "public_transport": "platform", "ref": "278032", "shelter": "yes", "source": "survey", "source:position": "NSW LPI Imagery", "tactile_paving": "yes"}}, {"type": "node", "id": 4047416907, "lat": -33.7131278, "lon": 150.3118537, "tags": {"bench": "yes", "bus": "yes", "gtfs_id": "278011", "highway": "bus_stop", "name": "Katoomba St Opp Carrington Hotel", "public_transport": "platform", "ref": "278011", "route_ref": "686;686G;690H;690K;695;696;697;698;698V", "shelter": "no", "tactile_paving": "yes"}}, {"type": "node", "id": 4228175505, "lat": -33.730634, "lon": 150.3118516, "tags": {"bus": "yes", "highway": "bus_stop", "public_transport": "platform"}}, {"type": "node", "id": 4230081852, "lat": -33.6745129, "lon": 150.2808408, "tags": {"bus": "yes", "gtfs_id": "278060", "highway": "bus_stop", "name": "Medlow Bath Station, Great Western Highway", "public_transport": "platform", "ref": "278060", "source": "survey + LPI Imagery"}}, {"type": "node", "id": 4230081859, "lat": -33.7062139, "lon": 150.3191396, "tags": {"bus": "yes", "gtfs_id": "278036", "highway": "bus_stop", "name": "Great Western Hwy Opp Woodlands Rd", "public_transport": "platform", "ref": "278036", "shelter": "yes", "tactile_paving": "yes"}}, {"type": "node", "id": 4230081860, "lat": -33.7066252, "lon": 150.2995981, "tags": {"bus": "yes", "gtfs_id": "278065", "highway": "bus_stop", "name": "Great Western Hwy After Bathurst Rd", "public_transport": "platform", "ref": "278065"}}, {"type": "node", "id": 4230081861, "lat": -33.7068187, "lon": 150.2994251, "tags": {"bus": "yes", "gtfs_id": "2780180", "highway": "bus_stop", "name": "Great Western Hwy Opp Bathurst Rd", "public_transport": "platform", "ref": "2780180"}}, {"type": "node", "id": 4230081864, "lat": -33.7175243, "lon": 150.382974, "tags": {"bus": "yes", "gtfs_id": "278248", "highway": "bus_stop", "name": "Great Western Highway after Old Bathurst Road", "public_transport": "platform", "ref": "278248"}}, {"type": "node", "id": 4230081865, "lat": -33.7182457, "lon": 150.4441817, "tags": {"bus": "yes", "gtfs_id": "278314", "highway": "bus_stop", "name": "Great Western Highway at Queens Road", "public_transport": "platform", "ref": "278314"}}, {"type": "node", "id": 4230081868, "lat": -33.72327, "lon": 150.4166535, "tags": {"bus": "yes", "gtfs_id": "278413", "highway": "bus_stop", "name": "Great Western Highway opposite Bullaburra Station", "public_transport": "platform", "ref": "278413", "shelter": "yes", "tactile_paving": "yes"}}, {"type": "node", "id": 4230081869, "lat": -33.7300101, "lon": 150.4605117, "tags": {"highway": "bus_stop", "name": "Valley Road", "name:en": "Valley Road"}}, {"type": "node", "id": 4230081870, "lat": -33.7357684, "lon": 150.482291, "tags": {"bench": "yes", "bus": "yes", "departures_board": "no", "highway": "bus_stop", "name": "Woodford Station, Great Western Hwy", "public_transport": "platform", "ref": "277864", "shelter": "yes"}}, {"type": "node", "id": 4861436757, "lat": -33.7313606, "lon": 150.3118412, "tags": {"bus": "yes", "highway": "bus_stop", "local_ref": "B", "name": "Echo Point Lookout, Echo Point Rd, Stand B", "public_transport": "platform", "ref": "2780203"}}, {"type": "node", "id": 4861436771, "lat": -33.7280525, "lon": 150.3057873, "tags": {"bus": "yes", "gtfs_id": "2780186", "highway": "bus_stop", "name": "Katoomba Skyway, Cliff Dr", "public_transport": "platform", "ref": "2780186"}}, {"type": "node", "id": 4861436819, "lat": -33.713338, "lon": 150.3116282}, {"type": "node", "id": 4861436938, "lat": -33.6752012, "lon": 150.2809547, "tags": {"bus": "yes", "gtfs_id": "278057", "highway": "bus_stop", "name": "Great Western Highway opposite Medlow Bath Station", "public_transport": "platform", "ref": "278057", "source": "survey + LPI Imagery"}}, {"type": "node", "id": 4920483422, "lat": -33.7132006, "lon": 150.5154238, "tags": {"highway": "bus_stop", "name": "Martin Place", "name:en": "Martin Place"}}, {"type": "node", "id": 4920498623, "lat": -33.6933168, "lon": 150.5469874, "tags": {"highway": "bus_stop", "name": "Faulconbridge Shops", "name:en": "Faulconbridge Shops"}}, {"type": "node", "id": 4920498624, "lat": -33.6919137, "lon": 150.5452181, "tags": {"highway": "bus_stop", "name": "Grose Road", "name:en": "Grose Road"}}, {"type": "node", "id": 4920508324, "lat": -33.7338309, "lon": 150.4725912, "tags": {"highway": "bus_stop", "name": "Wide View Avenue", "name:en": "Wide View Avenue"}}, {"type": "node", "id": 4920508326, "lat": -33.733919, "lon": 150.4707, "tags": {"highway": "bus_stop", "name": "Park Road", "name:en": "Park Road"}}, {"type": "node", "id": 4920508327, "lat": -33.7274727, "lon": 150.4586123, "tags": {"bus": "yes", "highway": "bus_stop", "name": "Orama Road", "name:en": "Orama Road", "public_transport": "platform"}}, {"type": "node", "id": 4920509922, "lat": -33.695782, "lon": 150.5490618, "tags": {"highway": "bus_stop", "name": "Churchill Street", "name:en": "Churchill Street"}}, {"type": "node", "id": 4920509923, "lat": -33.694411, "lon": 150.5408343, "tags": {"highway": "bus_stop", "name": "Meeks Crescent", "name:en": "Meeks Crescent"}}, {"type": "node", "id": 4920509926, "lat": -33.7065433, "lon": 150.526329, "tags": {"bus": "yes", "highway": "bus_stop", "name": "Great Western Hwy opp Bellevue Rd", "public_transport": "platform", "ref": "277655"}}, {"type": "node", "id": 4920509927, "lat": -33.7156711, "lon": 150.5042596, "tags": {"bus": "yes", "highway": "bus_stop", "name": "Great Western Hwy opp Linden Station", "public_transport": "platform", "ref": "277884"}}, {"type": "node", "id": 4920509928, "lat": -33.7173436, "lon": 150.4976067, "tags": {"highway": "bus_stop", "name": "Tollgate Drive", "name:en": "Tollgate Drive"}}, {"type": "node", "id": 4920509929, "lat": -33.7229456, "lon": 150.4942661, "tags": {"highway": "bus_stop", "name": "Hepburn Road", "name:en": "Hepburn Road"}}, {"type": "node", "id": 4920514121, "lat": -33.6963255, "lon": 150.5349695, "tags": {"highway": "bus_stop", "name": "Faulconbridge Station, Great Western Hwy", "ref": "277615"}}, {"type": "node", "id": 4920522721, "lat": -33.7336402, "lon": 150.4660951, "tags": {"highway": "bus_stop", "name": "Riches Avenue", "name:en": "Riches Avenue"}}, {"type": "node", "id": 4920522722, "lat": -33.724152, "lon": 150.4543047, "tags": {"bus": "yes", "highway": "bus_stop", "name": "Railway Pde opp Hazelbrook Station", "ref": "277935"}}, {"type": "node", "id": 4920522723, "lat": -33.7180561, "lon": 150.4433155, "tags": {"bus": "yes", "gtfs_id": "278337", "highway": "bus_stop", "name": "Badgery Crescent at Queens Road", "public_transport": "platform", "ref": "278337"}}, {"type": "node", "id": 4920522724, "lat": -33.7184851, "lon": 150.4418302, "tags": {"bus": "yes", "gtfs_id": "278333", "highway": "bus_stop", "name": "Great Western Highway opposite Somers Street", "public_transport": "platform", "ref": "278333"}}, {"type": "node", "id": 4920522725, "lat": -33.7196932, "lon": 150.4386937, "tags": {"bus": "yes", "gtfs_id": "278317", "highway": "bus_stop", "name": "Great Western Highway after Somers Street", "public_transport": "platform", "ref": "278317"}}, {"type": "node", "id": 4920523521, "lat": -33.7207799, "lon": 150.4511661, "tags": {"bus": "yes", "highway": "bus_stop", "name": "Great Western Hwy at Railway Pde", "public_transport": "platform", "ref": "277943", "shelter": "no", "tactile_paving": "yes"}}, {"type": "node", "id": 4920529421, "lat": -33.7193343, "lon": 150.4301759, "tags": {"bus": "yes", "gtfs_id": "278318", "highway": "bus_stop", "name": "Great Western Highway opposite Lawson Station", "public_transport": "platform", "ref": "278318", "shelter": "yes"}}, {"type": "node", "id": 4920529422, "lat": -33.7173424, "lon": 150.3826702, "tags": {"bus": "yes", "gtfs_id": "2782168", "highway": "bus_stop", "name": "Great Western Highway at Dalrymple Avenue", "public_transport": "platform", "ref": "2782168"}}, {"type": "node", "id": 4920529423, "lat": -33.7166663, "lon": 150.3825287, "tags": {"bench": "yes", "bus": "yes", "gtfs_id": "278251", "highway": "bus_stop", "name": "Great Western Highway after Dalrymple Avenue", "public_transport": "platform", "ref": "278251", "shelter": "yes", "tactile_paving": "yes"}}, {"type": "node", "id": 4920529521, "lat": -33.7236738, "lon": 150.4234499, "tags": {"bus": "yes", "gtfs_id": "278321", "highway": "bus_stop", "name": "Great Western Highway at Lawson Street", "public_transport": "platform", "ref": "278321"}}, {"type": "node", "id": 4920532021, "lat": -33.72463, "lon": 150.4118968, "tags": {"bus": "yes", "gtfs_id": "278414", "highway": "bus_stop", "name": "Great Western Highway after Boronia Road", "public_transport": "platform", "ref": "278414", "shelter": "no", "tactile_paving": "yes"}}, {"type": "node", "id": 4920533821, "lat": -33.7227983, "lon": 150.3840537, "tags": {"bench": "yes", "bus": "yes", "gtfs_id": "278250", "highway": "bus_stop", "name": "Great Western Highway before Shortland Street", "public_transport": "platform", "ref": "278250", "shelter": "yes", "tactile_paving": "yes"}}, {"type": "node", "id": 4956182824, "lat": -33.7113107, "lon": 150.3609287, "tags": {"bench": "yes", "bus": "yes", "gtfs_id": "278255", "highway": "bus_stop", "name": "Great Western Highway after Valley Road", "public_transport": "platform", "ref": "278255", "shelter": "yes", "tactile_paving": "yes"}}, {"type": "node", "id": 4956182825, "lat": -33.7113308, "lon": 150.3122657, "tags": {"bench": "no", "bus": "yes", "gtfs_id": "278037", "highway": "bus_stop", "name": "Great Western Hwy Opp Blue Mountains City Council", "public_transport": "platform", "ref": "278037", "shelter": "no", "tactile_paving": "yes"}}, {"type": "node", "id": 4956188021, "lat": -33.7096091, "lon": 150.3717075, "tags": {"bus": "yes", "gtfs_id": "278256", "highway": "bus_stop", "name": "Great Western Highway after Cascade Street", "public_transport": "platform", "ref": "278256"}}, {"type": "node", "id": 4956188121, "lat": -33.7112135, "lon": 150.3653565, "tags": {"bench": "yes", "bus": "yes", "gtfs_id": "278254", "highway": "bus_stop", "name": "Wentworth Falls Cemetery, Great Western Highway", "public_transport": "platform", "ref": "278254", "shelter": "yes", "tactile_paving": "yes"}}, {"type": "node", "id": 4956188122, "lat": -33.7094688, "lon": 150.3259194, "tags": {"bench": "yes", "bus": "yes", "gtfs_id": "278031", "highway": "bus_stop", "name": "Great Western Hwy at East View Ave", "public_transport": "platform", "ref": "278031", "shelter": "no"}}, {"type": "node", "id": 4956188221, "lat": -33.7108416, "lon": 150.330788, "tags": {"bench": "yes", "bin": "no", "bus": "yes", "gtfs_id": "278035", "highway": "bus_stop", "name": "Great Western Hwy On Ramp after Leura Mall", "public_transport": "platform", "ref": "278035", "shelter": "yes", "tactile_paving": "yes"}}, {"type": "node", "id": 5003536366, "lat": -33.7470884, "lon": 150.6138588, "tags": {"highway": "bus_stop"}}, {"type": "node", "id": 5003536367, "lat": -33.7334003, "lon": 150.6046333, "tags": {"highway": "bus_stop"}}, {"type": "node", "id": 5003536368, "lat": -33.7287895, "lon": 150.6053973, "tags": {"highway": "bus_stop"}}, {"type": "node", "id": 5003536369, "lat": -33.6997067, "lon": 150.5559274, "tags": {"highway": "bus_stop"}}, {"type": "node", "id": 5003536370, "lat": -33.6967463, "lon": 150.5508006, "tags": {"highway": "bus_stop"}}, {"type": "node", "id": 5003536371, "lat": -33.6915136, "lon": 150.544266, "tags": {"highway": "bus_stop"}}, {"type": "node", "id": 5003536372, "lat": -33.6934494, "lon": 150.541631, "tags": {"highway": "bus_stop"}}, {"type": "node", "id": 5003536373, "lat": -33.6942994, "lon": 150.5377495, "tags": {"highway": "bus_stop"}}, {"type": "node", "id": 5003536374, "lat": -33.696034, "lon": 150.534894, "tags": {"highway": "bus_stop", "name": "Great Western Hwy opp Faulconbridge Station", "ref": "277621"}}, {"type": "node", "id": 5003536375, "lat": -33.7026163, "lon": 150.5309301, "tags": {"bus": "yes", "highway": "bus_stop", "public_transport": "platform"}}, {"type": "node", "id": 5237464925, "lat": -33.7261566, "lon": 150.3036936, "tags": {"bus": "yes", "gtfs_id": "278017", "highway": "bus_stop", "name": "Blue Mountains Tourist Park, Katoomba Falls Rd", "public_transport": "platform", "ref": "278017"}}, {"type": "node", "id": 5973408614, "lat": -33.7127015, "lon": 150.5159916, "tags": {"highway": "bus_stop"}}, {"type": "node", "id": 5973408615, "lat": -33.7346404, "lon": 150.4778863, "tags": {"bus": "yes", "highway": "bus_stop", "public_transport": "platform"}}, {"type": "node", "id": 5973408616, "lat": -33.73344, "lon": 150.4742701, "tags": {"highway": "bus_stop", "shelter": "yes", "tactile_paving": "yes"}}, {"type": "node", "id": 5973408617, "lat": -33.7302445, "lon": 150.4635173, "tags": {"highway": "bus_stop"}}, {"type": "node", "id": 5973408618, "lat": -33.726412, "lon": 150.4586008, "tags": {"bus": "yes", "highway": "bus_stop", "public_transport": "platform"}}, {"type": "node", "id": 5973408619, "lat": -33.7217128, "lon": 150.452504, "tags": {"bus": "yes", "highway": "bus_stop", "public_transport": "platform"}}, {"type": "node", "id": 5973408620, "lat": -33.7227053, "lon": 150.4243053, "tags": {"bus": "yes", "gtfs_id": "278311", "highway": "bus_stop", "name": "Great Western Highway opposite Charles Street", "public_transport": "platform", "ref": "278311"}}, {"type": "node", "id": 5973408622, "lat": -33.7137873, "lon": 150.3722353, "tags": {"bus": "yes", "gtfs_id": "278219", "highway": "bus_stop", "name": "Falls Road opposite Wentworth Falls Public School", "public_transport": "platform", "ref": "278219"}}, {"type": "node", "id": 5973408623, "lat": -33.7187379, "lon": 150.3713508, "tags": {"bus": "yes", "gtfs_id": "278222", "highway": "bus_stop", "name": "Falls Road at Backhouse Street", "public_transport": "platform", "ref": "278222"}}, {"type": "node", "id": 5973408624, "lat": -33.7209073, "lon": 150.370465, "tags": {"bus": "yes", "gtfs_id": "278223", "highway": "bus_stop", "name": "Fletcher Street at Falls Road", "public_transport": "platform", "ref": "278223"}}, {"type": "node", "id": 6467386718, "lat": -33.7190013, "lon": 150.4303395, "tags": {"bus": "yes", "gtfs_id": "278312", "highway": "bus_stop", "name": "Lawson Station, Great Western Highway", "public_transport": "platform", "ref": "278312", "shelter": "yes"}}, {"type": "node", "id": 6690336845, "lat": -33.6991067, "lon": 150.5687861, "tags": {"bus": "yes", "highway": "bus_stop", "public_transport": "platform"}}, {"type": "node", "id": 6690336877, "lat": -33.6989464, "lon": 150.5667506, "tags": {"bus": "yes", "highway": "bus_stop", "public_transport": "platform"}}, {"type": "node", "id": 6938148487, "lat": -33.7131138, "lon": 150.3116716}, {"type": "node", "id": 6938414509, "lat": -33.7123138, "lon": 150.3113371, "tags": {"bus": "yes", "highway": "bus_stop", "public_transport": "platform"}}, {"type": "node", "id": 7007559262, "lat": -33.7215064, "lon": 150.3115767, "tags": {"bench": "yes", "bin": "no", "bus": "yes", "gtfs_id": "278078", "highway": "bus_stop", "lit": "yes", "name": "Lurline St Opp Oatley Av", "public_transport": "platform", "ref": "278078", "shelter": "yes", "tactile_paving": "yes"}}, {"type": "node", "id": 7055777986, "lat": -33.7112624, "lon": 150.3467929, "tags": {"bus": "yes", "gtfs_id": "278046", "highway": "bus_stop", "name": "Scott Av At Herbert St", "public_transport": "platform", "ref": "278046"}}, {"type": "node", "id": 7252131527, "lat": -33.7236721, "lon": 150.3284075, "tags": {"bench": "yes", "bus": "yes", "gtfs_id": "2780120", "highway": "bus_stop", "name": "Leura Mall at Olympian Pde", "public_transport": "platform", "ref": "2780120", "shelter": "no", "tactile_paving": "yes"}}, {"type": "node", "id": 7252148620, "lat": -33.7160818, "lon": 150.3323462, "tags": {"bus": "yes", "gtfs_id": "2780115", "highway": "bus_stop", "name": "Craigend St at Grose St", "public_transport": "platform", "ref": "2780115"}}, {"type": "node", "id": 7719067766, "lat": -33.7228851, "lon": 150.3306025, "tags": {"bus": "yes", "gtfs_id": "2780117", "highway": "bus_stop", "name": "Balmoral Rd at Gordon Rd", "public_transport": "platform", "ref": "2780117"}}, {"type": "node", "id": 7719067767, "lat": -33.7251373, "lon": 150.3298115, "tags": {"bus": "yes", "gtfs_id": "2780119", "highway": "bus_stop", "name": "Olympian Pde opp Balmoral Rd", "public_transport": "platform", "ref": "2780119"}}, {"type": "node", "id": 7857882431, "lat": -33.7120796, "lon": 150.3364342, "tags": {"bench": "yes", "bus": "yes", "flickr": "https://www.flickr.com/photos/190060616@N03/50318969212", "gtfs_id": "2780184", "highway": "bus_stop", "name": "Great Western Highway opp Leura Public School", "public_transport": "platform", "ref": "2780184", "shelter": "yes", "tactile_paving": "yes"}}, {"type": "node", "id": 7857882474, "lat": -33.7116049, "lon": 150.3312934, "tags": {"bus": "yes", "gtfs_id": "278052", "highway": "bus_stop", "name": "Leura Station, Leura Mall", "public_transport": "platform", "ref": "278052"}}, {"type": "node", "id": 7857968604, "lat": -33.7124018, "lon": 150.3363583, "tags": {"bus": "yes", "gtfs_id": "278040", "highway": "bus_stop", "name": "Railway Pde opp Hartley Esp", "public_transport": "platform", "ref": "278040", "shelter": "no"}}, {"type": "node", "id": 7857968605, "lat": -33.7127068, "lon": 150.3383552, "tags": {"bus": "yes", "gtfs_id": "278041", "highway": "bus_stop", "name": "Railway Pde opp The Church of LDS", "public_transport": "platform", "ref": "278041"}}, {"type": "node", "id": 7864957531, "lat": -33.7124874, "lon": 150.3362578, "tags": {"bench": "yes", "bus": "yes", "gtfs_id": "278050", "highway": "bus_stop", "name": "Railway Pde before Hartley Esp", "public_transport": "platform", "ref": "278050", "shelter": "no", "tactile_paving": "yes"}}, {"type": "node", "id": 7870653526, "lat": -33.7057824, "lon": 150.3204656, "tags": {"bench": "yes", "bus": "yes", "gtfs_id": "2780187", "highway": "bus_stop", "name": "Blue Mountains Hospital, Woodlands Rd", "public_transport": "platform", "ref": "2780187", "shelter": "no", "tactile_paving": "yes"}}, {"type": "node", "id": 7870653527, "lat": -33.7064525, "lon": 150.3178099, "tags": {"bus": "yes", "gtfs_id": "278029", "highway": "bus_stop", "name": "Great Western Hwy At Orient St", "public_transport": "platform", "ref": "278029"}}, {"type": "node", "id": 7872135712, "lat": -33.7111448, "lon": 150.3124603, "tags": {"bench": "no", "bus": "yes", "gtfs_id": "278028", "highway": "bus_stop", "name": "Blue Mountains City Council, Great Western Hwy", "public_transport": "platform", "ref": "278028", "shelter": "no", "tactile_paving": "yes"}}, {"type": "node", "id": 7872135713, "lat": -33.7122618, "lon": 150.310306, "tags": {"bus": "yes", "gtfs_id": "278066", "highway": "bus_stop", "name": "Parke St Opp Fire Station", "public_transport": "platform", "ref": "278066"}}, {"type": "node", "id": 7872135714, "lat": -33.7140518, "lon": 150.309951, "tags": {"bus": "yes", "gtfs_id": "278067", "highway": "bus_stop", "name": "Parke St After College Lane", "public_transport": "platform", "ref": "278067"}}, {"type": "node", "id": 7872135715, "lat": -33.7152851, "lon": 150.3097002, "tags": {"bus": "yes", "gtfs_id": "2780282", "highway": "bus_stop", "name": "Parke St After Pryor Pl", "public_transport": "platform", "ref": "2780282"}}, {"type": "node", "id": 7872135716, "lat": -33.7170309, "lon": 150.3098895, "tags": {"bus": "yes", "gtfs_id": "278053", "highway": "bus_stop", "name": "Waratah St After Parke St", "public_transport": "platform", "ref": "278053"}}, {"type": "node", "id": 7872135717, "lat": -33.7167413, "lon": 150.3109802, "tags": {"bench": "yes", "bin": "yes", "bus": "yes", "gtfs_id": "278026", "highway": "bus_stop", "lit": "yes", "name": "Katoomba St After Waratah St", "public_transport": "platform", "ref": "278026", "shelter": "no", "tactile_paving": "yes"}}, {"type": "node", "id": 7872135719, "lat": -33.7133426, "lon": 150.3116704}, {"type": "node", "id": 7872135720, "lat": -33.7129289, "lon": 150.3117541}, {"type": "node", "id": 7872135721, "lat": -33.712923, "lon": 150.3117089}, {"type": "node", "id": 7926649290, "lat": -33.7133326, "lon": 150.324417, "tags": {"bench": "no", "bus": "yes", "gtfs_id": "278087", "highway": "bus_stop", "name": "Megalong St after Clarence St", "public_transport": "platform", "ref": "278087", "shelter": "no", "source": "https://transportnsw.info/stop?q=10133090#/"}}, {"type": "node", "id": 7926649291, "lat": -33.7134591, "lon": 150.3245976, "tags": {"bench": "no", "bus": "yes", "gtfs_id": "2780102", "highway": "bus_stop", "name": "Megalong St after Commonwealth St", "note": "Exact location TBC (existing position very closely agrees with TfNSW database)", "public_transport": "platform", "ref": "2780102", "shelter": "no", "source": "https://transportnsw.info/stop?q=10132975#/"}}, {"type": "node", "id": 7926649292, "lat": -33.7138981, "lon": 150.3283083, "tags": {"bench": "yes", "bus": "yes", "gtfs_id": "2780101", "highway": "bus_stop", "name": "Megalong St after Wascoe St", "public_transport": "platform", "ref": "2780101", "shelter": "no"}}, {"type": "node", "id": 7926649293, "lat": -33.7138327, "lon": 150.3286423, "tags": {"bench": "no", "bus": "yes", "gtfs_id": "278088", "highway": "bus_stop", "name": "Megalong St at Wascoe St", "public_transport": "platform", "ref": "278088", "shelter": "no", "source": "https://transportnsw.info/stop?q=10133091#/"}}, {"type": "node", "id": 7926649294, "lat": -33.714108, "lon": 150.3300649, "tags": {"bench": "no", "bus": "yes", "gtfs_id": "2780100", "highway": "bus_stop", "name": "Megalong St at Leura Mall", "public_transport": "platform", "ref": "2780100", "source": "https://transportnsw.info/stop?q=10132973#/", "tactile_paving": "yes"}}, {"type": "node", "id": 7987108857, "lat": -33.7108459, "lon": 150.3596531, "tags": {"bus": "yes", "gtfs_id": "278211", "highway": "bus_stop", "name": "Great Western Highway opposite West Street", "public_transport": "platform", "ref": "278211", "shelter": "no", "tactile_paving": "yes"}}, {"type": "node", "id": 7987109025, "lat": -33.7110054, "lon": 150.3656801, "tags": {"bench": "yes", "bus": "yes", "gtfs_id": "278229", "highway": "bus_stop", "name": "Great Western Highway opposite Wentworth Falls Cemetery", "public_transport": "platform", "ref": "278229", "shelter": "yes", "tactile_paving": "yes"}}, {"type": "node", "id": 7998802423, "lat": -33.7058488, "lon": 150.3202552, "tags": {"bus": "yes", "gtfs_id": "2780155", "highway": "bus_stop", "name": "Blue Mountains Hospital, Great Western Hwy", "public_transport": "platform", "ref": "2780155", "shelter": "yes", "tactile_paving": "yes"}}, {"type": "node", "id": 8020643110, "lat": -33.7093099, "lon": 150.3759814, "tags": {"bus": "yes", "gtfs_id": "278246", "highway": "bus_stop", "name": "Wentworth Falls Station, Station Street", "public_transport": "platform", "ref": "278246", "shelter": "yes"}}, {"type": "node", "id": 8109682598, "lat": -33.7121384, "lon": 150.3422141, "tags": {"bus": "yes", "gtfs_id": "278048", "highway": "bus_stop", "name": "Scott Av At Gladstone Rd", "public_transport": "platform", "ref": "278048", "shelter": "yes", "tactile_paving": "yes"}}, {"type": "node", "id": 8109682599, "lat": -33.716238, "lon": 150.3296524, "tags": {"bus": "yes", "gtfs_id": "278090", "highway": "bus_stop", "name": "Leura Mall After Craigend St", "public_transport": "platform", "ref": "278090"}}, {"type": "node", "id": 8109682600, "lat": -33.7169152, "lon": 150.3416078, "tags": {"bus": "yes", "gtfs_id": "2780161", "highway": "bus_stop", "name": "Gladstone Rd At Craigend St", "public_transport": "platform", "ref": "2780161"}}, {"type": "node", "id": 8109682601, "lat": -33.7188589, "lon": 150.3417263, "tags": {"bus": "yes", "gtfs_id": "2780108", "highway": "bus_stop", "name": "Northcote Rd At Gladstone Rd", "public_transport": "platform", "ref": "2780108"}}, {"type": "node", "id": 8109682602, "lat": -33.7148596, "lon": 150.3376344, "tags": {"bus": "yes", "gtfs_id": "2780106", "highway": "bus_stop", "name": "Megalong St After Blackheath St", "public_transport": "platform", "ref": "2780106"}}, {"type": "node", "id": 8109682603, "lat": -33.7164542, "lon": 150.3360286, "tags": {"bus": "yes", "departures_board": "no", "gtfs_id": "278094", "highway": "bus_stop", "name": "Craigend St Opp Spencer St", "public_transport": "platform", "ref": "278094", "shelter": "no", "wheelchair": "no"}}, {"type": "node", "id": 8109682604, "lat": -33.7125014, "lon": 150.3425043, "tags": {"bus": "yes", "gtfs_id": "2780245", "highway": "bus_stop", "name": "Gladstone Rd At Scott Av", "public_transport": "platform", "ref": "2780245"}}, {"type": "node", "id": 8109682605, "lat": -33.7149668, "lon": 150.3373366, "tags": {"bus": "yes", "gtfs_id": "278099", "highway": "bus_stop", "name": "Megalong St At Blackheath St", "public_transport": "platform", "ref": "278099"}}, {"type": "node", "id": 8109682606, "lat": -33.7207921, "lon": 150.3288879, "tags": {"bus": "yes", "gtfs_id": "2780121", "highway": "bus_stop", "name": "Leura Mall After Gordon Rd", "public_transport": "platform", "ref": "2780121", "tactile_paving": "yes"}}, {"type": "node", "id": 8109682607, "lat": -33.7124297, "lon": 150.3318241, "tags": {"bus": "yes", "gtfs_id": "278051", "highway": "bus_stop", "name": "Railway Pde Opp Leura Station", "public_transport": "platform", "ref": "278051"}}, {"type": "node", "id": 8109682608, "lat": -33.7213376, "lon": 150.3437209, "tags": {"bus": "yes", "gtfs_id": "2780111", "highway": "bus_stop", "name": "Fitzroy St At Watkins Rd", "public_transport": "platform", "ref": "2780111"}}, {"type": "node", "id": 8109682609, "lat": -33.7147092, "lon": 150.3421909, "tags": {"bus": "yes", "gtfs_id": "2780246", "highway": "bus_stop", "name": "Gladstone Rd At Kurrawang St", "public_transport": "platform", "ref": "2780246"}}, {"type": "node", "id": 8109682610, "lat": -33.7128077, "lon": 150.3385149, "tags": {"bus": "yes", "gtfs_id": "278049", "highway": "bus_stop", "name": "The Church Of LDS, Railway Pde", "public_transport": "platform", "ref": "278049"}}, {"type": "node", "id": 8109682611, "lat": -33.7167809, "lon": 150.3379138, "tags": {"bus": "yes", "gtfs_id": "2780114", "highway": "bus_stop", "name": "Craigend St At Holmes St", "public_transport": "platform", "ref": "2780114"}}, {"type": "node", "id": 8109682612, "lat": -33.7124988, "lon": 150.3426013, "tags": {"bus": "yes", "gtfs_id": "2780244", "highway": "bus_stop", "name": "Gladstone Rd At Scott Av", "public_transport": "platform", "ref": "2780244"}}, {"type": "node", "id": 8109682613, "lat": -33.7191196, "lon": 150.3444114, "tags": {"bus": "yes", "gtfs_id": "2780109", "highway": "bus_stop", "name": "Northcote Rd At St Andrews Rd", "public_transport": "platform", "ref": "2780109"}}, {"type": "node", "id": 8109682614, "lat": -33.7198035, "lon": 150.3387967, "tags": {"bus": "yes", "gtfs_id": "2780249", "highway": "bus_stop", "name": "Everglades Av At Easter St", "public_transport": "platform", "ref": "2780249"}}, {"type": "node", "id": 8109682615, "lat": -33.712003, "lon": 150.3422883, "tags": {"bus": "yes", "gtfs_id": "278042", "highway": "bus_stop", "name": "Scott Av At Gladstone Rd", "public_transport": "platform", "ref": "278042", "shelter": "no", "tactile_paving": "yes"}}, {"type": "node", "id": 8109682616, "lat": -33.7132248, "lon": 150.3434168, "tags": {"bus": "yes", "gtfs_id": "2780193", "highway": "bus_stop", "name": "Morven Gardens Centre, Morven Rd", "public_transport": "platform", "ref": "2780193"}}, {"type": "node", "id": 8109692217, "lat": -33.7173843, "lon": 150.3309263, "tags": {"bus": "yes", "gtfs_id": "278093", "highway": "bus_stop", "name": "Abbey St Before Craigend St", "public_transport": "platform", "ref": "278093"}}, {"type": "node", "id": 8109692218, "lat": -33.7153671, "lon": 150.3388621, "tags": {"bus": "yes", "gtfs_id": "278098", "highway": "bus_stop", "name": "Victoria St At Megalong St", "public_transport": "platform", "ref": "278098"}}, {"type": "node", "id": 8109692219, "lat": -33.71971, "lon": 150.3289327, "tags": {"bench": "yes", "bus": "yes", "gtfs_id": "2780122", "highway": "bus_stop", "name": "Leura Mall Before Malvern Rd", "public_transport": "platform", "ref": "2780122", "tactile_paving": "yes"}}, {"type": "node", "id": 8109692220, "lat": -33.7045158, "lon": 150.3314966, "tags": {"bus": "yes", "gtfs_id": "2780226", "highway": "bus_stop", "name": "Roosevelt St After Highland St", "public_transport": "platform", "ref": "2780226"}}, {"type": "node", "id": 8109692221, "lat": -33.7121645, "lon": 150.344026, "tags": {"bench": "no", "bus": "yes", "gtfs_id": "278047", "highway": "bus_stop", "name": "Scott Av Before Gladstone Rd", "public_transport": "platform", "ref": "278047", "shelter": "no", "tactile_paving": "yes"}}, {"type": "node", "id": 8109692222, "lat": -33.7106583, "lon": 150.3356706, "tags": {"bus": "yes", "gtfs_id": "2780174", "highway": "bus_stop", "name": "Leura Public School, Mt Hay Rd", "public_transport": "platform", "ref": "2780174"}}, {"type": "node", "id": 8109692223, "lat": -33.7181895, "lon": 150.3471365, "tags": {"bus": "yes", "gtfs_id": "2780110", "highway": "bus_stop", "name": "St Georges Rd At Craigend St", "public_transport": "platform", "ref": "2780110"}}, {"type": "node", "id": 8109692224, "lat": -33.7154807, "lon": 150.3389959, "tags": {"bus": "yes", "gtfs_id": "2780107", "highway": "bus_stop", "name": "Victoria St After Megalong St", "public_transport": "platform", "ref": "2780107"}}, {"type": "node", "id": 8109692225, "lat": -33.720801, "lon": 150.3409064, "tags": {"bus": "yes", "gtfs_id": "2780181", "highway": "bus_stop", "name": "Gladstone Rd At Fitzroy St", "public_transport": "platform", "ref": "2780181"}}, {"type": "node", "id": 8109692226, "lat": -33.7098884, "lon": 150.3501142, "tags": {"bus": "yes", "gtfs_id": "278044", "highway": "bus_stop", "name": "Scott Av Opp 77", "public_transport": "platform", "ref": "278044"}}, {"type": "node", "id": 8109692227, "lat": -33.7012239, "lon": 150.3389073, "tags": {"bus": "yes", "gtfs_id": "2780231", "highway": "bus_stop", "name": "29 Rawson Pde", "public_transport": "platform", "ref": "2780231"}}, {"type": "node", "id": 8109692228, "lat": -33.7061979, "lon": 150.3249399, "tags": {"bus": "yes", "gtfs_id": "2780223", "highway": "bus_stop", "name": "Strathearn Rd Opp 16", "public_transport": "platform", "ref": "2780223"}}, {"type": "node", "id": 8109692229, "lat": -33.7140513, "lon": 150.342187, "tags": {"bus": "yes", "gtfs_id": "2780247", "highway": "bus_stop", "name": "Gladstone Rd At Cook St", "public_transport": "platform", "ref": "2780247"}}, {"type": "node", "id": 8109692230, "lat": -33.7187784, "lon": 150.342036, "tags": {"bus": "yes", "gtfs_id": "2780200", "highway": "bus_stop", "name": "Northcote Rd After Gladstone Rd", "public_transport": "platform", "ref": "2780200"}}, {"type": "node", "id": 8109692231, "lat": -33.7066585, "lon": 150.3305872, "tags": {"bus": "yes", "gtfs_id": "2780237", "highway": "bus_stop", "name": "41 Highland St", "public_transport": "platform", "ref": "2780237"}}, {"type": "node", "id": 8109692232, "lat": -33.7112027, "lon": 150.3342033, "tags": {"bus": "yes", "gtfs_id": "278034", "highway": "bus_stop", "name": "Great Western Hwy Af Leura Mall", "public_transport": "platform", "ref": "278034"}}, {"type": "node", "id": 8109692233, "lat": -33.7177995, "lon": 150.3448994, "tags": {"bus": "yes", "gtfs_id": "2780248", "highway": "bus_stop", "name": "St Andrews Rd At Craigend St", "public_transport": "platform", "ref": "2780248"}}, {"type": "node", "id": 8109692234, "lat": -33.7111641, "lon": 150.3466155, "tags": {"bus": "yes", "gtfs_id": "278043", "highway": "bus_stop", "name": "Scott Av Opp Herbert St", "public_transport": "platform", "ref": "278043"}}, {"type": "node", "id": 8109692235, "lat": -33.7028947, "lon": 150.332782, "tags": {"bus": "yes", "gtfs_id": "2780227", "highway": "bus_stop", "name": "Leura Mall Opp Davies St", "public_transport": "platform", "ref": "2780227"}}, {"type": "node", "id": 8109692236, "lat": -33.7195802, "lon": 150.338389, "tags": {"bus": "yes", "gtfs_id": "2780278", "highway": "bus_stop", "name": "Easter St Before Everglades Av (Hail And Ride)", "public_transport": "platform", "ref": "2780278"}}, {"type": "node", "id": 8109692237, "lat": -33.7174996, "lon": 150.3309955, "tags": {"bin": "no", "bus": "yes", "covered": "no", "gtfs_id": "2780251", "highway": "bus_stop", "name": "Abbey St Before Malvern Rd", "passenger_information_display": "no", "public_transport": "platform", "ref": "2780251", "tactile_paving": "no", "wheelchair": "no"}}, {"type": "node", "id": 8109692238, "lat": -33.7162969, "lon": 150.3294713, "tags": {"bench": "no", "bus": "yes", "gtfs_id": "2780123", "highway": "bus_stop", "name": "Leura Mall Before Craigend St", "public_transport": "platform", "ref": "2780123", "shelter": "no"}}, {"type": "node", "id": 8109692239, "lat": -33.7151052, "lon": 150.3302126, "tags": {"bus": "yes", "gtfs_id": "278089", "highway": "bus_stop", "name": "Leura Mall Before Craigend St", "public_transport": "platform", "ref": "278089"}}, {"type": "node", "id": 8109692240, "lat": -33.721031, "lon": 150.3414201, "tags": {"bus": "yes", "gtfs_id": "2780112", "highway": "bus_stop", "name": "Fitzroy St before Gladstone Rd", "old_name": "Fitzroy St Opp Chambers Rd", "public_transport": "platform", "ref": "2780112"}}, {"type": "node", "id": 8109692241, "lat": -33.7180204, "lon": 150.3470544, "tags": {"bus": "yes", "gtfs_id": "2780280", "highway": "bus_stop", "name": "St Georges Rd After Northcote Rd (Hail And Ride)", "public_transport": "platform", "ref": "2780280"}}, {"type": "node", "id": 8109692242, "lat": -33.713099, "lon": 150.3434011, "tags": {"bus": "yes", "gtfs_id": "2780243", "highway": "bus_stop", "name": "Morven Rd Opp Morven Gardens Centre", "public_transport": "platform", "ref": "2780243"}}, {"type": "node", "id": 8109692243, "lat": -33.7010301, "lon": 150.3350716, "tags": {"bus": "yes", "gtfs_id": "2780195", "highway": "bus_stop", "name": "Denman Pde At Dorset St", "public_transport": "platform", "ref": "2780195"}}, {"type": "node", "id": 8109692244, "lat": -33.7176939, "lon": 150.3414762, "tags": {"bus": "yes", "gtfs_id": "278097", "highway": "bus_stop", "name": "Gladstone Rd Before Craigend St", "public_transport": "platform", "ref": "278097"}}, {"type": "node", "id": 8109692245, "lat": -33.7029019, "lon": 150.332847, "tags": {"bus": "yes", "gtfs_id": "2780233", "highway": "bus_stop", "name": "Leura Mall At Davies St", "public_transport": "platform", "ref": "2780233"}}, {"type": "node", "id": 8109692246, "lat": -33.7045704, "lon": 150.3314771, "tags": {"bus": "yes", "gtfs_id": "2780234", "highway": "bus_stop", "name": "Roosevelt St Before Highland St", "public_transport": "platform", "ref": "2780234"}}, {"type": "node", "id": 8109692247, "lat": -33.7162025, "lon": 150.3313013, "tags": {"bus": "yes", "gtfs_id": "2780250", "highway": "bus_stop", "name": "Abbey St At Craigend St", "public_transport": "platform", "ref": "2780250"}}, {"type": "node", "id": 8109692248, "lat": -33.7012172, "lon": 150.3388208, "tags": {"bus": "yes", "gtfs_id": "2780229", "highway": "bus_stop", "name": "24 Rawson Pde", "public_transport": "platform", "ref": "2780229"}}, {"type": "node", "id": 8109692249, "lat": -33.7056382, "lon": 150.3263095, "tags": {"bus": "yes", "gtfs_id": "2780235", "highway": "bus_stop", "name": "Kings Rd After Linderman Rd", "public_transport": "platform", "ref": "2780235"}}, {"type": "node", "id": 8109692250, "lat": -33.7142549, "lon": 150.3323261, "tags": {"bus": "yes", "gtfs_id": "2780105", "highway": "bus_stop", "name": "Leura Uniting Church, Megalong St", "public_transport": "platform", "ref": "2780105"}}, {"type": "node", "id": 8109692251, "lat": -33.7176282, "lon": 150.3291754, "tags": {"bench": "no", "bus": "yes", "gtfs_id": "278091", "highway": "bus_stop", "name": "Leura Mall Opp Jersey Lane", "public_transport": "platform", "ref": "278091", "shelter": "no", "tactile_paving": "yes"}}, {"type": "node", "id": 8109692252, "lat": -33.71798, "lon": 150.3415628, "tags": {"bus": "yes", "gtfs_id": "2780160", "highway": "bus_stop", "name": "Gladstone Rd After Craigend St", "public_transport": "platform", "ref": "2780160"}}, {"type": "node", "id": 8109692253, "lat": -33.7061636, "lon": 150.3248739, "tags": {"bus": "yes", "gtfs_id": "2780236", "highway": "bus_stop", "name": "16 Strathearn Rd", "public_transport": "platform", "ref": "2780236"}}, {"type": "node", "id": 8109692254, "lat": -33.7003722, "lon": 150.3364049, "tags": {"bus": "yes", "gtfs_id": "2780228", "highway": "bus_stop", "name": "93 Rawson Pde", "public_transport": "platform", "ref": "2780228"}}, {"type": "node", "id": 8109692255, "lat": -33.7056219, "lon": 150.3262442, "tags": {"bus": "yes", "gtfs_id": "2780224", "highway": "bus_stop", "name": "Kings Rd After Strathearn Rd", "public_transport": "platform", "ref": "2780224"}}, {"type": "node", "id": 8109692256, "lat": -33.7191242, "lon": 150.3412512, "tags": {"bus": "yes", "gtfs_id": "2780196", "highway": "bus_stop", "name": "Gladstone Rd Before Northcote Rd", "public_transport": "platform", "ref": "2780196"}}, {"type": "node", "id": 8109692257, "lat": -33.7211512, "lon": 150.3432822, "tags": {"bus": "yes", "gtfs_id": "278096", "highway": "bus_stop", "name": "Fitzroy St Opp Watkins Rd", "public_transport": "platform", "ref": "278096"}}, {"type": "node", "id": 8109692258, "lat": -33.7066428, "lon": 150.3305004, "tags": {"bus": "yes", "gtfs_id": "2780225", "highway": "bus_stop", "name": "44 Highland St", "public_transport": "platform", "ref": "2780225"}}, {"type": "node", "id": 8109692259, "lat": -33.7003425, "lon": 150.3365008, "tags": {"bus": "yes", "gtfs_id": "2780232", "highway": "bus_stop", "name": "72A Rawson Pde", "public_transport": "platform", "ref": "2780232"}}, {"type": "node", "id": 8109692260, "lat": -33.7101069, "lon": 150.3500365, "tags": {"bus": "yes", "gtfs_id": "278045", "highway": "bus_stop", "name": "77 Scott Av", "public_transport": "platform", "ref": "278045"}}, {"type": "node", "id": 8109692261, "lat": -33.7207269, "lon": 150.33098, "tags": {"bus": "yes", "gtfs_id": "2780116", "highway": "bus_stop", "name": "Balmoral Rd After Malvern Rd", "public_transport": "platform", "ref": "2780116"}}, {"type": "node", "id": 8218305988, "lat": -33.7129264, "lon": 150.3117339}, {"type": "node", "id": 8218305989, "lat": -33.7133407, "lon": 150.3116541}, {"type": "node", "id": 8218305990, "lat": -33.7131448, "lon": 150.3116657}, {"type": "node", "id": 8422046120, "lat": -33.7010191, "lon": 150.3133954, "tags": {"bus": "yes", "gtfs_id": "2780125", "highway": "bus_stop", "name": "Victoria St Before North St", "public_transport": "platform", "ref": "2780125"}}, {"type": "node", "id": 8422046121, "lat": -33.6946993, "lon": 150.319148, "tags": {"bus": "yes", "gtfs_id": "2780134", "highway": "bus_stop", "name": "Sixth Av After South St", "public_transport": "platform", "ref": "2780134"}}, {"type": "node", "id": 8422046122, "lat": -33.6878408, "lon": 150.3254828, "tags": {"bus": "yes", "gtfs_id": "2780263", "highway": "bus_stop", "name": "Minni Ha Ha Rd Opp Seventh Av", "public_transport": "platform", "ref": "2780263"}}, {"type": "node", "id": 8422046123, "lat": -33.6878976, "lon": 150.3162908, "tags": {"bus": "yes", "gtfs_id": "2780131", "highway": "bus_stop", "name": "Third Av Before Wattle Tree Rd", "public_transport": "platform", "ref": "2780131"}}, {"type": "node", "id": 8422046124, "lat": -33.6987844, "lon": 150.3156466, "tags": {"bus": "yes", "gtfs_id": "2780173", "highway": "bus_stop", "name": "Katoomba North Public School, Mistral St", "public_transport": "platform", "ref": "2780173"}}, {"type": "node", "id": 8422046125, "lat": -33.6930543, "lon": 150.3203247, "tags": {"bus": "yes", "gtfs_id": "2780140", "highway": "bus_stop", "name": "Minni Ha Ha Rd Opp Fifth Av", "public_transport": "platform", "ref": "2780140"}}, {"type": "node", "id": 8422046126, "lat": -33.6942938, "lon": 150.3181404, "tags": {"bus": "yes", "gtfs_id": "2780141", "highway": "bus_stop", "name": "Minni Ha Ha Rd Opp Fourth Av", "public_transport": "platform", "ref": "2780141"}}, {"type": "node", "id": 8422046127, "lat": -33.6934229, "lon": 150.3213633, "tags": {"bus": "yes", "gtfs_id": "2780135", "highway": "bus_stop", "name": "30 Sixth Av", "public_transport": "platform", "ref": "2780135"}}, {"type": "node", "id": 8422046128, "lat": -33.70072, "lon": 150.3161446, "tags": {"bus": "yes", "gtfs_id": "2780144", "highway": "bus_stop", "name": "Barton St Opp North St", "public_transport": "platform", "ref": "2780144"}}, {"type": "node", "id": 8422046129, "lat": -33.6893474, "lon": 150.3149751, "tags": {"bus": "yes", "gtfs_id": "2780261", "highway": "bus_stop", "name": "55 Second Av", "public_transport": "platform", "ref": "2780261"}}, {"type": "node", "id": 8422046130, "lat": -33.6941596, "lon": 150.3147493, "tags": {"bus": "yes", "gtfs_id": "2780132", "highway": "bus_stop", "name": "Second Av At South St", "public_transport": "platform", "ref": "2780132"}}, {"type": "node", "id": 8422046131, "lat": -33.6935422, "lon": 150.3159774, "tags": {"bus": "yes", "gtfs_id": "2780129", "highway": "bus_stop", "name": "Third Av After South St", "public_transport": "platform", "ref": "2780129"}}, {"type": "node", "id": 8422046132, "lat": -33.6892036, "lon": 150.3243386, "tags": {"bus": "yes", "gtfs_id": "2780138", "highway": "bus_stop", "name": "76 Minni Ha Ha Rd", "public_transport": "platform", "ref": "2780138"}}, {"type": "node", "id": 8422046133, "lat": -33.699424, "lon": 150.3164075, "tags": {"bus": "yes", "gtfs_id": "2780143", "highway": "bus_stop", "name": "Barton St Opp Katoomba North Public School", "public_transport": "platform", "ref": "2780143"}}, {"type": "node", "id": 8422046134, "lat": -33.691883, "lon": 150.3229861, "tags": {"bus": "yes", "gtfs_id": "2780137", "highway": "bus_stop", "name": "Mimosa Rd After Sixth Av", "public_transport": "platform", "ref": "2780137"}}, {"type": "node", "id": 8422046135, "lat": -33.6947236, "lon": 150.3179089, "tags": {"bus": "yes", "gtfs_id": "2780133", "highway": "bus_stop", "name": "South St After Minni Ha Ha Rd", "public_transport": "platform", "ref": "2780133"}}, {"type": "node", "id": 8422046136, "lat": -33.6947949, "lon": 150.3159275, "tags": {"bus": "yes", "gtfs_id": "2780128", "highway": "bus_stop", "name": "Paris Pde At South St", "public_transport": "platform", "ref": "2780128"}}, {"type": "node", "id": 8422046137, "lat": -33.6877477, "lon": 150.3243957, "tags": {"bus": "yes", "gtfs_id": "2780139", "highway": "bus_stop", "name": "Fifth Av After Minni Ha Ha Rd", "public_transport": "platform", "ref": "2780139"}}, {"type": "node", "id": 8422046138, "lat": -33.6962528, "lon": 150.3170188, "tags": {"bus": "yes", "gtfs_id": "2780142", "highway": "bus_stop", "name": "Barton St Opp Oxley St", "public_transport": "platform", "ref": "2780142"}}, {"type": "node", "id": 8422046139, "lat": -33.6968801, "lon": 150.3154793, "tags": {"bus": "yes", "gtfs_id": "2780127", "highway": "bus_stop", "name": "Paris Pde Before Oxley St", "public_transport": "platform", "ref": "2780127"}}, {"type": "node", "id": 8422046140, "lat": -33.698708, "lon": 150.3138674, "tags": {"bus": "yes", "gtfs_id": "2780126", "highway": "bus_stop", "name": "Victoria St Opp Katoomba North Public School", "public_transport": "platform", "ref": "2780126"}}, {"type": "node", "id": 8422046141, "lat": -33.6908077, "lon": 150.3230849, "tags": {"bus": "yes", "gtfs_id": "2780262", "highway": "bus_stop", "name": "Minni Ha Ha Rd After Mimosa Rd", "public_transport": "platform", "ref": "2780262"}}, {"type": "node", "id": 8422046142, "lat": -33.6875405, "lon": 150.314996, "tags": {"bus": "yes", "gtfs_id": "2780183", "highway": "bus_stop", "name": "Second Av At Wattle Tree Rd", "public_transport": "platform", "ref": "2780183"}}, {"type": "node", "id": 8422046143, "lat": -33.6897409, "lon": 150.3161955, "tags": {"bus": "yes", "gtfs_id": "2780130", "highway": "bus_stop", "name": "Third Av After Waratah Rd", "public_transport": "platform", "ref": "2780130"}}, {"type": "node", "id": 8422046144, "lat": -33.7017566, "lon": 150.3067376, "tags": {"bus": "yes", "gtfs_id": "2780149", "highway": "bus_stop", "name": "Twynam St At Mort St", "public_transport": "platform", "ref": "2780149"}}, {"type": "node", "id": 8422046145, "lat": -33.6921278, "lon": 150.3160749, "tags": {"bus": "yes", "gtfs_id": "2780260", "highway": "bus_stop", "name": "24 Third Av", "public_transport": "platform", "ref": "2780260"}}, {"type": "node", "id": 8422046146, "lat": -33.7029111, "lon": 150.3150373, "tags": {"bus": "yes", "gtfs_id": "2780264", "highway": "bus_stop", "name": "Twynam St After Barton St", "public_transport": "platform", "ref": "2780264"}}, {"type": "node", "id": 8422046147, "lat": -33.7263373, "lon": 150.303679, "tags": {"bus": "yes", "gtfs_id": "278015", "highway": "bus_stop", "name": "Katoomba Falls Rd Opp Blue Mountains Tourist Park", "public_transport": "platform", "ref": "278015"}}, {"type": "node", "id": 8422046148, "lat": -33.7080785, "lon": 150.3055997, "tags": {"bus": "yes", "gtfs_id": "2780271", "highway": "bus_stop", "name": "Bathurst Rd Before Gundar St", "public_transport": "platform", "ref": "2780271"}}, {"type": "node", "id": 8422046149, "lat": -33.7218851, "lon": 150.3140791, "tags": {"bus": "yes", "gtfs_id": "278083", "highway": "bus_stop", "name": "Ada St At Oatley Av", "public_transport": "platform", "ref": "278083"}}, {"type": "node", "id": 8422046150, "lat": -33.7138209, "lon": 150.3201617, "tags": {"bus": "yes", "gtfs_id": "278084", "highway": "bus_stop", "name": "Lovel St After Wilson St", "public_transport": "platform", "ref": "278084"}}, {"type": "node", "id": 8422046151, "lat": -33.7261115, "lon": 150.3063887, "tags": {"bus": "yes", "gtfs_id": "2780253", "highway": "bus_stop", "name": "Cliff Dr Opp Cliff View Lookout", "public_transport": "platform", "ref": "2780253"}}, {"type": "node", "id": 8422046152, "lat": -33.7166539, "lon": 150.3111814, "tags": {"bus": "yes", "gtfs_id": "278012", "highway": "bus_stop", "name": "Katoomba St Before Waratah St", "public_transport": "platform", "ref": "278012"}}, {"type": "node", "id": 8422046153, "lat": -33.7117735, "lon": 150.3120077, "tags": {"bus": "yes", "gtfs_id": "2780191", "highway": "bus_stop", "name": "Goldsmith Pl Opp Katoomba Station", "public_transport": "platform", "ref": "2780191"}}, {"type": "node", "id": 8422046154, "lat": -33.7139398, "lon": 150.3199429, "tags": {"bus": "yes", "gtfs_id": "2780104", "highway": "bus_stop", "name": "Lovel St At Wilson St", "public_transport": "platform", "ref": "2780104"}}, {"type": "node", "id": 8422046155, "lat": -33.705164, "lon": 150.3107615, "tags": {"bus": "yes", "gtfs_id": "2780265", "highway": "bus_stop", "name": "Whitton St After Camp St", "public_transport": "platform", "ref": "2780265"}}, {"type": "node", "id": 8422046156, "lat": -33.7169907, "lon": 150.3124024, "tags": {"bench": "no", "bin": "no", "bus": "yes", "gtfs_id": "2780182", "highway": "bus_stop", "lit": "no", "name": "Lurline St Af Clissold St", "public_transport": "platform", "ref": "2780182", "shelter": "no", "tactile_paving": "no"}}, {"type": "node", "id": 8422046157, "lat": -33.7057391, "lon": 150.3051109, "tags": {"bus": "yes", "gtfs_id": "2780163", "highway": "bus_stop", "name": "Mort St At Dantes Av", "public_transport": "platform", "ref": "2780163"}}, {"type": "node", "id": 8422046158, "lat": -33.7075014, "lon": 150.3076267, "tags": {"bus": "yes", "gtfs_id": "2780283", "highway": "bus_stop", "name": "Great Western Hwy After Albion St", "public_transport": "platform", "ref": "2780283"}}, {"type": "node", "id": 8422046159, "lat": -33.7298111, "lon": 150.3116117, "tags": {"bench": "yes", "bin": "no", "bus": "yes", "gtfs_id": "278074", "highway": "bus_stop", "lit": "no", "name": "Echo Point Rd At Panorama Dr", "public_transport": "platform", "ref": "278074", "shelter": "no", "tactile_paving": "yes"}}, {"type": "node", "id": 8422046160, "lat": -33.7213626, "lon": 150.3117593, "tags": {"bench": "no", "bin": "no", "bus": "yes", "gtfs_id": "278070", "highway": "bus_stop", "lit": "yes", "name": "Lurline St Opp Warialda St", "public_transport": "platform", "ref": "278070", "shelter": "no", "tactile_paving": "yes"}}, {"type": "node", "id": 8422046161, "lat": -33.7024696, "lon": 150.3157698, "tags": {"bus": "yes", "gtfs_id": "2780167", "highway": "bus_stop", "name": "Barton St Before Twynam St", "public_transport": "platform", "ref": "2780167"}}, {"type": "node", "id": 8422046162, "lat": -33.7057425, "lon": 150.3123799, "tags": {"bus": "yes", "gtfs_id": "2780124", "highway": "bus_stop", "name": "Victoria St At Camp St", "public_transport": "platform", "ref": "2780124"}}, {"type": "node", "id": 8422046163, "lat": -33.7278158, "lon": 150.3131327, "tags": {"bus": "yes", "gtfs_id": "2780242", "highway": "bus_stop", "name": "Katoomba High School, Martin St", "public_transport": "platform", "ref": "2780242"}}, {"type": "node", "id": 8422046164, "lat": -33.7282626, "lon": 150.3105381, "tags": {"bench": "yes", "bin": "no", "bus": "yes", "gtfs_id": "278075", "highway": "bus_stop", "name": "Echo Point Rd Opp Raymond Rd", "public_transport": "platform", "ref": "278075", "shelter": "yes", "tactile_paving": "yes"}}, {"type": "node", "id": 8422046165, "lat": -33.7184981, "lon": 150.3019006, "tags": {"bus": "yes", "gtfs_id": "2780276", "highway": "bus_stop", "name": "Wellington Rd At Carlton St", "public_transport": "platform", "ref": "2780276"}}, {"type": "node", "id": 8422046166, "lat": -33.7131528, "lon": 150.3230619, "tags": {"bus": "yes", "gtfs_id": "2780239", "highway": "bus_stop", "name": "Blue Mountains Transit Bus Depot, Megalong St", "public_transport": "platform", "ref": "2780239"}}, {"type": "node", "id": 8422046167, "lat": -33.7263328, "lon": 150.306205, "tags": {"bench": "no", "bin": "no", "bus": "yes", "gtfs_id": "2780252", "highway": "bus_stop", "lit": "no", "name": "Cliff View Lookout, Cliff Dr", "public_transport": "platform", "ref": "2780252", "shelter": "no", "tactile_paving": "no"}}, {"type": "node", "id": 8422046168, "lat": -33.7213801, "lon": 150.3100579, "tags": {"bench": "no", "bin": "no", "bus": "yes", "gtfs_id": "2780154", "highway": "bus_stop", "lit": "no", "name": "Katoomba St Opp Warialda St", "public_transport": "platform", "ref": "2780154", "shelter": "no", "tactile_paving": "yes"}}, {"type": "node", "id": 8422046169, "lat": -33.7167785, "lon": 150.3153977, "tags": {"bus": "yes", "gtfs_id": "2780256", "highway": "bus_stop", "name": "Clissold St At Duff St", "public_transport": "platform", "ref": "2780256"}}, {"type": "node", "id": 8422046170, "lat": -33.7075213, "lon": 150.3132545, "tags": {"bus": "yes", "gtfs_id": "2780259", "highway": "bus_stop", "name": "Station St Opp Edwin Lane", "public_transport": "platform", "ref": "2780259"}}, {"type": "node", "id": 8422046171, "lat": -33.710007, "lon": 150.3131666, "tags": {"bus": "yes", "gtfs_id": "2780238", "highway": "bus_stop", "name": "Station St After Civic Pl", "public_transport": "platform", "ref": "2780238"}}, {"type": "node", "id": 8422046172, "lat": -33.7160407, "lon": 150.3085045, "tags": {"bus": "yes", "gtfs_id": "2780240", "highway": "bus_stop", "name": "Cascade St At Gates Av", "public_transport": "platform", "ref": "2780240"}}, {"type": "node", "id": 8422046173, "lat": -33.7068921, "lon": 150.3073061, "tags": {"bus": "yes", "gtfs_id": "2780268", "highway": "bus_stop", "name": "Albion St Opp Cooper St", "public_transport": "platform", "ref": "2780268"}}, {"type": "node", "id": 8422046174, "lat": -33.7249044, "lon": 150.3110671, "tags": {"bench": "yes", "bin": "no", "bus": "yes", "gtfs_id": "278071", "highway": "bus_stop", "lit": "yes", "name": "Lurline St Opp Goyder Av", "public_transport": "platform", "ref": "278071", "shelter": "no", "tactile_paving": "no"}}, {"type": "node", "id": 8422046175, "lat": -33.7296822, "lon": 150.3117146, "tags": {"bench": "no", "bin": "no", "bus": "yes", "gtfs_id": "2780166", "highway": "bus_stop", "lit": "no", "name": "Echo Point Rd At Forster Rd", "public_transport": "platform", "ref": "2780166", "shelter": "no", "tactile_paving": "yes"}}, {"type": "node", "id": 8422046177, "lat": -33.7191593, "lon": 150.3122053, "tags": {"bench": "no", "bin": "no", "bus": "yes", "gtfs_id": "278069", "highway": "bus_stop", "lit": "yes", "name": "Lurline St At Merriwa St", "public_transport": "platform", "ref": "278069", "shelter": "no", "tactile_paving": "yes"}}, {"type": "node", "id": 8422046178, "lat": -33.7281339, "lon": 150.3106303, "tags": {"bus": "yes", "gtfs_id": "278072", "highway": "bus_stop", "name": "Echo Point Rd After Lurline St", "public_transport": "platform", "ref": "278072", "shelter": "no"}}, {"type": "node", "id": 8422046179, "lat": -33.7183069, "lon": 150.3174254, "tags": {"bus": "yes", "gtfs_id": "278082", "highway": "bus_stop", "name": "Emily St At Waratah St", "public_transport": "platform", "ref": "278082"}}, {"type": "node", "id": 8422046180, "lat": -33.7025372, "lon": 150.3061837, "tags": {"bus": "yes", "gtfs_id": "2780150", "highway": "bus_stop", "name": "Mort St At Rupert St", "public_transport": "platform", "ref": "2780150"}}, {"type": "node", "id": 8422046181, "lat": -33.7043037, "lon": 150.3095638, "tags": {"bus": "yes", "gtfs_id": "2780147", "highway": "bus_stop", "name": "Fitzgerald St Opp Jubilee St", "public_transport": "platform", "ref": "2780147"}}, {"type": "node", "id": 8422046182, "lat": -33.7146509, "lon": 150.2982063, "tags": {"bus": "yes", "gtfs_id": "278022", "highway": "bus_stop", "name": "Farnells Rd Before Narrow Neck Rd", "public_transport": "platform", "ref": "278022"}}, {"type": "node", "id": 8422046183, "lat": -33.7167624, "lon": 150.2960205, "tags": {"bus": "yes", "gtfs_id": "278023", "highway": "bus_stop", "name": "Narrow Neck Rd At Stuarts Rd", "public_transport": "platform", "ref": "278023"}}, {"type": "node", "id": 8422046184, "lat": -33.7159539, "lon": 150.2970481, "tags": {"bus": "yes", "gtfs_id": "2780255", "highway": "bus_stop", "name": "Narrow Neck Rd After Wellington Rd", "public_transport": "platform", "ref": "2780255"}}, {"type": "node", "id": 8422046185, "lat": -33.7139645, "lon": 150.3213675, "tags": {"bus": "yes", "gtfs_id": "278085", "highway": "bus_stop", "name": "Lovel St At Govett St", "public_transport": "platform", "ref": "278085"}}, {"type": "node", "id": 8422046186, "lat": -33.720107, "lon": 150.3165923, "tags": {"bus": "yes", "gtfs_id": "2780159", "highway": "bus_stop", "name": "Merriwa St At Carrington Av", "public_transport": "platform", "ref": "2780159"}}, {"type": "node", "id": 8422046187, "lat": -33.7228959, "lon": 150.3052945, "tags": {"bus": "yes", "gtfs_id": "2780258", "highway": "bus_stop", "name": "Loftus St Opp Dulhunty St", "public_transport": "platform", "ref": "2780258"}}, {"type": "node", "id": 8422046188, "lat": -33.7179222, "lon": 150.3122872, "tags": {"bus": "yes", "gtfs_id": "278080", "highway": "bus_stop", "name": "Lurline St Before Waratah St", "public_transport": "platform", "ref": "278080"}}, {"type": "node", "id": 8422046189, "lat": -33.725081, "lon": 150.3108689, "tags": {"bench": "yes", "bin": "no", "bus": "yes", "gtfs_id": "278076", "highway": "bus_stop", "lit": "yes", "name": "Lurline St At Goyder Av", "public_transport": "platform", "ref": "278076", "shelter": "yes", "tactile_paving": "yes"}}, {"type": "node", "id": 8422046190, "lat": -33.7311915, "lon": 150.3118367, "tags": {"bus": "yes", "highway": "bus_stop", "local_ref": "A", "name": "Echo Point Lookout, Echo Point Rd, Stand A", "public_transport": "platform", "ref": "278073"}}, {"type": "node", "id": 8422046191, "lat": -33.7251594, "lon": 150.293796, "tags": {"bus": "yes", "gtfs_id": "278024", "highway": "bus_stop", "name": "Katoomba Golf Club, Acacia St", "public_transport": "platform", "ref": "278024"}}, {"type": "node", "id": 8422046192, "lat": -33.704141, "lon": 150.3055457, "tags": {"bus": "yes", "gtfs_id": "2780267", "highway": "bus_stop", "name": "Mort St Opp Melrose Ln", "public_transport": "platform", "ref": "2780267"}}, {"type": "node", "id": 8422046193, "lat": -33.7274328, "lon": 150.3088774, "tags": {"bench": "no", "bin": "no", "bus": "yes", "gtfs_id": "278018", "highway": "bus_stop", "lit": "yes", "name": "Katoomba St At Birdwood Av", "public_transport": "platform", "ref": "278018", "shelter": "no", "tactile_paving": "yes"}}, {"type": "node", "id": 8422046194, "lat": -33.7178424, "lon": 150.3124735, "tags": {"bench": "yes", "bin": "no", "bus": "yes", "gtfs_id": "278068", "highway": "bus_stop", "lit": "yes", "name": "Lurline St After Waratah St", "public_transport": "platform", "ref": "278068", "shelter": "no", "tactile_paving": "yes"}}, {"type": "node", "id": 8422046195, "lat": -33.7196282, "lon": 150.314167, "tags": {"bus": "yes", "gtfs_id": "2780178", "highway": "bus_stop", "name": "Katoomba Public School, Merriwa St", "public_transport": "platform", "ref": "2780178"}}, {"type": "node", "id": 8422046196, "lat": -33.7197017, "lon": 150.3079396, "tags": {"bus": "yes", "gtfs_id": "2780257", "highway": "bus_stop", "name": "Cascade St At Frank Lane", "public_transport": "platform", "ref": "2780257"}}, {"type": "node", "id": 8422046197, "lat": -33.7200091, "lon": 150.31446, "tags": {"bus": "yes", "gtfs_id": "2780169", "highway": "bus_stop", "name": "Ada St At Merriwa St", "public_transport": "platform", "ref": "2780169"}}, {"type": "node", "id": 8422046198, "lat": -33.7176817, "lon": 150.3155875, "tags": {"bus": "yes", "gtfs_id": "278081", "highway": "bus_stop", "name": "Duff St At Waratah St", "public_transport": "platform", "ref": "278081"}}, {"type": "node", "id": 8422046199, "lat": -33.7054367, "lon": 150.3052935, "tags": {"bus": "yes", "gtfs_id": "2780151", "highway": "bus_stop", "name": "Mort St At Camp St", "public_transport": "platform", "ref": "2780151"}}, {"type": "node", "id": 8422046200, "lat": -33.7195444, "lon": 150.3119613, "tags": {"bench": "no", "bin": "no", "bus": "yes", "gtfs_id": "278079", "highway": "bus_stop", "lit": "no", "name": "Lurline St Opp Merriwa St", "public_transport": "platform", "ref": "278079", "shelter": "no", "tactile_paving": "yes"}}, {"type": "node", "id": 8422046201, "lat": -33.7093277, "lon": 150.3090022, "tags": {"bus": "yes", "gtfs_id": "2780269", "highway": "bus_stop", "name": "Bathurst Rd Before Buti St", "public_transport": "platform", "ref": "2780269"}}, {"type": "node", "id": 8422046202, "lat": -33.7250227, "lon": 150.3123661, "tags": {"bus": "yes", "gtfs_id": "2780170", "highway": "bus_stop", "name": "Darley St Before Kurrawan Rd", "public_transport": "platform", "ref": "2780170"}}, {"type": "node", "id": 8422046203, "lat": -33.705768, "lon": 150.312591, "tags": {"bus": "yes", "gtfs_id": "2780146", "highway": "bus_stop", "name": "Victoria St At Camp St", "public_transport": "platform", "ref": "2780146"}}, {"type": "node", "id": 8422046204, "lat": -33.7217356, "lon": 150.3075583, "tags": {"bus": "yes", "gtfs_id": "2780152", "highway": "bus_stop", "name": "Cascade St Opp Sherman Av", "public_transport": "platform", "ref": "2780152"}}, {"type": "node", "id": 8422046205, "lat": -33.7145175, "lon": 150.2980938, "tags": {"bus": "yes", "gtfs_id": "2780274", "highway": "bus_stop", "name": "Farnells Rd After Narrow Neck Rd", "public_transport": "platform", "ref": "2780274"}}, {"type": "node", "id": 8422046206, "lat": -33.7084646, "lon": 150.3031115, "tags": {"bus": "yes", "gtfs_id": "278064", "highway": "bus_stop", "name": "Bathurst Rd Opp Great Western Hwy", "public_transport": "platform", "ref": "278064"}}, {"type": "node", "id": 8422046207, "lat": -33.7034989, "lon": 150.3143643, "tags": {"bus": "yes", "gtfs_id": "2780145", "highway": "bus_stop", "name": "Myrtle St At Rupert St", "public_transport": "platform", "ref": "2780145"}}, {"type": "node", "id": 8422046208, "lat": -33.7097309, "lon": 150.3003365, "tags": {"bus": "yes", "gtfs_id": "2780273", "highway": "bus_stop", "name": "Blue Mountains Emergency Centre, Valley Rd", "public_transport": "platform", "ref": "2780273"}}, {"type": "node", "id": 8422046209, "lat": -33.7253303, "lon": 150.3008897, "tags": {"bus": "yes", "gtfs_id": "278025", "highway": "bus_stop", "name": "Kamillaroi Rd At Burrawang St", "public_transport": "platform", "ref": "278025"}}, {"type": "node", "id": 8422046210, "lat": -33.7094299, "lon": 150.3002374, "tags": {"bus": "yes", "gtfs_id": "278054", "highway": "bus_stop", "name": "Valley Rd Opp Blue Mountains Emergency Centre", "public_transport": "platform", "ref": "278054"}}, {"type": "node", "id": 8422046211, "lat": -33.7023295, "lon": 150.30924, "tags": {"bench": "yes", "bin": "no", "bus": "yes", "gtfs_id": "2780148", "highway": "bus_stop", "lit": "no", "name": "Albion St At Twynam St", "public_transport": "platform", "ref": "2780148", "shelter": "yes", "tactile_paving": "no"}}, {"type": "node", "id": 8422046212, "lat": -33.7053843, "lon": 150.2930941, "tags": {"bus": "yes", "gtfs_id": "2780272", "highway": "bus_stop", "name": "Bonnie Doon Reserve, Great Western Hwy", "public_transport": "platform", "ref": "2780272"}}, {"type": "node", "id": 8422046213, "lat": -33.7244609, "lon": 150.3094536, "tags": {"bench": "yes", "bin": "no", "bus": "yes", "gtfs_id": "278019", "highway": "bus_stop", "lit": "no", "name": "Katoomba St Opp Goyder Av", "public_transport": "platform", "ref": "278019", "shelter": "yes", "tactile_paving": "yes"}}, {"type": "node", "id": 8422046214, "lat": -33.7157001, "lon": 150.3026427, "tags": {"bus": "yes", "gtfs_id": "278021", "highway": "bus_stop", "name": "Catalina Av Opp Katoomba Sports And Aquatic Centre", "public_transport": "platform", "ref": "278021"}}, {"type": "node", "id": 8422046215, "lat": -33.7141683, "lon": 150.3219112, "tags": {"bus": "yes", "gtfs_id": "2780103", "highway": "bus_stop", "name": "Lovel St At Govett St", "public_transport": "platform", "ref": "2780103"}}, {"type": "node", "id": 8422046216, "lat": -33.7191624, "lon": 150.3144382, "tags": {"bus": "yes", "gtfs_id": "2780179", "highway": "bus_stop", "name": "Katoomba Public School, Ada St", "public_transport": "platform", "ref": "2780179"}}, {"type": "node", "id": 8422048217, "lat": -33.7076613, "lon": 150.3134243, "tags": {"bus": "yes", "gtfs_id": "2780165", "highway": "bus_stop", "name": "Station St At Edwin Lane", "public_transport": "platform", "ref": "2780165"}}, {"type": "node", "id": 8422048218, "lat": -33.7080203, "lon": 150.3047454, "tags": {"bus": "yes", "gtfs_id": "2780270", "highway": "bus_stop", "name": "Bathurst Rd Opp Gundar St", "public_transport": "platform", "ref": "2780270"}}, {"type": "node", "id": 8422048219, "lat": -33.7233865, "lon": 150.3112029, "tags": {"bench": "yes", "bin": "no", "bus": "yes", "gtfs_id": "278077", "highway": "bus_stop", "lit": "no", "name": "Lurline St Opp Warwick St", "public_transport": "platform", "ref": "278077", "shelter": "no", "tactile_paving": "yes"}}, {"type": "node", "id": 8502518569, "lat": -33.674004, "lon": 150.2813958, "tags": {"bus": "yes", "gtfs_id": "2780230", "highway": "bus_stop", "name": "Medlow Bath Station, Railway Parade", "public_transport": "platform", "ref": "2780230"}}, {"type": "node", "id": 8502518570, "lat": -33.6851888, "lon": 150.2875357, "tags": {"bus": "yes", "gtfs_id": "278056", "highway": "bus_stop", "name": "Great Western Highway at Foy Avenue", "public_transport": "platform", "ref": "278056"}}, {"type": "node", "id": 8502544816, "lat": -33.7086065, "lon": 150.3546764, "tags": {"bus": "yes", "gtfs_id": "2782184", "highway": "bus_stop", "name": "Sinclair Crescent at Blaxland Road", "public_transport": "platform", "ref": "2782184"}}, {"type": "node", "id": 8502549217, "lat": -33.7083446, "lon": 150.3508739, "tags": {"bus": "yes", "gtfs_id": "2780171", "highway": "bus_stop", "name": "Sinclair Crescent at Great Western Highway", "public_transport": "platform", "ref": "2780171"}}, {"type": "node", "id": 8502549218, "lat": -33.7084194, "lon": 150.3511033, "tags": {"bus": "yes", "gtfs_id": "2780176", "highway": "bus_stop", "name": "Sinclair Crescent at Great Western Highway", "public_transport": "platform", "ref": "2780176"}}, {"type": "node", "id": 8502549219, "lat": -33.7200469, "lon": 150.3653606, "tags": {"bus": "yes", "gtfs_id": "278215", "highway": "bus_stop", "name": "Fletcher Street at Valley Road", "public_transport": "platform", "ref": "278215"}}, {"type": "node", "id": 8502549220, "lat": -33.7202245, "lon": 150.3658833, "tags": {"bus": "yes", "gtfs_id": "278225", "highway": "bus_stop", "name": "Fletcher Street at Murphy's Lane", "public_transport": "platform", "ref": "278225"}}, {"type": "node", "id": 8502549221, "lat": -33.7175925, "lon": 150.3634539, "tags": {"bus": "yes", "gtfs_id": "278226", "highway": "bus_stop", "name": "Valley Road at Backhouse Lane", "public_transport": "platform", "ref": "278226"}}, {"type": "node", "id": 8502549222, "lat": -33.7169014, "lon": 150.3716025, "tags": {"bus": "yes", "gtfs_id": "2782185", "highway": "bus_stop", "name": "Falls Road opposite Parkes Street", "public_transport": "platform", "ref": "2782185"}}, {"type": "node", "id": 8502549223, "lat": -33.7208161, "lon": 150.3705045, "tags": {"bus": "yes", "gtfs_id": "278217", "highway": "bus_stop", "name": "Fletcher Street at Falls Road", "public_transport": "platform", "ref": "278217"}}, {"type": "node", "id": 8502549224, "lat": -33.7171886, "lon": 150.3716461, "tags": {"bus": "yes", "gtfs_id": "278221", "highway": "bus_stop", "name": "Falls Road at Parkes Street", "public_transport": "platform", "ref": "278221"}}, {"type": "node", "id": 8502549225, "lat": -33.718444, "lon": 150.3712207, "tags": {"bus": "yes", "gtfs_id": "278218", "highway": "bus_stop", "name": "Falls Road after Backhouse Street", "public_transport": "platform", "ref": "278218"}}, {"type": "node", "id": 8502549226, "lat": -33.7158433, "lon": 150.3638063, "tags": {"bus": "yes", "gtfs_id": "278227", "highway": "bus_stop", "name": "Valley Road at Parkes Street", "public_transport": "platform", "ref": "278227"}}, {"type": "node", "id": 8502549227, "lat": -33.7176047, "lon": 150.3635725, "tags": {"bus": "yes", "gtfs_id": "278214", "highway": "bus_stop", "name": "Valley Road at Backhouse Street", "public_transport": "platform", "ref": "278214"}}, {"type": "node", "id": 8502549228, "lat": -33.7234266, "lon": 150.3844768, "tags": {"bench": "yes", "bus": "yes", "gtfs_id": "278249", "highway": "bus_stop", "name": "Great Western Highway opposite Tableland Road", "public_transport": "platform", "ref": "278249", "shelter": "yes", "tactile_paving": "yes"}}, {"type": "node", "id": 8502549229, "lat": -33.7203032, "lon": 150.3671731, "tags": {"bus": "yes", "gtfs_id": "278216", "highway": "bus_stop", "name": "Fletcher Street at Pritchard Street", "public_transport": "platform", "ref": "278216"}}, {"type": "node", "id": 8502549230, "lat": -33.7158845, "lon": 150.3639481, "tags": {"bus": "yes", "gtfs_id": "278213", "highway": "bus_stop", "name": "Valley Road at Parkes Street", "public_transport": "platform", "ref": "278213"}}, {"type": "node", "id": 8502549231, "lat": -33.7097564, "lon": 150.3576262, "tags": {"bus": "yes", "gtfs_id": "278233", "highway": "bus_stop", "name": "Hill Street after Sinclair Crescent", "public_transport": "platform", "ref": "278233"}}, {"type": "node", "id": 8502549232, "lat": -33.7106818, "lon": 150.3760691, "tags": {"bus": "yes", "gtfs_id": "278247", "highway": "bus_stop", "name": "Great Western Highway at Station Street", "public_transport": "platform", "ref": "278247"}}, {"type": "node", "id": 8502549233, "lat": -33.7021978, "lon": 150.3737086, "tags": {"bus": "yes", "gtfs_id": "278258", "highway": "bus_stop", "name": "Blaxland Road before Angel Street", "public_transport": "platform", "ref": "278258"}}, {"type": "node", "id": 8502549234, "lat": -33.7008576, "lon": 150.3735846, "tags": {"bus": "yes", "gtfs_id": "278243", "highway": "bus_stop", "name": "Blaxland Road opposite Waratah Road", "public_transport": "platform", "ref": "278243"}}, {"type": "node", "id": 8502549235, "lat": -33.6997019, "lon": 150.3667241, "tags": {"bus": "yes", "gtfs_id": "278237", "highway": "bus_stop", "name": "Pauline Avenue at Waratah Road", "public_transport": "platform", "ref": "278237"}}, {"type": "node", "id": 8502549236, "lat": -33.7053927, "lon": 150.358664, "tags": {"bus": "yes", "gtfs_id": "2782189", "highway": "bus_stop", "name": "Hill Street at Cook Road", "public_transport": "platform", "ref": "2782189"}}, {"type": "node", "id": 8502549237, "lat": -33.7015611, "lon": 150.3784555, "tags": {"bus": "yes", "gtfs_id": "278259", "highway": "bus_stop", "name": "51 Henderson Road", "public_transport": "platform", "ref": "278259"}}, {"type": "node", "id": 8502549238, "lat": -33.7136702, "lon": 150.3724299, "tags": {"bus": "yes", "gtfs_id": "278220", "highway": "bus_stop", "name": "Wentworth Falls Public School, Falls Road", "public_transport": "platform", "ref": "278220"}}, {"type": "node", "id": 8502549239, "lat": -33.7007539, "lon": 150.3839544, "tags": {"bus": "yes", "gtfs_id": "278244", "highway": "bus_stop", "name": "Henderson Road at Lurline Street", "public_transport": "platform", "ref": "278244", "shelter": "yes"}}, {"type": "node", "id": 8502549240, "lat": -33.7101961, "lon": 150.3576973, "tags": {"bus": "yes", "gtfs_id": "2782188", "highway": "bus_stop", "name": "Hill Street at Sinclair Crescent", "public_transport": "platform", "ref": "2782188"}}, {"type": "node", "id": 8502549241, "lat": -33.6938139, "lon": 150.367799, "tags": {"bus": "yes", "gtfs_id": "278240", "highway": "bus_stop", "name": "Blaxland Road opposite Pauline Avenue", "public_transport": "platform", "ref": "278240"}}, {"type": "node", "id": 8502549242, "lat": -33.6951314, "lon": 150.3641087, "tags": {"bus": "yes", "gtfs_id": "278239", "highway": "bus_stop", "name": "Blaxland Road at Lamartine Avenue", "public_transport": "platform", "ref": "278239"}}, {"type": "node", "id": 8502549243, "lat": -33.7078864, "lon": 150.3705852, "tags": {"bus": "yes", "gtfs_id": "2782167", "highway": "bus_stop", "name": "Blue Mountain Grammar School, Matcham Avenue", "public_transport": "platform", "ref": "2782167"}}, {"type": "node", "id": 8502549244, "lat": -33.7053718, "lon": 150.3700083, "tags": {"bus": "yes", "gtfs_id": "278232", "highway": "bus_stop", "name": "Sinclair Crescent opposite Wentworth Falls Lakes Reserve", "public_transport": "platform", "ref": "278232"}}, {"type": "node", "id": 8502549245, "lat": -33.6963978, "lon": 150.3629504, "tags": {"bus": "yes", "gtfs_id": "278238", "highway": "bus_stop", "name": "Wentworth Falls Country Club, Beatty Road", "public_transport": "platform", "ref": "278238"}}, {"type": "node", "id": 8502549246, "lat": -33.7140844, "lon": 150.3643291, "tags": {"bus": "yes", "gtfs_id": "278212", "highway": "bus_stop", "name": "Valley Road at Armstrong Street", "public_transport": "platform", "ref": "278212"}}, {"type": "node", "id": 8502549247, "lat": -33.6957291, "lon": 150.3706127, "tags": {"bus": "yes", "gtfs_id": "278241", "highway": "bus_stop", "name": "Blaxland Road at Tarella Road", "public_transport": "platform", "ref": "278241", "shelter": "yes"}}, {"type": "node", "id": 8502549248, "lat": -33.6994305, "lon": 150.3624648, "tags": {"bus": "yes", "gtfs_id": "2782192", "highway": "bus_stop", "name": "96 Waratah Road", "public_transport": "platform", "ref": "2782192"}}, {"type": "node", "id": 8502549249, "lat": -33.7138636, "lon": 150.3642151, "tags": {"bus": "yes", "gtfs_id": "278228", "highway": "bus_stop", "name": "Valley Road opposite Armstrong Street", "public_transport": "platform", "ref": "278228"}}, {"type": "node", "id": 8502549250, "lat": -33.700937, "lon": 150.3837558, "tags": {"bus": "yes", "gtfs_id": "278263", "highway": "bus_stop", "name": "Henderson Road at Lawson View Parade", "public_transport": "platform", "ref": "278263"}}, {"type": "node", "id": 8502549251, "lat": -33.7007546, "lon": 150.359525, "tags": {"bus": "yes", "gtfs_id": "278236", "highway": "bus_stop", "name": "Blaxland Road at Darwin Avenue", "public_transport": "platform", "ref": "278236"}}, {"type": "node", "id": 8502549252, "lat": -33.7059687, "lon": 150.3762003, "tags": {"bus": "yes", "gtfs_id": "2782195", "highway": "bus_stop", "name": "Blaxland Road opposite Westbourne Avenue", "public_transport": "platform", "ref": "2782195"}}, {"type": "node", "id": 8502549253, "lat": -33.7059173, "lon": 150.3763615, "tags": {"bus": "yes", "gtfs_id": "278245", "highway": "bus_stop", "name": "Blaxland Road at Westbourne Avenue", "public_transport": "platform", "ref": "278245"}}, {"type": "node", "id": 8502549254, "lat": -33.7087016, "lon": 150.3758005, "tags": {"bus": "yes", "gtfs_id": "278231", "highway": "bus_stop", "name": "Station Street opposite Wentworth Falls Station", "public_transport": "platform", "ref": "278231"}}, {"type": "node", "id": 8502549255, "lat": -33.6994161, "lon": 150.3629927, "tags": {"bus": "yes", "gtfs_id": "2782191", "highway": "bus_stop", "name": "Waratah Road opposite 94", "public_transport": "platform", "ref": "2782191"}}, {"type": "node", "id": 8502549256, "lat": -33.7094082, "lon": 150.370727, "tags": {"bus": "yes", "gtfs_id": "278230", "highway": "bus_stop", "name": "Blue Mountains Grammar School, Great Western Highway", "public_transport": "platform", "ref": "278230"}}, {"type": "node", "id": 8502549257, "lat": -33.7016246, "lon": 150.3796968, "tags": {"bus": "yes", "gtfs_id": "278264", "highway": "bus_stop", "name": "Henderson Road after Sunnyside Avenue", "public_transport": "platform", "ref": "278264"}}, {"type": "node", "id": 8502549258, "lat": -33.7102913, "lon": 150.3729629, "tags": {"bus": "yes", "gtfs_id": "2782187", "highway": "bus_stop", "name": "Falls Road opposite Wilson Park", "public_transport": "platform", "ref": "2782187"}}, {"type": "node", "id": 8502549259, "lat": -33.7041739, "lon": 150.357743, "tags": {"bus": "yes", "gtfs_id": "278235", "highway": "bus_stop", "name": "Blaxland Road opposite Bass Road", "public_transport": "platform", "ref": "278235"}}, {"type": "node", "id": 8502549260, "lat": -33.6992124, "lon": 150.3732569, "tags": {"bus": "yes", "gtfs_id": "278242", "highway": "bus_stop", "name": "Blaxland Road at Toulon Avenue", "public_transport": "platform", "ref": "278242"}}, {"type": "node", "id": 8502549261, "lat": -33.7097139, "lon": 150.3698077, "tags": {"bus": "yes", "gtfs_id": "278253", "highway": "bus_stop", "name": "Great Western Highway opposite Blue Mountains Grammar School", "public_transport": "platform", "ref": "278253"}}, {"type": "node", "id": 8502549262, "lat": -33.7053875, "lon": 150.3585237, "tags": {"bus": "yes", "gtfs_id": "278234", "highway": "bus_stop", "name": "Hill Street at Cook Road", "public_transport": "platform", "ref": "278234"}}, {"type": "node", "id": 8502549263, "lat": -33.6969433, "lon": 150.3667458, "tags": {"bus": "yes", "gtfs_id": "2782193", "highway": "bus_stop", "name": "Beatty Road after Pauline Avenue", "public_transport": "platform", "ref": "2782193"}}, {"type": "node", "id": 8502549264, "lat": -33.7039316, "lon": 150.3580356, "tags": {"bus": "yes", "gtfs_id": "2782190", "highway": "bus_stop", "name": "Blaxland Road at Bass Road", "public_transport": "platform", "ref": "2782190"}}, {"type": "node", "id": 8502559139, "lat": -33.7213518, "lon": 150.4276059, "tags": {"bus": "yes", "gtfs_id": "278324", "highway": "bus_stop", "name": "Lawson Public School, Wilson Street", "public_transport": "platform", "ref": "278324"}}, {"type": "node", "id": 8502559140, "lat": -33.723414, "lon": 150.4263562, "tags": {"bus": "yes", "gtfs_id": "278335", "highway": "bus_stop", "name": "Adelaide Street at Charlie Street", "public_transport": "platform", "ref": "278335"}}, {"type": "node", "id": 8502559141, "lat": -33.7176803, "lon": 150.4214403, "tags": {"bus": "yes", "gtfs_id": "278343", "highway": "bus_stop", "name": "30 Wallis Street (Hail and Ride)", "public_transport": "platform", "ref": "278343"}}, {"type": "node", "id": 8502559142, "lat": -33.7192767, "lon": 150.4211187, "tags": {"bus": "yes", "gtfs_id": "278342", "highway": "bus_stop", "name": "Wallis Street after Hay Street (Hail and Ride)", "public_transport": "platform", "ref": "278342"}}, {"type": "node", "id": 8502559143, "lat": -33.7179456, "lon": 150.4327661, "tags": {"bus": "yes", "gtfs_id": "278338", "highway": "bus_stop", "name": "Hughes Avenue at Badgery Crescent", "public_transport": "platform", "ref": "278338"}}, {"type": "node", "id": 8502559144, "lat": -33.7159927, "lon": 150.4330583, "tags": {"bus": "yes", "gtfs_id": "278339", "highway": "bus_stop", "name": "Hughes Avenue at Poplar Grove", "public_transport": "platform", "ref": "278339"}}, {"type": "node", "id": 8502559145, "lat": -33.7207721, "lon": 150.4295644, "tags": {"bus": "yes", "gtfs_id": "278334", "highway": "bus_stop", "name": "New Street opposite Mid Mountains Neighbourhood Centre", "public_transport": "platform", "ref": "278334"}}, {"type": "node", "id": 8502559146, "lat": -33.716425, "lon": 150.4306875, "tags": {"bus": "yes", "gtfs_id": "278341", "highway": "bus_stop", "name": "San Jose Avenue at Park Road", "public_transport": "platform", "ref": "278341"}}, {"type": "node", "id": 8502559147, "lat": -33.7217931, "lon": 150.4285942, "tags": {"bus": "yes", "gtfs_id": "278323", "highway": "bus_stop", "name": "Lawson Public School, Adelaide Street", "public_transport": "platform", "ref": "278323"}}, {"type": "node", "id": 8502559148, "lat": -33.7150984, "lon": 150.4321026, "tags": {"bus": "yes", "gtfs_id": "278340", "highway": "bus_stop", "name": "Fairview Road before Hughes Avenue", "public_transport": "platform", "ref": "278340"}}, {"type": "node", "id": 8502559149, "lat": -33.7178147, "lon": 150.4305921, "tags": {"bus": "yes", "gtfs_id": "278336", "highway": "bus_stop", "name": "San Jose Avenue at Loftus Street", "public_transport": "platform", "ref": "278336"}}, {"type": "node", "id": 8502559150, "lat": -33.7192805, "lon": 150.4414039, "tags": {"bus": "yes", "gtfs_id": "278346", "highway": "bus_stop", "name": "Our Lady Of The Nativity Primary School, Somers Street", "public_transport": "platform", "ref": "278346"}}, {"type": "node", "id": 8502586428, "lat": -33.7231847, "lon": 150.4159976, "tags": {"bench": "yes", "bus": "yes", "gtfs_id": "278412", "highway": "bus_stop", "name": "Bullaburra Station, Great Western Highway", "public_transport": "platform", "ref": "278412", "shelter": "yes", "tactile_paving": "yes"}}, {"type": "node", "id": 8502586429, "lat": -33.7222832, "lon": 150.4174285, "tags": {"bus": "yes", "gtfs_id": "278423", "highway": "bus_stop", "name": "Hay Street at Railway Parade (Hail and Ride)", "public_transport": "platform", "ref": "278423"}}, {"type": "node", "id": 8502586430, "lat": -33.7248094, "lon": 150.4087918, "tags": {"bench": "yes", "bus": "yes", "gtfs_id": "278415", "highway": "bus_stop", "name": "Great Western Highway before Genevieve Road", "public_transport": "platform", "ref": "278415", "shelter": "yes", "tactile_paving": "yes"}}, {"type": "node", "id": 9865374902, "lat": -33.7433261, "lon": 150.6097701, "tags": {"bus": "yes", "highway": "bus_stop", "name": "Wilson Way opp Blaxland Station", "public_transport": "platform", "ref": "277417"}}, {"type": "node", "id": 9865374903, "lat": -33.7436252, "lon": 150.6098846, "tags": {"bus": "yes", "highway": "bus_stop", "name": "Blaxland Station, Wilson Way", "public_transport": "platform", "ref": "277451"}}, {"type": "node", "id": 9865374904, "lat": -33.7439891, "lon": 150.6098552, "tags": {"bench": "yes", "bus": "yes", "highway": "bus_stop", "name": "Blaxland Station, Great Western Hwy", "public_transport": "platform", "ref": "277454", "shelter": "yes"}}, {"type": "node", "id": 9865374905, "lat": -33.7440283, "lon": 150.6095606, "tags": {"bench": "yes", "bus": "yes", "highway": "bus_stop", "name": "Great Western Hwy opp Blaxland Station", "public_transport": "platform", "ref": "277472", "shelter": "yes"}}, {"type": "node", "id": 9867643344, "lat": -33.7213796, "lon": 150.6033897, "tags": {"bus": "yes", "highway": "bus_stop", "name": "Warrimoo Station, Railway Pde", "public_transport": "platform", "ref": "2774131"}}, {"type": "node", "id": 9867643345, "lat": -33.7217116, "lon": 150.6039884, "tags": {"bus": "yes", "highway": "bus_stop", "name": "Railway Pde opp Warrimoo Station", "public_transport": "platform", "ref": "2774129"}}, {"type": "node", "id": 9871424218, "lat": -33.7036606, "lon": 150.583857, "tags": {"bus": "yes", "highway": "bus_stop", "name": "Great Western Hwy opp Valley Heights Station", "ref": "2777123", "shelter": "yes"}}, {"type": "node", "id": 9871424219, "lat": -33.7039627, "lon": 150.5836537, "tags": {"bus": "yes", "highway": "bus_stop", "name": "Great Western Hwy opp Valley Heights Station", "public_transport": "platform", "ref": "2777134", "shelter": "yes"}}, {"type": "node", "id": 9871424220, "lat": -33.7039237, "lon": 150.5837212, "tags": {"bus": "yes", "highway": "bus_stop", "name": "Valley Heights Station, Great Western Hwy", "ref": "2777179"}}, {"type": "node", "id": 9871805046, "lat": -33.6989815, "lon": 150.5639457, "tags": {"bench": "yes", "bin": "no", "bus": "yes", "highway": "bus_stop", "name": "Springwood Station, Macquarie Rd", "ref": "277748", "shelter": "yes"}}, {"type": "node", "id": 9871805047, "lat": -33.6993756, "lon": 150.5637366, "tags": {"bus": "yes", "highway": "bus_stop", "name": "Macquarie Rd opp Springwood Station", "ref": "277747"}}, {"type": "node", "id": 9884441729, "lat": -33.715341, "lon": 150.5063472, "tags": {"bus": "yes", "highway": "bus_stop", "name": "Linden Station, Great Western Hwy", "public_transport": "platform", "ref": "277883"}}, {"type": "node", "id": 9886399263, "lat": -33.7352516, "lon": 150.4812045, "tags": {"bus": "yes", "highway": "bus_stop", "name": "Great Western Hwy opp Woodford Station", "ref": "277862"}}, {"type": "node", "id": 10767463651, "lat": -33.750799, "lon": 150.6115895, "tags": {"bench": "yes", "bus": "yes", "highway": "bus_stop", "public_transport": "platform", "shelter": "no", "tactile_paving": "yes"}}, {"type": "node", "id": 10773308821, "lat": -33.7274538, "lon": 150.317127, "tags": {"bus": "yes", "highway": "bus_stop", "note": "Stop 15 of Explorer Bus", "public_transport": "platform", "shelter": "no"}}, {"type": "node", "id": 10973511303, "lat": -33.7289894, "lon": 150.3005549, "tags": {"bus": "yes", "highway": "bus_stop", "public_transport": "platform"}}, {"type": "node", "id": 11218955062, "lat": -33.7284064, "lon": 150.3007646, "tags": {"bus": "yes", "gtfs_id": "278016", "highway": "bus_stop", "name": "Scenic World, Violet St", "public_transport": "platform", "ref": "278016"}}, {"type": "way", "id": 843895376, "nodes": [4861436819, 8218305989, 7872135719, 7872135720, 8218305988, 7872135721, 6938148487, 8218305990, 4861436819], "tags": {"amenity": "bus_station", "bus": "yes", "gtfs_id": "278027", "highway": "bus_stop", "name": "Katoomba Street before Bathurst Road", "note": "Would not this be more than one stop? Bus routes would have seperate areas to stop in???", "public_transport": "platform", "ref": "278027"}}]}