{"version": 0.6, "generator": "Overpass API 0.7.61.5 4133829e", "osm3s": {"timestamp_osm_base": "2023-11-21T14:20:45Z", "copyright": "The data included in this document is from www.openstreetmap.org. The data is made available under ODbL."}, "elements": [{"type": "node", "id": 1403538447, "lat": 41.1833264, "lon": -8.6006009, "tags": {"bench": "yes", "bin": "no", "bus": "yes", "highway": "bus_stop", "local_ref": "HSJ12", "name": "Hospital S\u00e3o Jo\u00e3o", "public_transport": "platform", "ref": "HSJ12", "shelter": "yes", "tactile_paving": "no"}}, {"type": "node", "id": 1838443964, "lat": 41.1805944, "lon": -8.5825553, "tags": {"bin": "no", "bus": "yes", "highway": "bus_stop", "lit": "no", "name": "Areosa", "network": "Andante", "operator": "STCP", "public_transport": "platform", "ref": "ARS4", "shelter": "yes"}}, {"type": "node", "id": 2085543907, "lat": 41.1831638, "lon": -8.6017236, "tags": {"bench": "yes", "bin": "yes", "bus": "yes", "highway": "bus_stop", "name": "Hospital S\u00e3o Jo\u00e3o (Metro)", "public_transport": "platform", "shelter": "yes"}}, {"type": "node", "id": 2085550375, "lat": 41.1814906, "lon": -8.5975903, "tags": {"bench": "yes", "bin": "no", "bus": "yes", "highway": "bus_stop", "lit": "no", "name": "Escola Superior Educa\u00e7\u00e3o", "operator": "STCP", "public_transport": "platform", "ref": "ESED2", "shelter": "yes", "tactile_paving": "no"}}, {"type": "node", "id": 2103239982, "lat": 41.1674753, "lon": -8.6208053, "tags": {"bus": "yes", "highway": "bus_stop", "local_ref": "BVLH3", "name": "Bica Velha", "network": "Andante", "operator": "STCP", "public_transport": "platform", "ref": "BVLH3"}}, {"type": "node", "id": 2103243084, "lat": 41.1674985, "lon": -8.6172769, "tags": {"bench": "yes", "bus": "yes", "highway": "bus_stop", "name": "Silva Porto", "network": "Andante", "operator": "STCP", "public_transport": "platform", "ref": "SVP2", "shelter": "no"}}, {"type": "node", "id": 2103245000, "lat": 41.1663799, "lon": -8.6125602, "tags": {"bus": "yes", "highway": "bus_stop", "name": "Vale Formoso", "operator": "STCP", "public_transport": "platform", "ref": "VFM3"}}, {"type": "node", "id": 2103256158, "lat": 41.164325, "lon": -8.6067232, "tags": {"bench": "no", "bin": "no", "bus": "yes", "highway": "bus_stop", "lit": "yes", "name": "Faria Guimar\u00e3es", "public_transport": "platform", "ref": "FG3", "shelter": "no"}}, {"type": "node", "id": 2103256159, "lat": 41.1653602, "lon": -8.6059002, "tags": {"bench": "yes", "bin": "no", "bus": "yes", "highway": "bus_stop", "lit": "yes", "name": "Covelo", "public_transport": "platform", "ref": "CVLO2", "shelter": "yes"}}, {"type": "node", "id": 2103256560, "lat": 41.1653885, "lon": -8.6038363, "tags": {"bench": "yes", "bin": "no", "bus": "yes", "gtfs_id": "BJ1", "gtfs_stop_code": "BJ1", "highway": "bus_stop", "lit": "yes", "local_ref": "BJ1", "name": "Bento J\u00fanior", "public_transport": "platform", "ref": "BJ1", "route_ref": "204;603", "shelter": "yes", "transport:zone": "PRT1", "url": "http://www.stcp.pt/pt/viajar/paragens/?t=detalhe&paragem=BJ1"}}, {"type": "node", "id": 2103258930, "lat": 41.1665849, "lon": -8.6016731, "tags": {"bin": "no", "bus": "yes", "highway": "bus_stop", "lit": "no", "name": "\u00c1lvaro Castel\u00f5es", "public_transport": "platform", "ref": "ACST2", "shelter": "yes"}}, {"type": "node", "id": 2103267747, "lat": 41.1683496, "lon": -8.6034353, "tags": {"bus": "yes", "highway": "bus_stop", "name": "Aval de Cima", "operator": "STCP", "public_transport": "platform", "ref": "AVC1"}}, {"type": "node", "id": 2103267750, "lat": 41.1698346, "lon": -8.6024778, "tags": {"bus": "yes", "highway": "bus_stop", "name": "Augusto Lessa", "operator": "STCP", "public_transport": "platform"}}, {"type": "node", "id": 2103268177, "lat": 41.1696893, "lon": -8.5989976, "tags": {"bin": "no", "bus": "yes", "highway": "bus_stop", "lit": "no", "local_ref": "SAL1", "name": "Salgueiros", "public_transport": "platform", "shelter": "yes"}}, {"type": "node", "id": 2103272928, "lat": 41.1732538, "lon": -8.5988273, "tags": {"bin": "no", "bus": "yes", "highway": "bus_stop", "lit": "no", "name": "Manuel Laranjeira", "operator": "STCP", "public_transport": "platform", "ref": "MLAR1", "shelter": "yes"}}, {"type": "node", "id": 2103272929, "lat": 41.1757977, "lon": -8.6001161, "tags": {"bench": "yes", "bin": "no", "bus": "yes", "highway": "bus_stop", "lit": "no", "name": "Faculdade de Economia", "operator": "STCP", "public_transport": "platform", "ref": "FEP2", "shelter": "yes", "tactile_paving": "no"}}, {"type": "node", "id": 2103272930, "lat": 41.179192, "lon": -8.5985274, "tags": {"bench": "yes", "bin": "no", "bus": "yes", "highway": "bus_stop", "lit": "yes", "name": "Faculdade de Engenharia", "operator": "STCP", "public_transport": "platform", "ref": "FEUP1", "shelter": "yes"}}, {"type": "node", "id": 2103272931, "lat": 41.1707594, "lon": -8.5974701, "tags": {"bench": "yes", "bin": "no", "bus": "yes", "highway": "bus_stop", "lit": "no", "name": "Outeiro", "public_transport": "platform", "ref": "OUTE3", "shelter": "yes"}}, {"type": "node", "id": 2103279279, "lat": 41.1808275, "lon": -8.5977504, "tags": {"bench": "yes", "bin": "no", "bus": "yes", "highway": "bus_stop", "lit": "no", "name": "Escola Superior Educa\u00e7\u00e3o", "operator": "STCP", "public_transport": "platform", "ref": "ESED1", "shelter": "yes"}}, {"type": "node", "id": 2104498410, "lat": 41.1712575, "lon": -8.5978146, "tags": {"bin": "no", "bus": "yes", "highway": "bus_stop", "lit": "no", "name": "Outeiro", "public_transport": "platform", "ref": "OUTE4", "shelter": "yes"}}, {"type": "node", "id": 2104498411, "lat": 41.1654899, "lon": -8.6044034, "tags": {"bench": "yes", "bin": "no", "bus": "yes", "highway": "bus_stop", "lit": "yes", "name": "Bento J\u00fanior", "public_transport": "platform", "ref": "BJ3", "shelter": "yes", "tactile_paving": "no"}}, {"type": "node", "id": 2104498412, "lat": 41.1732715, "lon": -8.5989679, "tags": {"bin": "no", "bus": "yes", "highway": "bus_stop", "lit": "no", "name": "Manuel Laranjeira", "operator": "STCP", "public_transport": "platform", "ref": "MLAR2", "shelter": "yes"}}, {"type": "node", "id": 2104498413, "lat": 41.1682269, "lon": -8.6035156, "tags": {"bus": "yes", "highway": "bus_stop", "name": "Aval de Cima", "public_transport": "platform", "ref": "AVC2"}}, {"type": "node", "id": 2104498414, "lat": 41.1658211, "lon": -8.6063265, "tags": {"bench": "yes", "bin": "no", "bus": "yes", "highway": "bus_stop", "lit": "yes", "name": "Covelo", "public_transport": "platform", "ref": "CVLO1", "shelter": "yes"}}, {"type": "node", "id": 2104498415, "lat": 41.1754236, "lon": -8.6002218, "tags": {"bench": "yes", "bin": "no", "bus": "yes", "highway": "bus_stop", "lit": "no", "name": "Faculdade de Economia", "operator": "STCP", "public_transport": "platform", "ref": "FEP1", "shelter": "yes", "tactile_paving": "no"}}, {"type": "node", "id": 2104498416, "lat": 41.1665672, "lon": -8.6073806, "tags": {"bus": "yes", "highway": "bus_stop", "name": "Covelo", "public_transport": "platform", "ref": "CVLO"}}, {"type": "node", "id": 2104498417, "lat": 41.1699401, "lon": -8.6024829, "tags": {"bus": "yes", "highway": "bus_stop", "name": "Augusto Lessa", "operator": "STCP", "public_transport": "platform"}}, {"type": "node", "id": 2104498418, "lat": 41.1675794, "lon": -8.6170789, "tags": {"bench": "no", "bus": "yes", "highway": "bus_stop", "name": "Silva Porto", "network": "Andante", "operator": "STCP", "public_transport": "platform", "ref": "SVP1", "shelter": "no"}}, {"type": "node", "id": 2104498419, "lat": 41.1665318, "lon": -8.6126619, "tags": {"bus": "yes", "highway": "bus_stop", "name": "Vale Formoso", "operator": "STCP", "public_transport": "platform", "ref": "VFM2"}}, {"type": "node", "id": 2104498420, "lat": 41.1697947, "lon": -8.5993273, "tags": {"bin": "no", "bus": "yes", "highway": "bus_stop", "lit": "no", "local_ref": "SAL2", "name": "Salgueiros", "public_transport": "platform", "shelter": "yes"}}, {"type": "node", "id": 2104498421, "lat": 41.1791526, "lon": -8.5987142, "tags": {"bench": "yes", "bin": "no", "bus": "yes", "highway": "bus_stop", "lit": "yes", "name": "Faculdade de Engenharia", "operator": "STCP", "public_transport": "platform", "ref": "FEUP2", "shelter": "yes"}}, {"type": "node", "id": 2104498422, "lat": 41.1675939, "lon": -8.6104223, "tags": {"bus": "yes", "highway": "bus_stop", "name": "Campo Lindo", "operator": "STCP", "public_transport": "platform", "ref": "CPL2"}}, {"type": "node", "id": 2104501616, "lat": 41.1676464, "lon": -8.6195203, "tags": {"bench": "no", "bus": "yes", "highway": "bus_stop", "local_ref": "BVLH1", "name": "Bica Velha", "network": "Andante", "operator": "STCP", "public_transport": "platform", "ref": "BVLH1", "shelter": "no"}}, {"type": "node", "id": 2104506720, "lat": 41.167282, "lon": -8.6243349, "tags": {"bus": "yes", "highway": "bus_stop", "local_ref": "NAT1", "name": "Nat\u00e1ria", "network": "Andante", "operator": "STCP", "public_transport": "platform", "ref": "NAT1"}}, {"type": "node", "id": 2104582870, "lat": 41.1829014, "lon": -8.6007124, "tags": {"bus": "yes", "highway": "bus_stop", "local_ref": "HSJ7", "name": "Hospital S\u00e3o Jo\u00e3o (Urg\u00eancia)", "public_transport": "platform", "shelter": "yes"}}, {"type": "node", "id": 2104582872, "lat": 41.1826773, "lon": -8.5993508, "tags": {"bench": "yes", "bin": "yes", "bus": "yes", "departures_board": "no", "highway": "bus_stop", "name": "Hospital S\u00e3o Jo\u00e3o (Circunvala\u00e7\u00e3o)", "network": "Andante", "operator": "ETG", "public_transport": "platform", "shelter": "yes"}}, {"type": "node", "id": 2168901608, "lat": 41.1695526, "lon": -8.596497, "tags": {"bench": "yes", "bin": "no", "bus": "yes", "highway": "bus_stop", "lit": "yes", "name": "Salgueiros", "public_transport": "platform", "ref": "SAL4", "shelter": "yes"}}, {"type": "node", "id": 2168901609, "lat": 41.1696838, "lon": -8.5966405, "tags": {"bench": "yes", "bin": "yes", "bus": "yes", "highway": "bus_stop", "lit": "yes", "name": "Salgueiros", "public_transport": "platform", "ref": "SAL3", "shelter": "yes"}}, {"type": "node", "id": 2168939244, "lat": 41.1827871, "lon": -8.5997893, "tags": {"bench": "yes", "bin": "yes", "bus": "yes", "highway": "bus_stop", "local_ref": "HSJ9", "name": "Hospital S\u00e3o Jo\u00e3o (Circunvala\u00e7\u00e3o)", "public_transport": "platform", "ref": "HSJ9", "shelter": "yes"}}, {"type": "node", "id": 2168939247, "lat": 41.1827358, "lon": -8.5995628, "tags": {"bench": "yes", "bin": "yes", "bus": "yes", "departures_board": "no", "highway": "bus_stop", "name": "Hospital S\u00e3o Jo\u00e3o (Circunvala\u00e7\u00e3o)", "network": "Andante", "operator": "Mar\u00e9 de Matosinhos", "public_transport": "platform", "shelter": "yes"}}, {"type": "node", "id": 2168939252, "lat": 41.1828428, "lon": -8.600008, "tags": {"bench": "yes", "bin": "no", "bus": "yes", "highway": "bus_stop", "local_ref": "HSJ8", "name": "Hospital S\u00e3o Jo\u00e3o (Circunvala\u00e7\u00e3o)", "public_transport": "platform", "ref": "HSJ8", "shelter": "yes", "website": "https://www.stcp.pt/pt/viajar/paragens/?t=detalhe&paragem=HSJ8"}}, {"type": "node", "id": 2168952691, "lat": 41.1829357, "lon": -8.6008422, "tags": {"bus": "yes", "highway": "bus_stop", "local_ref": "HSJ6", "name": "Hospital S\u00e3o Jo\u00e3o (Urg\u00eancia)", "public_transport": "platform", "ref": "HSJ6", "shelter": "yes"}}, {"type": "node", "id": 2168952694, "lat": 41.1829599, "lon": -8.6009334, "tags": {"bus": "yes", "highway": "bus_stop", "local_ref": "HSJ5", "name": "Hospital S\u00e3o Jo\u00e3o (Urg\u00eancia)", "public_transport": "platform", "ref": "HSJ5", "shelter": "yes"}}, {"type": "node", "id": 2168968235, "lat": 41.1832183, "lon": -8.6019355, "tags": {"bench": "yes", "bus": "yes", "highway": "bus_stop", "local_ref": "HSJ4", "name": "Hospital S\u00e3o Jo\u00e3o (Metro)", "public_transport": "platform", "ref": "HSJ4", "shelter": "yes"}}, {"type": "node", "id": 2168973223, "lat": 41.1832608, "lon": -8.6021188, "tags": {"bench": "yes", "bus": "yes", "highway": "bus_stop", "local_ref": "HSJ3", "name": "Hospital S\u00e3o Jo\u00e3o (Metro)", "public_transport": "platform", "ref": "HSJ3", "shelter": "yes"}}, {"type": "node", "id": 2168973224, "lat": 41.1833232, "lon": -8.6023872, "tags": {"bench": "yes", "bin": "yes", "bus": "yes", "highway": "bus_stop", "lit": "yes", "local_ref": "HSJ2", "name": "Hospital S\u00e3o Jo\u00e3o (Metro)", "public_transport": "platform", "ref": "HSJ2", "shelter": "yes"}}, {"type": "node", "id": 2168974266, "lat": 41.1833555, "lon": -8.6025549, "tags": {"bench": "yes", "bin": "yes", "bus": "yes", "highway": "bus_stop", "lit": "yes", "local_ref": "HSJ1", "name": "Hospital S\u00e3o Jo\u00e3o (Metro)", "public_transport": "platform", "ref": "HSJ1", "shelter": "yes"}}, {"type": "node", "id": 2168978968, "lat": 41.1833253, "lon": -8.6037739, "tags": {"bench": "yes", "bin": "yes", "bus": "yes", "highway": "bus_stop", "local_ref": "IPO2", "name": "Instituto de Oncologia", "public_transport": "platform", "shelter": "yes", "tactile_paving": "no"}}, {"type": "node", "id": 2169073237, "lat": 41.1797, "lon": -8.605456, "tags": {"bench": "yes", "bin": "no", "bus": "yes", "highway": "bus_stop", "lit": "yes", "name": "Campus S\u00e3o Jo\u00e3o", "operator": "STCP", "public_transport": "platform", "ref": "CSJ4", "shelter": "yes", "tactile_paving": "no"}}, {"type": "node", "id": 2169074222, "lat": 41.1779598, "lon": -8.6058584, "tags": {"bench": "no", "bin": "no", "bus": "yes", "highway": "bus_stop", "lit": "no", "name": "Escola Superior de Sa\u00fade", "public_transport": "platform", "ref": "ESS1", "shelter": "no", "tactile_paving": "no"}}, {"type": "node", "id": 2169076016, "lat": 41.1763912, "lon": -8.6034685, "tags": {"bench": "no", "bin": "no", "bus": "yes", "highway": "bus_stop", "lit": "yes", "name": "P\u00f3lo Universit\u00e1rio (metro)", "operator": "STCP", "public_transport": "platform", "ref": "PUNV", "shelter": "no", "tactile_paving": "no"}}, {"type": "node", "id": 2169089651, "lat": 41.1749164, "lon": -8.6038923, "tags": {"bench": "yes", "bin": "no", "bus": "yes", "highway": "bus_stop", "lit": "yes", "name": "P\u00f3lo Universit\u00e1rio", "public_transport": "platform", "shelter": "yes"}}, {"type": "node", "id": 2169089652, "lat": 41.1736364, "lon": -8.6039526, "tags": {"bus": "yes", "highway": "bus_stop", "name": "Igreja de Paranhos", "operator": "STCP", "public_transport": "platform", "ref": "IPRN3"}}, {"type": "node", "id": 2169089653, "lat": 41.175198, "lon": -8.6038266, "tags": {"bench": "yes", "bin": "no", "bus": "yes", "highway": "bus_stop", "lit": "yes", "name": "P\u00f3lo Universit\u00e1rio", "public_transport": "platform", "shelter": "yes"}}, {"type": "node", "id": 2169090757, "lat": 41.1733023, "lon": -8.6037662, "tags": {"bench": "no", "bin": "yes", "bus": "yes", "highway": "bus_stop", "lit": "no", "name": "Igreja de Paranhos", "operator": "STCP", "public_transport": "platform", "shelter": "no", "tactile_paving": "no"}}, {"type": "node", "id": 2169094763, "lat": 41.1741623, "lon": -8.6003867, "tags": {"bench": "yes", "bin": "no", "bus": "yes", "highway": "bus_stop", "lit": "no", "name": "Cemit\u00e9rio de Paranhos", "operator": "STCP", "public_transport": "platform", "ref": "CPRN3", "shelter": "yes", "tactile_paving": "yes"}}, {"type": "node", "id": 2169094764, "lat": 41.1742168, "lon": -8.6004819, "tags": {"bench": "yes", "bin": "no", "bus": "yes", "highway": "bus_stop", "lit": "no", "name": "Cemit\u00e9rio de Paranhos", "operator": "STCP", "public_transport": "platform", "ref": "CPRN4", "shelter": "yes", "tactile_paving": "yes"}}, {"type": "node", "id": 2169099529, "lat": 41.1838949, "lon": -8.6043872, "tags": {"bench": "no", "bin": "yes", "bus": "yes", "highway": "bus_stop", "lit": "yes", "local_ref": "IPO4", "name": "IPO (Circunvala\u00e7\u00e3o)", "public_transport": "platform", "ref": "IPO4", "shelter": "no", "tactile_paving": "no"}}, {"type": "node", "id": 2169103450, "lat": 41.1831682, "lon": -8.6000192, "tags": {"bench": "yes", "bin": "no", "bus": "yes", "highway": "bus_stop", "local_ref": "HSJ11", "name": "Hospital S\u00e3o Jo\u00e3o", "operator": "STCP", "public_transport": "platform", "ref": "HSJ11", "shelter": "yes", "tactile_paving": "no"}}, {"type": "node", "id": 2169103451, "lat": 41.183297, "lon": -8.6004871, "tags": {"bench": "yes", "bin": "no", "bus": "yes", "departures_board": "no", "highway": "bus_stop", "name": "Hospital S\u00e3o Jo\u00e3o", "network": "Andante", "operator": "ETG", "public_transport": "platform", "shelter": "yes", "tactile_paving": "no"}}, {"type": "node", "id": 2169103452, "lat": 41.1832708, "lon": -8.6003825, "tags": {"bench": "yes", "bin": "no", "bus": "yes", "departures_board": "no", "highway": "bus_stop", "name": "Hospital S\u00e3o Jo\u00e3o", "network": "Andante", "operator": "Valpi", "public_transport": "platform", "shelter": "yes", "tactile_paving": "no"}}, {"type": "node", "id": 2169103453, "lat": 41.1830955, "lon": -8.5997402, "tags": {"bench": "yes", "bin": "no", "bus": "yes", "highway": "bus_stop", "local_ref": "HSJ10", "name": "Hospital S\u00e3o Jo\u00e3o", "public_transport": "platform", "ref": "HSJ10", "shelter": "yes", "tactile_paving": "no"}}, {"type": "node", "id": 2169129965, "lat": 41.184448, "lon": -8.6047989, "tags": {"bench": "no", "bin": "no", "bus": "yes", "highway": "bus_stop", "lit": "no", "local_ref": "ASPL1", "name": "Asprela", "public_transport": "platform", "ref": "ASPL1", "shelter": "no", "tactile_paving": "no", "url": "http://www.stcp.pt/pt/viajar/paragens/?t=detalhe&paragem=ASPL1"}}, {"type": "node", "id": 2169134353, "lat": 41.1844924, "lon": -8.605688, "tags": {"bench": "yes", "bin": "yes", "bus": "yes", "highway": "bus_stop", "local_ref": "IPO5", "name": "IPO (Circunvala\u00e7\u00e3o)", "operator": "STCP", "public_transport": "platform", "ref": "IPO5", "shelter": "yes", "tactile_paving": "no"}}, {"type": "node", "id": 2169139653, "lat": 41.1844741, "lon": -8.610196, "tags": {"bench": "yes", "bin": "yes", "bus": "yes", "highway": "bus_stop", "lit": "yes", "local_ref": "ST2", "name": "S\u00e3o Tom\u00e9", "public_transport": "platform", "ref": "ST2", "shelter": "yes"}}, {"type": "node", "id": 2169142661, "lat": 41.183963, "lon": -8.6095735, "tags": {"bench": "no", "bin": "yes", "bus": "yes", "highway": "bus_stop", "lit": "no", "local_ref": "ST4", "name": "S\u00e3o Tom\u00e9", "public_transport": "platform", "ref": "ST4", "shelter": "no", "tactile_paving": "no"}}, {"type": "node", "id": 2169145510, "lat": 41.1837747, "lon": -8.6094407, "tags": {"bench": "no", "bin": "yes", "bus": "yes", "highway": "bus_stop", "lit": "no", "local_ref": "ST3", "name": "S\u00e3o Tom\u00e9", "public_transport": "platform", "ref": "ST3", "shelter": "no", "tactile_paving": "no"}}, {"type": "node", "id": 2169148354, "lat": 41.1817369, "lon": -8.6093425, "tags": {"bench": "yes", "bin": "no", "bus": "yes", "highway": "bus_stop", "lit": "yes", "name": "Ilha Brava", "operator": "STCP", "public_transport": "platform", "ref": "IB3", "shelter": "yes", "tactile_paving": "yes"}}, {"type": "node", "id": 2169150675, "lat": 41.1816067, "lon": -8.609486, "tags": {"bench": "no", "bin": "yes", "bus": "yes", "highway": "bus_stop", "lit": "no", "name": "Ilha Brava", "operator": "STCP", "public_transport": "platform", "ref": "IB2", "shelter": "no", "tactile_paving": "no"}}, {"type": "node", "id": 2169157110, "lat": 41.1785857, "lon": -8.6091844, "tags": {"bench": "yes", "bus": "yes", "highway": "bus_stop", "name": "ISEP", "operator": "STCP", "public_transport": "platform", "ref": "ISEP1", "shelter": "yes"}}, {"type": "node", "id": 2169161095, "lat": 41.1783036, "lon": -8.6093669, "tags": {"bench": "yes", "bus": "yes", "highway": "bus_stop", "name": "ISEP", "public_transport": "platform", "ref": "ISEP2", "shelter": "yes"}}, {"type": "node", "id": 2169166675, "lat": 41.1765886, "lon": -8.6079009, "tags": {"bench": "yes", "bin": "no", "bus": "yes", "highway": "bus_stop", "lit": "yes", "name": "ISEP/Agra", "public_transport": "platform", "ref": "ISEP3", "shelter": "yes", "tactile_paving": "no"}}, {"type": "node", "id": 2169169077, "lat": 41.1764897, "lon": -8.6081584, "tags": {"bench": "yes", "bin": "no", "bus": "yes", "highway": "bus_stop", "lit": "yes", "name": "ISEP/Agra", "public_transport": "platform", "ref": "ISEP4", "shelter": "yes", "tactile_paving": "no"}}, {"type": "node", "id": 2169170601, "lat": 41.1767182, "lon": -8.6113686, "tags": {"bus": "yes", "highway": "bus_stop", "name": "Almeida Valente", "public_transport": "platform", "ref": "AVTE1", "shelter": "yes"}}, {"type": "node", "id": 2169178067, "lat": 41.1768374, "lon": -8.6115071, "tags": {"bus": "yes", "highway": "bus_stop", "name": "Almeida Valente", "public_transport": "platform", "ref": "AVTE2", "shelter": "yes"}}, {"type": "node", "id": 2169180790, "lat": 41.1778449, "lon": -8.614649, "tags": {"bus": "yes", "highway": "bus_stop", "name": "Rua Telheira", "operator": "STCP", "public_transport": "platform", "ref": "TLHR3", "shelter": "yes"}}, {"type": "node", "id": 2169195492, "lat": 41.178087, "lon": -8.6190307, "tags": {"bus": "yes", "highway": "bus_stop", "name": "Mios\u00f3tis", "operator": "STCP", "public_transport": "platform", "ref": "MIS4", "shelter": "yes"}}, {"type": "node", "id": 2169240435, "lat": 41.1782425, "lon": -8.6139828, "tags": {"bus": "yes", "highway": "bus_stop", "local_ref": "TLHR1", "name": "Telheira", "network": "Andate", "operator": "STCP", "public_transport": "platform", "ref": "TLHR1"}}, {"type": "node", "id": 2169248219, "lat": 41.1795587, "lon": -8.6139586, "tags": {"bench": "yes", "bin": "no", "bus": "yes", "highway": "bus_stop", "local_ref": "BLG2", "name": "Berlengas", "network": "Andate", "operator": "STCP", "public_transport": "platform", "ref": "BLG2", "shelter": "yes", "tactile_paving": "no"}}, {"type": "node", "id": 2169252888, "lat": 41.1802108, "lon": -8.6137521, "tags": {"bench": "yes", "bin": "no", "bus": "yes", "highway": "bus_stop", "local_ref": "BLG1", "name": "Berlengas", "network": "Andate", "operator": "STCP", "public_transport": "platform", "ref": "BLG1", "shelter": "yes", "tactile_paving": "no"}}, {"type": "node", "id": 2169255697, "lat": 41.1816198, "lon": -8.6137065, "tags": {"bus": "yes", "highway": "bus_stop", "local_ref": "AZ", "name": "Azenha", "network": "Andate", "operator": "STCP", "public_transport": "platform", "ref": "AZ"}}, {"type": "node", "id": 2169261261, "lat": 41.1824727, "lon": -8.6134839, "tags": {"bus": "yes", "highway": "bus_stop", "local_ref": "AML1", "name": "Amial", "network": "Andate", "operator": "STCP", "public_transport": "platform", "ref": "AML1"}}, {"type": "node", "id": 2169267170, "lat": 41.1831732, "lon": -8.6128039, "tags": {"bench": "yes", "bus": "yes", "highway": "bus_stop", "local_ref": "AML2", "name": "Amial", "public_transport": "platform", "ref": "AML2", "shelter": "yes"}}, {"type": "node", "id": 2169297163, "lat": 41.1839675, "lon": -8.6106944, "tags": {"bench": "yes", "bus": "yes", "highway": "bus_stop", "local_ref": "ST1", "mapillary": "945246822717770", "name": "S\u00e3o Tom\u00e9", "public_transport": "platform", "ref": "ST1", "shelter": "yes", "survey:date": "2017-10-15"}}, {"type": "node", "id": 2169299605, "lat": 41.1835981, "lon": -8.6124029, "tags": {"bus": "yes", "highway": "bus_stop", "local_ref": "AML3", "name": "Amial", "operator": "STCP", "public_transport": "platform", "ref": "AML3"}}, {"type": "node", "id": 2169302487, "lat": 41.1828331, "lon": -8.6177191, "tags": {"bus": "yes", "highway": "bus_stop", "name": "Capuchinhos", "public_transport": "platform", "ref": "CPU2", "shelter": "yes"}}, {"type": "node", "id": 2169312478, "lat": 41.1822688, "lon": -8.6180946, "tags": {"bench": "no", "bus": "yes", "highway": "bus_stop", "name": "Capuchinhos", "public_transport": "platform", "ref": "CPU1", "shelter": "yes"}}, {"type": "node", "id": 2244958131, "lat": 41.1636635, "lon": -8.6063539, "tags": {"bench": "no", "bin": "no", "bus": "yes", "highway": "bus_stop", "lit": "no", "name": "Constitui\u00e7\u00e3o", "public_transport": "platform", "ref": "CONS1", "shelter": "yes"}}, {"type": "node", "id": 2244960440, "lat": 41.1622944, "lon": -8.6075434, "tags": {"bench": "no", "bin": "no", "bus": "yes", "highway": "bus_stop", "lit": "no", "local_ref": "FG1", "name": "Faria Guimar\u00e3es", "operator": "STCP", "public_transport": "platform", "ref": "FG1", "shelter": "no", "tactile_paving": "no"}}, {"type": "node", "id": 2244962630, "lat": 41.1633172, "lon": -8.6089704, "tags": {"bench": "no", "bin": "no", "bus": "yes", "highway": "bus_stop", "name": "Constitui\u00e7\u00e3o", "operator": "STCP", "public_transport": "platform", "ref": "CONS2", "shelter": "yes"}}, {"type": "node", "id": 2362300570, "lat": 41.1752497, "lon": -8.6276218, "tags": {"bus": "yes", "highway": "bus_stop", "name": "Parque da Prelada", "operator": "STCP", "public_transport": "platform", "ref": "PPR1", "shelter": "no"}}, {"type": "node", "id": 2362305055, "lat": 41.1727609, "lon": -8.6263571, "tags": {"bench": "no", "bin": "yes", "bus": "yes", "highway": "bus_stop", "lit": "yes", "name": "Cintura Interna", "public_transport": "platform", "ref": "CI21", "shelter": "yes", "tactile_paving": "no"}}, {"type": "node", "id": 2362310460, "lat": 41.1692983, "lon": -8.6255605, "tags": {"bench": "yes", "bus": "yes", "highway": "bus_stop", "name": "Hospital da Prelada", "operator": "STCP", "public_transport": "platform", "ref": "HPRL1", "shelter": "yes", "wheelchair": "yes"}}, {"type": "node", "id": 2378049278, "lat": 41.1705812, "lon": -8.6204346, "tags": {"bus": "yes", "highway": "bus_stop", "local_ref": "MSTO1", "mapillary": "502876654477494", "name": "Monsanto", "operator": "STCP", "pole": "yes", "public_transport": "platform", "ref": "MSTO1", "shelter": "no", "survey:date": "2019-02-23"}}, {"type": "node", "id": 2378049279, "lat": 41.1703733, "lon": -8.6201436, "tags": {"bus": "yes", "highway": "bus_stop", "public_transport": "platform"}}, {"type": "node", "id": 2378049280, "lat": 41.1718502, "lon": -8.6170336, "tags": {"bench": "no", "bin": "no", "bus": "yes", "highway": "bus_stop", "lit": "no", "local_ref": "RPM2", "name": "Rua Particular Monsanto", "operator": "STCP", "public_transport": "platform", "ref": "RPM2", "shelter": "no"}}, {"type": "node", "id": 2378049281, "lat": 41.1690781, "lon": -8.6229693, "tags": {"bench": "yes", "bus": "yes", "highway": "bus_stop", "local_ref": "BRCV", "name": "Bairro do Carvalhido", "network": "Andante", "operator": "STCP", "public_transport": "platform", "ref": "BRCV", "shelter": "yes", "tactile_paving": "no"}}, {"type": "node", "id": 2378049282, "lat": 41.1717755, "lon": -8.6169746, "tags": {"bench": "no", "bus": "yes", "highway": "bus_stop", "lit": "yes", "local_ref": "RPM1", "mapillary": "466889541403854", "name": "Rua Particular Monsanto", "operator": "STCP", "pole": "yes", "public_transport": "platform", "ref": "RPM1", "shelter": "no", "survey:date": "2019-02-23"}}, {"type": "node", "id": 2378967952, "lat": 41.1717833, "lon": -8.6140664, "tags": {"bench": "no", "bin": "no", "bus": "yes", "highway": "bus_stop", "lit": "no", "local_ref": "ADA1", "name": "Arca d'\u00c1gua", "operator": "STCP", "public_transport": "platform", "ref": "ADA1", "shelter": "no"}}, {"type": "node", "id": 2378967953, "lat": 41.171861, "lon": -8.6143037, "tags": {"bench": "no", "bin": "no", "bus": "yes", "highway": "bus_stop", "lit": "no", "local_ref": "ADA2", "name": "Arca d'\u00c1gua", "operator": "STCP", "public_transport": "platform", "ref": "ADA2", "shelter": "no"}}, {"type": "node", "id": 2378985893, "lat": 41.1707758, "lon": -8.6128245, "tags": {"bench": "no", "bus": "yes", "highway": "bus_stop", "local_ref": "ADA4", "name": "Arca d'\u00c1gua", "public_transport": "platform", "ref": "ADA4", "shelter": "no"}}, {"type": "node", "id": 2378985894, "lat": 41.1707556, "lon": -8.6129559, "tags": {"bench": "no", "bus": "yes", "highway": "bus_stop", "local_ref": "ADA3", "name": "Arca d'\u00c1gua", "network": "Andate", "operator": "STCP", "public_transport": "platform", "ref": "ADA3", "shelter": "no"}}, {"type": "node", "id": 2378990398, "lat": 41.1687304, "lon": -8.6124315, "tags": {"bus": "yes", "highway": "bus_stop", "local_ref": "CSP1", "name": "Centro de Sa\u00fade de Paranhos", "network": "Andante", "operator": "STCP", "public_transport": "platform", "ref": "CSP1"}}, {"type": "node", "id": 2378990402, "lat": 41.1681802, "lon": -8.6123229, "tags": {"bus": "yes", "highway": "bus_stop", "local_ref": "CSP2", "name": "Centro Sa\u00fade Paranhos", "network": "Andate", "operator": "STCP", "public_transport": "platform", "ref": "CSP2"}}, {"type": "node", "id": 2379109887, "lat": 41.1662787, "lon": -8.6114196, "tags": {"bus": "yes", "highway": "bus_stop", "local_ref": "VFM7", "name": "Vale Formoso", "operator": "STCP", "public_transport": "platform", "ref": "VFM7"}}, {"type": "node", "id": 2379109888, "lat": 41.1658436, "lon": -8.6113821, "tags": {"bus": "yes", "highway": "bus_stop", "local_ref": "VFM6", "name": "Vale Formoso", "network": "Andate", "operator": "STCP", "public_transport": "platform", "ref": "VFM6"}}, {"type": "node", "id": 2379125309, "lat": 41.1680167, "lon": -8.6105077, "tags": {"bus": "yes", "highway": "bus_stop", "name": "Campo Lindo", "operator": "STCP", "public_transport": "platform", "ref": "CPL"}}, {"type": "node", "id": 2379129346, "lat": 41.1697986, "lon": -8.607973, "tags": {"bus": "yes", "highway": "bus_stop", "name": "Largo Campo Lindo", "operator": "STCP", "public_transport": "platform", "ref": "LGCL1"}}, {"type": "node", "id": 2379129347, "lat": 41.1697219, "lon": -8.6082747, "tags": {"bus": "yes", "highway": "bus_stop", "name": "Largo Campo Lindo", "operator": "STCP", "public_transport": "platform", "ref": "LGCL2"}}, {"type": "node", "id": 2379131111, "lat": 41.1725788, "lon": -8.6091049, "tags": {"bench": "yes", "bin": "yes", "bus": "yes", "highway": "bus_stop", "name": "Universidade Fernando Pessoa", "operator": "STCP", "public_transport": "platform", "ref": "UFP1", "shelter": "yes"}}, {"type": "node", "id": 2379158890, "lat": 41.1738912, "lon": -8.6131978, "tags": {"bus": "yes", "highway": "bus_stop", "local_ref": "CI31", "name": "Cintura Interna", "operator": "STCP", "public_transport": "platform", "ref": "CI31"}}, {"type": "node", "id": 2379158894, "lat": 41.1736166, "lon": -8.6131978, "tags": {"bus": "yes", "highway": "bus_stop", "local_ref": "CI32", "name": "Cintura Interna", "network": "Andate", "operator": "STCP", "public_transport": "platform", "ref": "CI32"}}, {"type": "node", "id": 2379175715, "lat": 41.1754178, "lon": -8.6138162, "tags": {"bus": "yes", "highway": "bus_stop", "local_ref": "CAM3", "name": "Carlos Amarante", "network": "Andate", "operator": "STCP", "public_transport": "platform", "ref": "CAM3"}}, {"type": "node", "id": 2379176729, "lat": 41.1754407, "lon": -8.6137235, "tags": {"bus": "yes", "highway": "bus_stop", "local_ref": "CAM1", "mapillary": "908952096504390", "name": "Carlos Amarante", "network": "Andate", "operator": "STCP", "pole": "yes", "public_transport": "platform", "ref": "CAM1", "shelter": "no", "survey:date": "2019-02-23"}}, {"type": "node", "id": 2379195513, "lat": 41.1771947, "lon": -8.6142163, "tags": {"bus": "yes", "highway": "bus_stop", "local_ref": "TLHR2", "name": "Telheira", "network": "Andate", "operator": "STCP", "public_transport": "platform", "ref": "TLHR2", "shelter": "yes"}}, {"type": "node", "id": 2379195517, "lat": 41.1840493, "lon": -8.6134398, "tags": {"bus": "yes", "highway": "bus_stop", "local_ref": "AML4", "name": "Amial", "network": "Andante", "operator": "STCP", "public_transport": "platform", "ref": "AML4"}}, {"type": "node", "id": 2379201753, "lat": 41.1848338, "lon": -8.6131568, "tags": {"bus": "yes", "highway": "bus_stop", "local_ref": "TLHO1", "mapillary": "214226670135119", "name": "Telheiro", "network": "Andate", "operator": "STCP", "public_transport": "platform", "ref": "TLHO1", "shelter": "yes", "survey:date": "2019-02-23"}}, {"type": "node", "id": 2485736725, "lat": 41.1777868, "lon": -8.619117, "tags": {"bus": "yes", "highway": "bus_stop", "name": "Mios\u00f3tis", "public_transport": "platform", "ref": "MIS3", "shelter": "no"}}, {"type": "node", "id": 2485736726, "lat": 41.176825, "lon": -8.619989, "tags": {"bench": "yes", "bin": "yes", "bus": "yes", "highway": "bus_stop", "lit": "yes", "name": "Br. do Amial", "public_transport": "platform", "ref": "BRA5", "shelter": "yes", "tactile_paving": "no"}}, {"type": "node", "id": 2485736728, "lat": 41.1772486, "lon": -8.6248579, "tags": {"bus": "yes", "highway": "bus_stop", "name": "Santa Luzia", "public_transport": "platform", "ref": "STLZ1", "shelter": "yes"}}, {"type": "node", "id": 2485782767, "lat": 41.1767063, "lon": -8.6207503, "tags": {"bench": "no", "bin": "yes", "bus": "yes", "highway": "bus_stop", "lit": "yes", "name": "Br. do Amial", "public_transport": "platform", "ref": "BRA4", "shelter": "yes", "tactile_paving": "no"}}, {"type": "node", "id": 2789488051, "lat": 41.1749669, "lon": -8.6193135, "tags": {"bus": "yes", "highway": "bus_stop", "name": "Capela Sra. F\u00e1tima", "public_transport": "platform", "ref": "CPSF2", "shelter": "yes"}}, {"type": "node", "id": 2789488052, "lat": 41.1753055, "lon": -8.6167689, "tags": {"bench": "yes", "bin": "yes", "bus": "yes", "highway": "bus_stop", "lit": "yes", "name": "Br. Regado", "public_transport": "platform", "ref": "BRRG2", "shelter": "yes", "tactile_paving": "no"}}, {"type": "node", "id": 6875613036, "lat": 41.1661279, "lon": -8.5971009, "tags": {"bench": "no", "bin": "no", "bus": "yes", "highway": "bus_stop", "lit": "no", "local_ref": "PLIM1", "name": "Pires de Lima", "operator": "STCP", "public_transport": "platform", "ref": "PLIM1", "shelter": "yes"}}, {"type": "node", "id": 6875613037, "lat": 41.1675743, "lon": -8.5928598, "tags": {"bin": "no", "bus": "yes", "highway": "bus_stop", "lit": "no", "local_ref": "SVT3", "name": "Silva Tapada", "operator": "STCP", "public_transport": "platform", "ref": "SVT3", "shelter": "yes"}}, {"type": "node", "id": 6875613038, "lat": 41.1684962, "lon": -8.5911849, "tags": {"bin": "no", "bus": "yes", "highway": "bus_stop", "lit": "no", "local_ref": "LW1", "name": "Luis Woodhouse", "operator": "STCP", "public_transport": "platform", "ref": "LW1", "shelter": "yes"}}, {"type": "node", "id": 6875613040, "lat": 41.1696047, "lon": -8.5894155, "tags": {"bin": "no", "bus": "yes", "highway": "bus_stop", "lit": "no", "local_ref": "CF1", "name": "Conde Ferreira", "operator": "STCP", "public_transport": "platform", "ref": "CF1", "shelter": "yes"}}, {"type": "node", "id": 6875613041, "lat": 41.1724668, "lon": -8.5874454, "tags": {"bus": "yes", "highway": "bus_stop", "local_ref": "BRRS1", "name": "Barrocas", "operator": "STCP", "public_transport": "platform", "ref": "BRRS1"}}, {"type": "node", "id": 6875613042, "lat": 41.1752452, "lon": -8.5861181, "tags": {"bench": "yes", "bin": "no", "bus": "yes", "highway": "bus_stop", "lit": "no", "local_ref": "STJ2", "name": "Santa Justa", "operator": "STCP", "public_transport": "platform", "ref": "STJ2", "shelter": "yes"}}, {"type": "node", "id": 6875613043, "lat": 41.1774381, "lon": -8.5848819, "tags": {"bench": "yes", "bin": "no", "bus": "yes", "highway": "bus_stop", "lit": "no", "local_ref": "ACO1", "name": "Ant\u00f3nio Coelho", "operator": "STCP", "public_transport": "platform", "ref": "ACO1", "shelter": "yes", "tactile_paving": "no"}}, {"type": "node", "id": 6875613044, "lat": 41.1788015, "lon": -8.5839945, "tags": {"bin": "no", "bus": "yes", "gtfs_id": "AA1", "gtfs_stop_code": "AA1", "highway": "bus_stop", "lit": "no", "local_ref": "AA1", "name": "Alto da Areosa", "network": "Sociedade Transportes Colectivos do Porto", "operator": "STCP", "public_transport": "platform", "ref": "AA1", "route_ref": "5M;701;702;703", "shelter": "no", "transport:zone": "PRT3", "url": "http://www.stcp.pt/pt/viajar/paragens/?t=detalhe&paragem=AA1"}}, {"type": "node", "id": 6875613045, "lat": 41.1802709, "lon": -8.5834713, "tags": {"bin": "no", "bus": "yes", "highway": "bus_stop", "lit": "no", "local_ref": "ARS2", "name": "Areosa", "network": "Andante", "operator": "STCP", "public_transport": "platform", "ref": "ARS2", "shelter": "yes"}}, {"type": "node", "id": 6876468684, "lat": 41.1816524, "lon": -8.5954209, "tags": {"bin": "no", "bus": "yes", "highway": "bus_stop", "lit": "no", "local_ref": "ASP3", "name": "Asprela", "public_transport": "platform", "ref": "ASP3", "shelter": "yes", "website": "https://www.stcp.pt/pt/viajar/paragens/?t=detalhe&paragem=ASP3"}}, {"type": "node", "id": 6876474585, "lat": 41.1795506, "lon": -8.5880427, "tags": {"bench": "yes", "bin": "no", "bus": "yes", "highway": "bus_stop", "lit": "no", "local_ref": "ENX1", "name": "Enxurreiras", "network": "Andante", "operator": "STCP", "public_transport": "platform", "ref": "ENX1", "shelter": "yes", "website": "https://www.stcp.pt/pt/viajar/paragens/?t=detalhe&paragem=ENX1"}}, {"type": "node", "id": 6876634139, "lat": 41.1678582, "lon": -8.6206046, "tags": {"bus": "yes", "highway": "bus_stop", "name": "Bica Velha", "network": "Andante", "operator": "STCP", "public_transport": "platform", "ref": "BVLH2"}}, {"type": "node", "id": 6876634140, "lat": 41.1707698, "lon": -8.6203206, "tags": {"bus": "yes", "highway": "bus_stop", "name": "Monsanto", "operator": "STCP", "public_transport": "platform", "ref": "1MST2", "website": "https://www.stcp.pt/pt/viajar/paragens/?t=detalhe&paragem=1MST2"}}, {"type": "node", "id": 6876634142, "lat": 41.1822135, "lon": -8.596625, "tags": {"bin": "no", "bus": "yes", "highway": "bus_stop", "lit": "no", "local_ref": "ASP4", "name": "Asprela", "operator": "STCP", "public_transport": "platform", "ref": "ASP4", "shelter": "yes", "website": "https://www.stcp.pt/pt/viajar/paragens/?t=detalhe&paragem=ASP4"}}, {"type": "node", "id": 6919386949, "lat": 41.1624047, "lon": -8.6035016, "tags": {"bench": "no", "bin": "no", "bus": "yes", "gtfs_id": "PSOC2", "gtfs_stop_code": "PSOC2", "highway": "bus_stop", "name": "Perp\u00e9tuo Socorro", "public_transport": "platform", "ref": "PSOC2", "shelter": "no", "url": "http://www.stcp.pt/pt/viajar/paragens/?t=detalhe&paragem=PSOC2"}}, {"type": "node", "id": 6919386950, "lat": 41.1646168, "lon": -8.6006217, "tags": {"bench": "no", "bin": "no", "bus": "yes", "gtfs_id": "COMB2", "gtfs_stop_code": "COMB2", "highway": "bus_stop", "lit": "no", "name": "Combatentes", "public_transport": "platform", "ref": "COMB2", "shelter": "no", "url": "http://www.stcp.pt/pt/viajar/paragens/?t=detalhe&paragem=COMB2"}}, {"type": "node", "id": 6919386951, "lat": 41.1662328, "lon": -8.5971862, "tags": {"bench": "no", "bin": "no", "bus": "yes", "gtfs_id": "PLIM2", "gtfs_stop_code": "PLIM2", "highway": "bus_stop", "lit": "no", "name": "Pires de Lima", "public_transport": "platform", "ref": "PLIM2", "shelter": "yes", "url": "http://www.stcp.pt/pt/viajar/paragens/?t=detalhe&paragem=PLIM2"}}, {"type": "node", "id": 6919386952, "lat": 41.1675446, "lon": -8.5932187, "tags": {"bench": "yes", "bin": "yes", "bus": "yes", "gtfs_id": "SVT4", "gtfs_stop_code": "SVT4", "highway": "bus_stop", "lit": "yes", "name": "Silva Tapada", "public_transport": "platform", "ref": "SVT4", "shelter": "yes", "url": "http://www.stcp.pt/pt/viajar/paragens/?t=detalhe&paragem=SVT4"}}, {"type": "node", "id": 6919386953, "lat": 41.1683006, "lon": -8.5917816, "tags": {"bin": "no", "bus": "yes", "gtfs_id": "LW2", "gtfs_stop_code": "LW2", "highway": "bus_stop", "lit": "no", "name": "Luis Woodhouse", "public_transport": "platform", "ref": "LW2", "shelter": "yes", "url": "http://www.stcp.pt/pt/viajar/paragens/?t=detalhe&paragem=LW2"}}, {"type": "node", "id": 6919386954, "lat": 41.1698662, "lon": -8.5893101, "tags": {"bin": "no", "bus": "yes", "gtfs_id": "CF2", "gtfs_stop_code": "CF2", "highway": "bus_stop", "lit": "no", "name": "Conde Ferreira", "public_transport": "platform", "ref": "CF2", "shelter": "yes", "url": "http://www.stcp.pt/pt/viajar/paragens/?t=detalhe&paragem=CF2"}}, {"type": "node", "id": 6919386955, "lat": 41.1718825, "lon": -8.5879808, "tags": {"bin": "no", "bus": "yes", "gtfs_stop_code": "BRRS2", "highway": "bus_stop", "lit": "no", "name": "Barrocas", "public_transport": "platform", "ref": "BRRS2", "shelter": "yes", "url": "http://www.stcp.pt/pt/viajar/paragens/?t=detalhe&paragem=BRRS2"}}, {"type": "node", "id": 6919386956, "lat": 41.1745026, "lon": -8.5865976, "tags": {"bench": "yes", "bin": "no", "bus": "yes", "gtfs_stop_code": "STJ3", "highway": "bus_stop", "lit": "no", "name": "Santa Justa", "public_transport": "platform", "ref": "STJ3", "shelter": "yes", "url": "http://www.stcp.pt/pt/viajar/paragens/?t=detalhe&paragem=STJ3"}}, {"type": "node", "id": 6919386957, "lat": 41.1769692, "lon": -8.5853307, "tags": {"bench": "yes", "bin": "no", "bus": "yes", "gtfs_stop_code": "ACO2", "highway": "bus_stop", "lit": "no", "name": "Ant\u00f3nio Coelho", "public_transport": "platform", "ref": "ACO2", "shelter": "yes", "tactile_paving": "no", "url": "http://www.stcp.pt/pt/viajar/paragens/?t=detalhe&paragem=ACO2"}}, {"type": "node", "id": 6919386958, "lat": 41.1788489, "lon": -8.584083, "tags": {"bin": "no", "bus": "yes", "gtfs_stop_code": "AA2", "highway": "bus_stop", "lit": "no", "name": "Alto da Areosa", "public_transport": "platform", "ref": "AA2", "shelter": "no", "url": "http://www.stcp.pt/pt/viajar/paragens/?t=detalhe&paragem=AA2"}}, {"type": "node", "id": 6923762253, "lat": 41.1806401, "lon": -8.5834739, "tags": {"bin": "no", "bus": "yes", "highway": "bus_stop", "lit": "no", "name": "Areosa", "network": "Andante", "operator": "STCP", "public_transport": "platform", "ref": "ARS3", "shelter": "no"}}, {"type": "node", "id": 6923802351, "lat": 41.1808132, "lon": -8.5769544, "tags": {"bin": "no", "bus": "yes", "highway": "bus_stop", "lit": "no", "name": "Varziela", "operator": "STCP", "public_transport": "platform", "ref": "VRZL1", "shelter": "yes"}}, {"type": "node", "id": 6936332727, "lat": 41.1749187, "lon": -8.6068605, "tags": {"bench": "no", "bin": "no", "bus": "yes", "gtfs_id": "DSS", "gtfs_stop_code": "DSS", "highway": "bus_stop", "lit": "no", "name": "Dion\u00edsio Santos Silva", "public_transport": "platform", "ref": "DSS", "route_ref": "603", "shelter": "yes", "transport:zone": "PRT3", "url": "http://www.stcp.pt/pt/viajar/paragens/?t=detalhe&paragem=DSS"}}, {"type": "node", "id": 6936332741, "lat": 41.1653337, "lon": -8.5926876, "tags": {"bin": "no", "bus": "yes", "gtfs_id": "DC1", "gtfs_stop_code": "DC1", "highway": "bus_stop", "lit": "no", "name": "Diogo C\u00e3o", "network": "Andante", "operator": "STCP", "public_transport": "platform", "ref": "DC1", "route_ref": "300", "transport:zone": "PRT1", "url": "http://www.stcp.pt/pt/viajar/paragens/?t=detalhe&paragem=DC1"}}, {"type": "node", "id": 6959294853, "lat": 41.1695888, "lon": -8.5870852, "tags": {"bus": "yes", "gtfs_id": "RCON", "gtfs_stop_code": "RCON", "highway": "bus_stop", "name": "R. Contumil", "network": "Andante", "operator": "STCP", "public_transport": "platform", "ref": "RCON", "route_ref": "8M;305;402;805", "transport:zone": "PRT3", "url": "http://www.stcp.pt/pt/viajar/paragens/?t=detalhe&paragem=RCON"}}, {"type": "node", "id": 6959350589, "lat": 41.1751042, "lon": -8.6094868, "tags": {"bench": "no", "bin": "no", "bus": "yes", "gtfs_id": "ALVT2", "gtfs_stop_code": "ALVT2", "highway": "bus_stop", "lit": "no", "name": "Almeida Valente", "operator": "STCP", "public_transport": "platform", "ref": "ALVT2", "route_ref": "803", "shelter": "no", "tactile_paving": "no", "transport:zone": "PRT3", "url": "http://www.stcp.pt/pt/viajar/paragens/?t=detalhe&paragem=ALVT2"}}, {"type": "node", "id": 6959350595, "lat": 41.175498, "lon": -8.6160238, "tags": {"bench": "no", "bin": "no", "bus": "yes", "gtfs_id": "BRRG1", "gtfs_stop_code": "BRRG1", "highway": "bus_stop", "lit": "no", "name": "Br. Regado", "operator": "STCP", "public_transport": "platform", "ref": "BRRG1", "route_ref": "304", "shelter": "no", "tactile_paving": "no", "transport:zone": "PRT2", "url": "http://www.stcp.pt/pt/viajar/paragens/?t=detalhe&paragem=BRRG1"}}, {"type": "node", "id": 6959350605, "lat": 41.1696974, "lon": -8.5939455, "tags": {"bench": "no", "bin": "yes", "bus": "yes", "gtfs_id": "VDAM", "gtfs_stop_code": "VDAM", "highway": "bus_stop", "lit": "yes", "name": "Vitorino Dam\u00e1sio", "operator": "STCP", "public_transport": "platform", "ref": "VDAM", "route_ref": "300", "shelter": "no", "transport:zone": "PRT1", "url": "http://www.stcp.pt/pt/viajar/paragens/?t=detalhe&paragem=VDAM"}}, {"type": "node", "id": 6959350611, "lat": 41.1739733, "lon": -8.5848497, "tags": {"bench": "yes", "bin": "no", "bus": "yes", "gtfs_id": "STJ4", "gtfs_stop_code": "STJ4", "highway": "bus_stop", "lit": "no", "name": "Sta. Justa", "network": "Andante", "operator": "STCP", "public_transport": "platform", "ref": "SJT4", "route_ref": "8M;305;805", "shelter": "yes", "transport:zone": "PRT3", "url": "http://www.stcp.pt/pt/viajar/paragens/?t=detalhe&paragem=STJ4"}}, {"type": "node", "id": 6959350632, "lat": 41.1717438, "lon": -8.5859753, "tags": {"bin": "no", "bus": "yes", "gtfs_id": "BRCC2", "gtfs_stop_code": "BRCC2", "highway": "bus_stop", "lit": "no", "name": "Br. Costa Cabral", "network": "Andante", "operator": "STCP", "public_transport": "platform", "ref": "BRCC2", "route_ref": "8M;305;805", "transport:zone": "PRT3", "url": "http://www.stcp.pt/pt/viajar/paragens/?t=detalhe&paragem=BRCC2"}}, {"type": "node", "id": 6959350645, "lat": 41.1665906, "lon": -8.5933715, "tags": {"bin": "no", "bus": "yes", "gtfs_id": "SVT1", "gtfs_stop_code": "SVT1", "highway": "bus_stop", "lit": "no", "name": "Silva Tapada", "operator": "STCP", "public_transport": "platform", "ref": "SVT1", "route_ref": "301", "transport:zone": "PRT1", "url": "http://www.stcp.pt/pt/viajar/paragens/?t=detalhe&paragem=SVT1"}}, {"type": "node", "id": 6959350646, "lat": 41.1667887, "lon": -8.5939383, "tags": {"bin": "no", "bus": "yes", "gtfs_id": "SVT2", "gtfs_stop_code": "SVT2", "highway": "bus_stop", "lit": "no", "name": "Silva Tapada", "operator": "STCP", "public_transport": "platform", "ref": "SVT2", "route_ref": "300", "shelter": "yes", "transport:zone": "PRT1", "url": "http://www.stcp.pt/pt/viajar/paragens/?t=detalhe&paragem=SVT2"}}, {"type": "node", "id": 6959350650, "lat": 41.1657342, "lon": -8.6108907, "tags": {"bus": "yes", "gtfs_id": "VFM1", "gtfs_stop_code": "VFM1", "highway": "bus_stop", "name": "Vale Formoso", "operator": "STCP", "public_transport": "platform", "ref": "VFM1", "route_ref": "803", "transport:zone": "PRT1", "url": "http://www.stcp.pt/pt/viajar/paragens/?t=detalhe&paragem=VFM1"}}, {"type": "node", "id": 6959350655, "lat": 41.172824, "lon": -8.6098426, "tags": {"bench": "no", "bus": "yes", "gtfs_id": "UFP2", "gtfs_stop_code": "UFP2", "highway": "bus_stop", "name": "Universidade Fernando Pessoa", "operator": "STCP", "public_transport": "platform", "ref": "UFP2", "route_ref": "803", "shelter": "yes", "transport:zone": "PRT3", "url": "http://www.stcp.pt/pt/viajar/paragens/?t=detalhe&paragem=UFP2"}}, {"type": "node", "id": 9381683580, "lat": 41.1681775, "lon": -8.5922937, "tags": {"bus": "yes", "highway": "bus_stop", "name": "Costa Cabral", "public_transport": "platform", "ref": "CCBR"}}, {"type": "node", "id": 9381683584, "lat": 41.1763169, "lon": -8.6241623, "tags": {"bus": "yes", "highway": "bus_stop", "name": "Laroze Rocha", "public_transport": "platform", "ref": "LARZ"}}, {"type": "node", "id": 9381837547, "lat": 41.1693907, "lon": -8.594292, "tags": {"bus": "yes", "highway": "bus_stop", "name": "Vitorino Dam\u00e1sio", "public_transport": "platform", "ref": "VDM1"}}, {"type": "node", "id": 9386325666, "lat": 41.17501, "lon": -8.6194234, "tags": {"bus": "yes", "highway": "bus_stop", "name": "Capela Sra. F\u00e1tima", "public_transport": "platform", "ref": "CPSF1"}}, {"type": "node", "id": 9386325668, "lat": 41.1764376, "lon": -8.6200944, "tags": {"bench": "no", "bus": "yes", "highway": "bus_stop", "name": "Br. do Amial", "public_transport": "platform", "ref": "BR1", "shelter": "no"}}, {"type": "node", "id": 9386325669, "lat": 41.1777502, "lon": -8.6233419, "tags": {"bench": "no", "bin": "no", "bus": "yes", "highway": "bus_stop", "lit": "yes", "name": "Sta. Luzia", "public_transport": "platform", "ref": "STLZ5", "shelter": "no", "tactile_paving": "no"}}, {"type": "node", "id": 9386478469, "lat": 41.1773622, "lon": -8.5829247, "tags": {"bus": "yes", "highway": "bus_stop", "name": "Rodrigues Semide", "network": "Andante", "operator": "STCP", "public_transport": "platform", "ref": "RGSM1"}}, {"type": "node", "id": 9386478470, "lat": 41.17753, "lon": -8.5830821, "tags": {"bus": "yes", "highway": "bus_stop", "name": "Rodrigues Semide", "network": "Andante", "operator": "STCP", "public_transport": "platform", "ref": "RGSM2"}}, {"type": "node", "id": 9386478471, "lat": 41.1796064, "lon": -8.5820699, "tags": {"bus": "yes", "highway": "bus_stop", "name": "Rot. da Areosa", "network": "Andante", "operator": "STCP", "public_transport": "platform", "ref": "ROTA2"}}, {"type": "node", "id": 9401053196, "lat": 41.1741124, "lon": -8.6058993, "tags": {"bench": "yes", "bin": "no", "bus": "yes", "highway": "bus_stop", "lit": "yes", "name": "Igreja de Paranhos", "public_transport": "platform", "ref": "IPRN1", "shelter": "yes"}}, {"type": "node", "id": 9402062614, "lat": 41.1733814, "lon": -8.6058707, "tags": {"bench": "yes", "bin": "no", "bus": "yes", "highway": "bus_stop", "lit": "yes", "name": "Igreja de Paranhos", "public_transport": "platform", "ref": "IPRN2", "shelter": "yes"}}, {"type": "node", "id": 9480723459, "lat": 41.1673907, "lon": -8.6107799, "tags": {"bus": "yes", "highway": "bus_stop", "name": "Campo Lindo", "operator": "STCP", "public_transport": "platform", "ref": "CPL1"}}, {"type": "node", "id": 9926644732, "lat": 41.1653258, "lon": -8.598105, "tags": {"bus": "yes", "highway": "bus_stop", "name": "Combatentes", "network": "Andante", "operator": "STCP", "public_transport": "platform", "ref": "COM3"}}, {"type": "node", "id": 9926739684, "lat": 41.1655086, "lon": -8.5980477, "tags": {"bus": "yes", "highway": "bus_stop", "name": "Combatentes", "network": "Andante", "operator": "STCP", "public_transport": "platform", "ref": "COM4"}}]}