{"version": 0.6, "generator": "Overpass API 0.7.61.5 4133829e", "osm3s": {"timestamp_osm_base": "2023-12-04T11:49:24Z", "copyright": "The data included in this document is from www.openstreetmap.org. The data is made available under ODbL."}, "elements": [{"type": "node", "id": 2326409277, "lat": 49.9243685, "lon": 8.8715839, "tags": {"amenity": "bicycle_parking", "bicycle_parking": "wall_loops"}}, {"type": "node", "id": 2877642810, "lat": 49.9294948, "lon": 8.8633212, "tags": {"amenity": "bicycle_parking", "bicycle_parking": "wall_loops"}}, {"type": "node", "id": 2877642812, "lat": 49.9296278, "lon": 8.8637968, "tags": {"amenity": "bicycle_parking", "bicycle_parking": "wall_loops"}}, {"type": "node", "id": 2878251230, "lat": 49.9238989, "lon": 8.8540411, "tags": {"amenity": "bicycle_parking", "bicycle_parking": "stands", "capacity": "24", "covered": "yes"}}, {"type": "node", "id": 2886043361, "lat": 49.9256651, "lon": 8.8393992, "tags": {"amenity": "bicycle_parking", "bicycle_parking": "wall_loops"}}, {"type": "node", "id": 3054575093, "lat": 49.9239711, "lon": 8.8540778, "tags": {"amenity": "bicycle_parking", "bicycle_parking": "lockers", "capacity": "12", "covered": "yes"}}, {"type": "node", "id": 5896235663, "lat": 49.9211819, "lon": 8.8555813, "tags": {"access": "permissive", "amenity": "bicycle_parking", "bicycle_parking": "wall_loops"}}, {"type": "node", "id": 5896235680, "lat": 49.933392, "lon": 8.8670674, "tags": {"amenity": "bicycle_parking", "bicycle_parking": "wall_loops", "capacity": "9", "surface": "gravel"}}, {"type": "node", "id": 5896241615, "lat": 49.9248799, "lon": 8.8719924, "tags": {"amenity": "bicycle_parking", "bicycle_parking": "wall_loops"}}, {"type": "node", "id": 5897362338, "lat": 49.9194022, "lon": 8.8558589, "tags": {"amenity": "bicycle_parking", "bicycle_parking": "wall_loops"}}, {"type": "node", "id": 5897362340, "lat": 49.9224942, "lon": 8.8553855, "tags": {"access": "yes", "amenity": "bicycle_parking", "bicycle_parking": "wall_loops", "capacity": "10"}}, {"type": "node", "id": 5897362365, "lat": 49.9212884, "lon": 8.8557811, "tags": {"access": "permissive", "amenity": "bicycle_parking", "bicycle_parking": "wall_loops"}}, {"type": "node", "id": 5897362369, "lat": 49.9196431, "lon": 8.8609175, "tags": {"amenity": "bicycle_parking", "bicycle_parking": "wall_loops"}}, {"type": "node", "id": 5904903629, "lat": 49.9247313, "lon": 8.8617973, "tags": {"amenity": "bicycle_parking", "bicycle_parking": "bollard"}}, {"type": "node", "id": 5934175320, "lat": 49.9224476, "lon": 8.8560829, "tags": {"access": "yes", "amenity": "bicycle_parking", "bicycle_parking": "wall_loops", "fee": "no"}}, {"type": "node", "id": 5991224606, "lat": 49.9299684, "lon": 8.8636617}, {"type": "node", "id": 5991224607, "lat": 49.9300795, "lon": 8.8641557}, {"type": "node", "id": 5991224608, "lat": 49.9299642, "lon": 8.8642177}, {"type": "node", "id": 5991224609, "lat": 49.9298573, "lon": 8.863725}, {"type": "node", "id": 6019565693, "lat": 49.9244844, "lon": 8.8720085, "tags": {"amenity": "bicycle_parking", "bicycle_parking": "wall_loops"}}, {"type": "node", "id": 6055618711, "lat": 49.9249121, "lon": 8.870642}, {"type": "node", "id": 6055618712, "lat": 49.9249484, "lon": 8.8707594}, {"type": "node", "id": 6055618713, "lat": 49.924921, "lon": 8.8707799}, {"type": "node", "id": 6055618714, "lat": 49.9248847, "lon": 8.8706625}, {"type": "node", "id": 9910523604, "lat": 49.9247914, "lon": 8.8703126, "tags": {"amenity": "bicycle_parking", "bicycle_parking": "wall_loops"}}, {"type": "node", "id": 9978490920, "lat": 49.916496, "lon": 8.8526542, "tags": {"amenity": "bicycle_parking"}}, {"type": "node", "id": 9978490921, "lat": 49.9165427, "lon": 8.8525689, "tags": {"amenity": "bicycle_parking"}}, {"type": "way", "id": 634997810, "nodes": [5991224609, 5991224608, 5991224607, 5991224606, 5991224609], "tags": {"amenity": "bicycle_parking"}}, {"type": "way", "id": 643488887, "nodes": [6055618714, 6055618713, 6055618712, 6055618711, 6055618714], "tags": {"amenity": "bicycle_parking", "bicycle_parking": "stands", "bike_ride": "bus", "covered": "yes"}}]}