{"version": 0.6, "generator": "Overpass API 0.7.61.5 4133829e", "osm3s": {"timestamp_osm_base": "2023-12-04T12:07:45Z", "copyright": "The data included in this document is from www.openstreetmap.org. The data is made available under ODbL."}, "elements": [{"type": "node", "id": 31207504, "lat": 46.9485788, "lon": 7.4602879, "tags": {"bus": "yes", "highway": "bus_stop", "name": "B\u00e4renpark", "public_transport": "stop_position", "trolleybus": "yes"}}, {"type": "node", "id": 31445304, "lat": 46.9492576, "lon": 7.4577529, "tags": {"brand": "Bernmobil", "bus": "yes", "ele": "504", "highway": "bus_stop", "name": "L\u00e4uferplatz", "network": "Libero", "network:wikidata": "Q2394193", "operator": "Bernmobil", "public_transport": "stop_position", "uic_name": "Bern, L\u00e4uferplatz", "uic_ref": "8590120", "wheelchair": "yes"}}, {"type": "node", "id": 31460768, "lat": 46.9355318, "lon": 7.3903162, "tags": {"bus": "yes", "ele": "562", "highway": "bus_stop", "name": "Technologiepark", "network": "Libero", "operator": "Bernmobil", "public_transport": "stop_position", "uic_name": "Bern, Technologiepark", "uic_ref": "8590084"}}, {"type": "node", "id": 253239460, "lat": 46.9654042, "lon": 7.4633207, "tags": {"bus": "yes", "ele": "555", "highway": "bus_stop", "name": "Wyler", "network": "Libero", "operator": "SVB;RBS", "public_transport": "stop_position", "shelter": "yes", "trolleybus": "yes", "uic_name": "Bern, Wyler", "uic_ref": "8589007", "wheelchair": "yes"}}, {"type": "node", "id": 255377351, "lat": 46.9371945, "lon": 7.4763603, "tags": {"bus": "yes", "highway": "bus_stop", "name": "Eggh\u00f6lzli", "network": "Libero", "network:wikidata": "Q2394193", "operator": "Bernmobil", "public_transport": "stop_position", "railway": "tram_stop", "tram": "yes", "uic_name": "Bern, Eggh\u00f6lzli", "uic_ref": "8507050"}}, {"type": "node", "id": 265172825, "lat": 46.9525762, "lon": 7.4672613, "tags": {"brand": "Bernmobil", "bus": "yes", "ele": "578", "highway": "bus_stop", "name": "Galgenfeld", "network": "Libero", "network:wikidata": "Q2394193", "operator": "Bernmobil", "public_transport": "stop_position", "tactile_paving": "yes", "uic_name": "Bern, Galgenfeld", "uic_ref": "8590049"}}, {"type": "node", "id": 274679290, "lat": 46.9471803, "lon": 7.4655918, "tags": {"highway": "bus_stop", "name": "Schosshalde", "network": "Libero", "network:wikidata": "Q2394193", "operator": "Bernmobil", "public_transport": "stop_position", "trolleybus": "yes", "uic_name": "Bern, Schosshalde", "uic_ref": "8587479"}}, {"type": "node", "id": 274763455, "lat": 46.9470291, "lon": 7.4657398, "tags": {"highway": "bus_stop", "name": "Schosshalde", "network": "Libero", "network:wikidata": "Q2394193", "operator": "Bernmobil", "public_transport": "stop_position", "trolleybus": "yes", "uic_name": "Bern, Schosshalde", "uic_ref": "8587479"}}, {"type": "node", "id": 274974211, "lat": 46.9446931, "lon": 7.4585842, "tags": {"bus": "yes", "highway": "bus_stop", "name": "Liebegg", "public_transport": "stop_position", "trolleybus": "yes"}}, {"type": "node", "id": 274974212, "lat": 46.9483883, "lon": 7.4595378, "tags": {"bus": "yes", "highway": "bus_stop", "name": "B\u00e4renpark", "public_transport": "stop_position", "trolleybus": "yes", "wheelchair": "yes"}}, {"type": "node", "id": 275974886, "lat": 46.9481409, "lon": 7.4399495, "tags": {"highway": "bus_stop", "local_ref": "E", "name": "Bern Bahnhof", "network": "Libero", "network:wikidata": "Q2394193", "operator": "Bernmobil", "public_transport": "stop_position", "trolleybus": "yes", "uic_name": "Bern, Bahnhof", "uic_ref": "8576646"}}, {"type": "node", "id": 276056218, "lat": 46.9478728, "lon": 7.4399954, "tags": {"bus": "yes", "highway": "bus_stop", "local_ref": "F", "name": "Bern Bahnhof", "network": "Libero", "network:wikidata": "Q2394193", "operator": "Bernmobil", "public_transport": "stop_position", "trolleybus": "yes", "uic_name": "Bern, Bahnhof", "uic_ref": "8576646"}}, {"type": "node", "id": 279665035, "lat": 46.9376166, "lon": 7.379794, "tags": {"bus": "yes", "highway": "bus_stop", "name": "B\u00fcmpliz", "public_transport": "stop_position"}}, {"type": "node", "id": 279665203, "lat": 46.9373895, "lon": 7.3402841, "tags": {"brand": "Bernmobil", "bus": "yes", "ele": "610", "highway": "bus_stop", "name": "Fl\u00fchli", "network": "Libero", "operator": "Bernmobil", "public_transport": "stop_position", "source": "BAV Bundesamt f\u00fcr Verkehr DIDOK 2014", "uic_name": "Oberbottigen, Fl\u00fchli", "uic_ref": "8571440", "wheelchair": "no"}}, {"type": "node", "id": 281571928, "lat": 46.9325881, "lon": 7.4728104, "tags": {"brand": "Bernmobil", "bus": "yes", "ele": "546", "highway": "bus_stop", "name": "Elfenau", "network": "Libero", "network:wikidata": "Q2394193", "operator": "Bernmobil", "public_transport": "stop_position", "source": "BAV Bundesamt f\u00fcr Verkehr DIDOK 2014", "uic_name": "Bern, Elfenau", "uic_ref": "8590063"}}, {"type": "node", "id": 286918563, "lat": 46.9473323, "lon": 7.4410406, "tags": {"bus": "yes", "highway": "bus_stop", "local_ref": "I", "name": "Bern Bahnhof", "network": "Libero", "network:wikidata": "Q2394193", "operator": "Bernmobil", "public_transport": "stop_position", "uic_name": "Bern, Bahnhof", "uic_ref": "8576646"}}, {"type": "node", "id": 286919096, "lat": 46.9473096, "lon": 7.4442525, "tags": {"bus": "yes", "highway": "bus_stop", "name": "Bundesplatz", "network": "Libero", "network:wikidata": "Q2394193", "operator": "Bernmobil", "public_transport": "stop_position", "uic_name": "Bern, Bundesplatz", "uic_ref": "8590048"}}, {"type": "node", "id": 288860304, "lat": 46.9460774, "lon": 7.4527143, "tags": {"brand": "Bernmobil", "bus": "yes", "ele": "501", "highway": "bus_stop", "name": "Badgasse", "network": "Libero", "network:wikidata": "Q2394193", "operator": "Bernmobil", "public_transport": "stop_position", "uic_name": "Bern, Badgasse", "uic_ref": "8590113"}}, {"type": "node", "id": 292167409, "lat": 46.9703325, "lon": 7.4695874, "tags": {"bus": "yes", "departures_board": "timetable", "ele": "540", "highway": "bus_stop", "name": "L\u00f6chligut", "network": "Libero", "operator": "RBS Auto", "public_transport": "platform", "shelter": "no", "uic_name": "Bern, L\u00f6chligut", "uic_ref": "8576985", "wheelchair": "yes"}}, {"type": "node", "id": 374567692, "lat": 46.9475224, "lon": 7.3694442, "tags": {"bus": "yes", "ele": "540", "highway": "bus_stop", "name": "Riedernrain", "network": "Libero", "operator": "PAG", "public_transport": "stop_position", "uic_name": "Bethlehem b. Bern, Riedernrain", "uic_ref": "8581119"}}, {"type": "node", "id": 379521064, "lat": 46.9459307, "lon": 7.432389, "tags": {"bus": "yes", "highway": "bus_stop", "name": "Kocherpark", "public_transport": "stop_position", "uic_name": "Bern, Kocherpark", "uic_ref": "8579897"}}, {"type": "node", "id": 430444192, "lat": 46.970398, "lon": 7.4697024, "tags": {"bus": "yes", "departures_board": "timetable", "ele": "540", "highway": "bus_stop", "name": "L\u00f6chligut", "network": "Libero", "operator": "RBS Auto", "public_transport": "platform", "shelter": "no", "uic_name": "Bern, L\u00f6chligut", "uic_ref": "8576985", "wheelchair": "yes"}}, {"type": "node", "id": 452965063, "lat": 46.9508166, "lon": 7.4728084, "tags": {"highway": "bus_stop", "name": "Zentrum Paul Klee", "public_transport": "stop_position", "trolleybus": "yes"}}, {"type": "node", "id": 454589126, "lat": 46.9436745, "lon": 7.44865, "tags": {"bus": "yes", "highway": "bus_stop", "name": "Helvetiaplatz", "public_transport": "stop_position"}}, {"type": "node", "id": 454589210, "lat": 46.9447476, "lon": 7.4612489, "tags": {"highway": "bus_stop", "name": "Seminar", "public_transport": "stop_position", "trolleybus": "yes"}}, {"type": "node", "id": 455497261, "lat": 46.9463348, "lon": 7.4642639, "tags": {"highway": "bus_stop", "name": "Tavelweg", "name:etymology:wikidata": "Q124667", "public_transport": "stop_position", "trolleybus": "yes"}}, {"type": "node", "id": 457014113, "lat": 46.9493663, "lon": 7.4692545, "tags": {"highway": "bus_stop", "name": "Bitziusstrasse", "public_transport": "stop_position", "trolleybus": "yes"}}, {"type": "node", "id": 479845195, "lat": 46.9377451, "lon": 7.3808836, "tags": {"bus": "yes", "highway": "bus_stop", "name": "B\u00fcmpliz", "public_transport": "stop_position"}}, {"type": "node", "id": 484734345, "lat": 46.9446184, "lon": 7.4595746, "tags": {"bus": "yes", "highway": "bus_stop", "name": "Liebegg", "public_transport": "stop_position", "trolleybus": "yes"}}, {"type": "node", "id": 487119652, "lat": 46.9412314, "lon": 7.4634153, "tags": {"brand": "Bernmobil", "bus": "yes", "ele": "555", "highway": "bus_stop", "name": "Brunnadernstrasse", "network": "Libero", "network:wikidata": "Q2394193", "operator": "Bernmobil", "public_transport": "stop_position", "ref": "A", "shelter": "yes", "uic_name": "Bern, Brunnadernstrasse", "uic_ref": "8507061", "wheelchair": "yes"}}, {"type": "node", "id": 487119655, "lat": 46.9407592, "lon": 7.4631813, "tags": {"brand": "Bernmobil", "bus": "yes", "highway": "bus_stop", "name": "Brunnadernstrasse", "network": "Libero", "network:wikidata": "Q2394193", "operator": "Bernmobil", "public_transport": "stop_position", "uic_name": "Bern, Brunnadernstrasse", "uic_ref": "8507061"}}, {"type": "node", "id": 487119657, "lat": 46.9414251, "lon": 7.4653043, "tags": {"brand": "Bernmobil", "bus": "yes", "ele": "555", "highway": "bus_stop", "name": "Brunnadernstrasse", "network": "Libero", "network:wikidata": "Q2394193", "operator": "Bernmobil", "public_transport": "stop_position", "shelter": "yes", "uic_name": "Bern, Brunnadernstrasse", "uic_ref": "8507061", "wheelchair": "yes"}}, {"type": "node", "id": 487193504, "lat": 46.9390386, "lon": 7.4629244, "tags": {"bus": "yes", "highway": "bus_stop", "name": "Petruskirche", "network": "Libero", "network:wikidata": "Q2394193", "operator": "Bernmobil", "public_transport": "stop_position", "uic_name": "Bern, Petruskirche", "uic_ref": "8589001"}}, {"type": "node", "id": 487339230, "lat": 46.9390932, "lon": 7.4621473, "tags": {"bus": "yes", "highway": "bus_stop", "name": "Petruskirche", "network": "Libero", "network:wikidata": "Q2394193", "operator": "Bernmobil", "public_transport": "stop_position", "uic_name": "Bern, Petruskirche", "uic_ref": "8589001"}}, {"type": "node", "id": 487339351, "lat": 46.9403926, "lon": 7.4586086, "tags": {"bus": "yes", "highway": "bus_stop", "name": "Thunplatz", "network": "Libero", "network:wikidata": "Q2394193", "operator": "Bernmobil", "public_transport": "stop_position", "uic_name": "Bern, Thunplatz", "uic_ref": "8589003"}}, {"type": "node", "id": 495401571, "lat": 46.9404009, "lon": 7.4566839, "tags": {"bus": "yes", "highway": "bus_stop", "name": "Thunplatz", "network": "Libero", "network:wikidata": "Q2394193", "operator": "Bernmobil", "public_transport": "stop_position", "uic_name": "Bern, Thunplatz", "uic_ref": "8589003"}}, {"type": "node", "id": 498218077, "lat": 46.9392566, "lon": 7.447457, "tags": {"bus": "yes", "highway": "bus_stop", "name": "Tillierstrasse", "public_transport": "stop_position"}}, {"type": "node", "id": 498218084, "lat": 46.9406427, "lon": 7.447716, "tags": {"bus": "yes", "highway": "bus_stop", "name": "Aegertenstrasse", "public_transport": "stop_position"}}, {"type": "node", "id": 498218086, "lat": 46.9412267, "lon": 7.4479445, "tags": {"bus": "yes", "highway": "bus_stop", "name": "Aegertenstrasse", "public_transport": "stop_position"}}, {"type": "node", "id": 515627028, "lat": 46.9639097, "lon": 7.4576869, "tags": {"bus": "yes", "ele": "540", "highway": "bus_stop", "name": "Markuskirche", "network": "Libero", "operator": "SVB;RBS", "public_transport": "stop_position", "trolleybus": "yes", "uic_name": "Bern, Markuskirche", "uic_ref": "8576997"}}, {"type": "node", "id": 516059698, "lat": 46.9468049, "lon": 7.4476608, "tags": {"brand": "Bernmobil", "bus": "yes", "highway": "bus_stop", "local_ref": "G", "name": "Zytglogge", "network": "Libero", "network:wikidata": "Q2394193", "operator": "Bernmobil", "public_transport": "stop_position", "uic_name": "Bern, Zytglogge", "uic_ref": "8507110", "wheelchair": "yes"}}, {"type": "node", "id": 516284293, "lat": 46.9365499, "lon": 7.4649225, "tags": {"brand": "Bernmobil", "bus": "yes", "ele": "539", "highway": "bus_stop", "name": "Willadingweg", "name:etymology:wikidata": "Q1693700", "network": "Libero", "network:wikidata": "Q2394193", "operator": "RBS Regionalverkehr Bern-Solothurn", "public_transport": "stop_position", "shelter": "no", "source": "BAV Bundesamt f\u00fcr Verkehr DIDOK 2014", "uic_name": "Bern, Willadingweg", "uic_ref": "8589005", "wheelchair": "no"}}, {"type": "node", "id": 516284294, "lat": 46.9367458, "lon": 7.4646586, "tags": {"brand": "Bernmobil", "bus": "yes", "ele": "539", "highway": "bus_stop", "name": "Willadingweg", "name:etymology:wikidata": "Q1693700", "network": "Libero", "network:wikidata": "Q2394193", "operator": "RBS Regionalverkehr Bern-Solothurn", "public_transport": "stop_position", "shelter": "yes", "source": "BAV Bundesamt f\u00fcr Verkehr DIDOK 2014", "uic_name": "Bern, Willadingweg", "uic_ref": "8589005", "wheelchair": "no"}}, {"type": "node", "id": 529345187, "lat": 46.9352863, "lon": 7.4665728, "tags": {"brand": "Bernmobil", "bus": "yes", "ele": "538", "highway": "bus_stop", "name": "Luternauweg", "name:etymology:wikidata": "Q1551898", "network": "Libero", "operator": "RBS Regionalverkehr Bern-Solothurn", "public_transport": "stop_position", "shelter": "yes", "source": "BAV Bundesamt f\u00fcr Verkehr DIDOK 2014", "uic_name": "Bern, Luternauweg", "uic_ref": "8588997", "wheelchair": "no"}}, {"type": "node", "id": 529345188, "lat": 46.9349135, "lon": 7.4670619, "tags": {"brand": "Bernmobil", "bus": "yes", "ele": "538", "highway": "bus_stop", "name": "Luternauweg", "name:etymology:wikidata": "Q1551898", "network": "Libero", "operator": "RBS Regionalverkehr Bern-Solothurn", "public_transport": "stop_position", "shelter": "no", "source": "BAV Bundesamt f\u00fcr Verkehr DIDOK 2014", "uic_name": "Bern, Luternauweg", "uic_ref": "8588997", "wheelchair": "no"}}, {"type": "node", "id": 529934741, "lat": 46.9341817, "lon": 7.4702293, "tags": {"brand": "Bernmobil", "bus": "yes", "ele": "547", "highway": "bus_stop", "name": "Manuelstrasse", "name:etymology:wikidata": "Q670805", "network": "Libero", "network:wikidata": "Q2394193", "operator": "RBS Regionalverkehr Bern-Solothurn", "public_transport": "stop_position", "shelter": "yes", "source": "BAV Bundesamt f\u00fcr Verkehr DIDOK 2014", "uic_name": "Bern, Manuelstrasse", "uic_ref": "8588998", "wheelchair": "yes"}}, {"type": "node", "id": 529934742, "lat": 46.9341172, "lon": 7.47078, "tags": {"brand": "Bernmobil", "bus": "yes", "ele": "547", "highway": "bus_stop", "name": "Manuelstrasse", "name:etymology:wikidata": "Q670805", "network": "Libero", "network:wikidata": "Q2394193", "operator": "RBS Regionalverkehr Bern-Solothurn", "public_transport": "stop_position", "shelter": "no", "source": "BAV Bundesamt f\u00fcr Verkehr DIDOK 2014", "uic_name": "Bern, Manuelstrasse", "uic_ref": "8588998", "wheelchair": "yes"}}, {"type": "node", "id": 534177697, "lat": 46.9369839, "lon": 7.4766767, "tags": {"bus": "yes", "highway": "bus_stop", "name": "Eggh\u00f6lzli", "network": "Libero", "network:wikidata": "Q2394193", "public_transport": "stop_position", "uic_name": "Bern, Eggh\u00f6lzli", "uic_ref": "8507050", "wheelchair": "yes"}}, {"type": "node", "id": 534177716, "lat": 46.9388886, "lon": 7.47185, "tags": {"bus": "yes", "ele": "550", "highway": "bus_stop", "name": "Weltpostverein", "network": "Libero", "network:wikidata": "Q2394193", "operator": "Bernmobil", "public_transport": "stop_position", "tactile_paving": "yes", "uic_name": "Bern, Weltpostverein", "uic_ref": "8588174", "wheelchair": "yes"}}, {"type": "node", "id": 537955602, "lat": 46.9430106, "lon": 7.4732142, "tags": {"bench": "yes", "bin": "yes", "brand": "Bernmobil", "bus": "yes", "ele": "563", "highway": "bus_stop", "lit": "yes", "name": "Spital Sonnenhof", "network": "Libero", "network:wikidata": "Q2394193", "operator": "Bernmobil", "public_transport": "platform", "shelter": "no", "tactile_paving": "yes", "uic_name": "Bern, Spital Sonnenhof", "uic_ref": "8590089", "wheelchair": "yes"}}, {"type": "node", "id": 537955605, "lat": 46.9432543, "lon": 7.4736892, "tags": {"bench": "yes", "bin": "yes", "brand": "Bernmobil", "bus": "yes", "ele": "563", "highway": "bus_stop", "lit": "yes", "name": "Spital Sonnenhof", "network": "Libero", "network:wikidata": "Q2394193", "operator": "Bernmobil", "public_transport": "platform", "shelter": "no", "tactile_paving": "yes", "uic_name": "Bern, Spital Sonnenhof", "uic_ref": "8590089", "wheelchair": "yes"}}, {"type": "node", "id": 537955669, "lat": 46.9451837, "lon": 7.473237, "tags": {"bench": "yes", "bin": "yes", "brand": "Bernmobil", "bus": "yes", "ele": "562", "highway": "bus_stop", "lit": "yes", "name": "Giacomettistrasse", "network": "Libero", "network:wikidata": "Q2394193", "operator": "Bernmobil", "public_transport": "platform", "shelter": "no", "tactile_paving": "yes", "uic_name": "Bern, Giacomettistrasse", "uic_ref": "8590090", "wheelchair": "yes"}}, {"type": "node", "id": 537955678, "lat": 46.9452709, "lon": 7.4732957, "tags": {"bench": "yes", "bin": "yes", "brand": "Bernmobil", "bus": "yes", "ele": "562", "highway": "bus_stop", "lit": "yes", "name": "Giacomettistrasse", "network": "Libero", "network:wikidata": "Q2394193", "operator": "Bernmobil", "public_transport": "platform", "shelter": "no", "source": "BAV Bundesamt f\u00fcr Verkehr DIDOK 2014", "tactile_paving": "yes", "uic_name": "Bern, Giacomettistrasse", "uic_ref": "8590090", "wheelchair": "yes"}}, {"type": "node", "id": 538088417, "lat": 46.9460993, "lon": 7.4776275, "tags": {"bus": "yes", "ele": "577", "highway": "bus_stop", "name": "Weltistrasse", "network": "Libero", "network:wikidata": "Q2394193", "operator": "Bernmobil", "public_transport": "platform", "shelter": "no", "uic_name": "Bern, Weltistrasse", "uic_ref": "8590091", "wheelchair": "yes"}}, {"type": "node", "id": 538173628, "lat": 46.9440779, "lon": 7.4800698, "tags": {"bench": "no", "bin": "yes", "brand": "Bernmobil", "bus": "yes", "ele": "560", "highway": "bus_stop", "lit": "yes", "name": "Dunkerstrasse", "name:etymology:wikidata": "Q325117", "network": "Libero", "network:wikidata": "Q2394193", "operator": "Bernmobil", "public_transport": "platform", "shelter": "no", "tactile_paving": "no", "uic_name": "Bern, Dunkerstrasse", "uic_ref": "8590092", "wheelchair": "no"}}, {"type": "node", "id": 538173629, "lat": 46.9442442, "lon": 7.4800941, "tags": {"bench": "no", "bin": "yes", "brand": "Bernmobil", "bus": "yes", "ele": "560", "highway": "bus_stop", "lit": "yes", "name": "Dunkerstrasse", "name:etymology:wikidata": "Q325117", "network": "Libero", "network:wikidata": "Q2394193", "operator": "Bernmobil", "public_transport": "platform", "shelter": "no", "tactile_paving": "yes", "uic_name": "Bern, Dunkerstrasse", "uic_ref": "8590092", "wheelchair": "no"}}, {"type": "node", "id": 538247675, "lat": 46.9473015, "lon": 7.4837353, "tags": {"brand": "Bernmobil", "bus": "yes", "ele": "553", "highway": "bus_stop", "name": "Tiefenm\u00f6sli", "network": "Libero", "operator": "Bernmobil", "public_transport": "platform", "uic_name": "Ostermundigen, Tiefenm\u00f6sli", "uic_ref": "8590072", "wheelchair": "no"}}, {"type": "node", "id": 543975762, "lat": 46.9537132, "lon": 7.4728818, "tags": {"brand": "Bernmobil", "bus": "yes", "ele": "567", "highway": "bus_stop", "name": "Schosshaldenfriedhof", "network": "Libero", "network:wikidata": "Q2394193", "operator": "Bernmobil", "public_transport": "stop_position", "uic_name": "Bern, Schosshaldenfriedhof", "uic_ref": "8590050"}}, {"type": "node", "id": 543975784, "lat": 46.9537607, "lon": 7.4732163, "tags": {"brand": "Bernmobil", "bus": "yes", "ele": "567", "highway": "bus_stop", "name": "Schosshaldenfriedhof", "network": "Libero", "network:wikidata": "Q2394193", "operator": "Bernmobil", "public_transport": "stop_position", "uic_name": "Bern, Schosshaldenfriedhof", "uic_ref": "8590050"}}, {"type": "node", "id": 551535792, "lat": 46.95747, "lon": 7.4753712, "tags": {"bus": "yes", "ele": "559", "highway": "bus_stop", "name": "Zent", "network": "Libero", "network:wikidata": "Q2394193", "operator": "RBS Auto", "public_transport": "stop_position", "uic_name": "Bern, Zent", "uic_ref": "8577001", "wheelchair": "yes"}}, {"type": "node", "id": 560674154, "lat": 46.9578776, "lon": 7.4627656, "tags": {"bus": "yes", "ele": "540", "highway": "bus_stop", "name": "Guisanplatz Expo", "network": "Libero", "network:wikidata": "Q2394193", "operator": "RBS Auto", "public_transport": "stop_position", "tactile_paving": "yes", "uic_name": "Bern, Guisanplatz Expo", "uic_ref": "8576990"}}, {"type": "node", "id": 560927148, "lat": 46.9360887, "lon": 7.4250572, "tags": {"brand": "Bernmobil", "bus": "yes", "ele": "560", "highway": "bus_stop", "name": "D\u00fcbystrasse", "network": "Libero", "network:wikidata": "Q2394193", "operator": "Bernmobil", "public_transport": "stop_position", "tactile_paving": "yes", "uic_name": "Bern, D\u00fcbystrasse", "uic_ref": "8590054"}}, {"type": "node", "id": 560927150, "lat": 46.9363724, "lon": 7.4252684, "tags": {"brand": "Bernmobil", "bus": "yes", "ele": "560", "highway": "bus_stop", "name": "D\u00fcbystrasse", "network": "Libero", "network:wikidata": "Q2394193", "operator": "Bernmobil", "public_transport": "stop_position", "tactile_paving": "yes", "uic_name": "Bern, D\u00fcbystrasse", "uic_ref": "8590054"}}, {"type": "node", "id": 560927159, "lat": 46.9468412, "lon": 7.4434349, "tags": {"bus": "yes", "highway": "bus_stop", "name": "Bundesplatz", "network": "Libero", "network:wikidata": "Q2394193", "operator": "Bernmobil", "public_transport": "stop_position", "uic_name": "Bern, Bundesplatz", "uic_ref": "8590048", "wheelchair": "yes"}}, {"type": "node", "id": 560927162, "lat": 46.9546204, "lon": 7.4511475, "tags": {"brand": "Bernmobil", "bus": "yes", "ele": "559", "highway": "bus_stop", "local_ref": "D", "name": "Viktoriaplatz", "network": "Libero", "network:wikidata": "Q2394193", "operator": "Bernmobil", "public_transport": "stop_position", "uic_name": "Bern, Viktoriaplatz", "uic_ref": "8590021"}}, {"type": "node", "id": 560927163, "lat": 46.9545789, "lon": 7.4513323, "tags": {"brand": "Bernmobil", "bus": "yes", "ele": "559", "highway": "bus_stop", "local_ref": "C", "name": "Viktoriaplatz", "network": "Libero", "network:wikidata": "Q2394193", "operator": "Bernmobil", "public_transport": "stop_position", "uic_name": "Bern, Viktoriaplatz", "uic_ref": "8590021"}}, {"type": "node", "id": 560927164, "lat": 46.9538344, "lon": 7.4545999, "tags": {"bus": "yes", "ele": "560", "highway": "bus_stop", "name": "Salem", "network": "Libero", "network:wikidata": "Q2394193", "operator": "Bernmobil", "public_transport": "stop_position", "tactile_paving": "yes", "uic_name": "Bern, Salem", "uic_ref": "8587483"}}, {"type": "node", "id": 560927165, "lat": 46.953709, "lon": 7.4551555, "tags": {"bus": "yes", "ele": "560", "highway": "bus_stop", "name": "Salem", "network": "Libero", "network:wikidata": "Q2394193", "operator": "Bernmobil", "public_transport": "stop_position", "tactile_paving": "yes", "uic_name": "Bern, Salem", "uic_ref": "8587483"}}, {"type": "node", "id": 560927166, "lat": 46.9535694, "lon": 7.45732, "tags": {"brand": "Bernmobil", "bus": "yes", "ele": "537", "highway": "bus_stop", "name": "Sch\u00f6nburg", "network": "Libero", "network:wikidata": "Q2394193", "operator": "Bernmobil", "public_transport": "stop_position", "uic_name": "Bern, Sch\u00f6nburg", "uic_ref": "8587484"}}, {"type": "node", "id": 560927168, "lat": 46.9535814, "lon": 7.4580096, "tags": {"brand": "Bernmobil", "bus": "yes", "ele": "537", "highway": "bus_stop", "name": "Sch\u00f6nburg", "network": "Libero", "network:wikidata": "Q2394193", "operator": "Bernmobil", "public_transport": "stop_position", "uic_name": "Bern, Sch\u00f6nburg", "uic_ref": "8587484"}}, {"type": "node", "id": 560927171, "lat": 46.952145, "lon": 7.4611405, "tags": {"bus": "yes", "ele": "569", "highway": "bus_stop", "name": "Rosengarten", "network": "Libero", "network:wikidata": "Q2394193", "operator": "Bernmobil", "public_transport": "stop_position", "tactile_paving": "yes", "uic_name": "Bern, Rosengarten", "uic_ref": "8587485"}}, {"type": "node", "id": 560927173, "lat": 46.9524887, "lon": 7.4667258, "tags": {"brand": "Bernmobil", "bus": "yes", "ele": "578", "highway": "bus_stop", "name": "Galgenfeld", "network": "Libero", "network:wikidata": "Q2394193", "operator": "Bernmobil", "public_transport": "stop_position", "tactile_paving": "yes", "uic_name": "Bern, Galgenfeld", "uic_ref": "8590049"}}, {"type": "node", "id": 561330406, "lat": 46.9510327, "lon": 7.4227866, "tags": {"bench": "yes", "bin": "yes", "bus": "yes", "ele": "554", "highway": "bus_stop", "lit": "no", "name": "G\u00fcterbahnhof", "operator": "PostAuto", "public_transport": "platform", "shelter": "no", "tactile_paving": "no", "uic_name": "Bern, G\u00fcterbahnhof", "uic_ref": "8590025", "wheelchair": "yes"}}, {"type": "node", "id": 561383795, "lat": 46.9482082, "lon": 7.4434062, "tags": {"brand": "Bernmobil", "bus": "yes", "highway": "bus_stop", "name": "B\u00e4renplatz", "network": "Libero", "operator": "Bernmobil", "public_transport": "stop_position", "trolleybus": "yes", "uic_name": "Bern, B\u00e4renplatz", "uic_ref": "8588989"}}, {"type": "node", "id": 561383800, "lat": 46.9479658, "lon": 7.4489331, "tags": {"brand": "Bernmobil", "bus": "yes", "highway": "bus_stop", "name": "Zytglogge", "network": "Libero", "network:wikidata": "Q2394193", "operator": "Bernmobil", "public_transport": "stop_position", "trolleybus": "yes", "uic_name": "Bern, Zytglogge", "uic_ref": "8507110"}}, {"type": "node", "id": 561383803, "lat": 46.9480607, "lon": 7.4526221, "tags": {"bus": "yes", "highway": "bus_stop", "name": "Rathaus", "public_transport": "stop_position", "trolleybus": "yes", "wheelchair": "yes"}}, {"type": "node", "id": 561383806, "lat": 46.9486293, "lon": 7.4562136, "tags": {"bus": "yes", "highway": "bus_stop", "name": "Nydegg", "public_transport": "stop_position", "trolleybus": "yes", "wheelchair": "yes"}}, {"type": "node", "id": 563861538, "lat": 46.9473064, "lon": 7.4405275, "tags": {"bus": "yes", "highway": "bus_stop", "local_ref": "L", "name": "Bern Bahnhof", "network": "Libero", "network:wikidata": "Q2394193", "operator": "Bernmobil", "public_transport": "stop_position", "uic_name": "Bern, Bahnhof", "uic_ref": "8576646"}}, {"type": "node", "id": 564716881, "lat": 46.9321944, "lon": 7.4332699, "tags": {"brand": "Bernmobil", "bus": "yes", "ele": "554", "highway": "bus_stop", "name": "Zieglerspital", "network": "Libero", "network:wikidata": "Q2394193", "operator": "Bernmobil", "public_transport": "stop_position", "shelter": "no", "source": "BAV Bundesamt f\u00fcr Verkehr DIDOK 2014", "uic_name": "Bern, Zieglerspital", "uic_ref": "8589994", "wheelchair": "no"}}, {"type": "node", "id": 564716882, "lat": 46.9326398, "lon": 7.4334995, "tags": {"brand": "Bernmobil", "bus": "yes", "ele": "554", "highway": "bus_stop", "name": "Zieglerspital", "network": "Libero", "network:wikidata": "Q2394193", "operator": "Bernmobil", "public_transport": "stop_position", "shelter": "yes", "source": "BAV Bundesamt f\u00fcr Verkehr DIDOK 2014", "uic_name": "Bern, Zieglerspital", "uic_ref": "8589994", "wheelchair": "yes"}}, {"type": "node", "id": 564716883, "lat": 46.935972, "lon": 7.4358138, "tags": {"bus": "yes", "highway": "bus_stop", "name": "Wander", "network": "Libero", "network:wikidata": "Q2394193", "operator": "Bernmobil", "public_transport": "stop_position", "uic_name": "Bern, Wander", "uic_ref": "8589993"}}, {"type": "node", "id": 564716884, "lat": 46.9367197, "lon": 7.4361337, "tags": {"bus": "yes", "highway": "bus_stop", "name": "Wander", "network": "Libero", "network:wikidata": "Q2394193", "operator": "Bernmobil", "public_transport": "stop_position", "uic_name": "Bern, Wander", "uic_ref": "8589993"}}, {"type": "node", "id": 564716889, "lat": 46.9468824, "lon": 7.4408281, "tags": {"bus": "yes", "highway": "bus_stop", "local_ref": "K", "name": "Bern Bahnhof", "network": "Libero", "network:wikidata": "Q2394193", "operator": "Bernmobil", "public_transport": "stop_position", "uic_name": "Bern, Bahnhof", "uic_ref": "8576646"}}, {"type": "node", "id": 564716890, "lat": 46.9473159, "lon": 7.4468101, "tags": {"brand": "Bernmobil", "bus": "yes", "ele": "540", "highway": "bus_stop", "local_ref": "H", "name": "Zytglogge", "network": "Libero", "network:wikidata": "Q2394193", "operator": "Bernmobil", "public_transport": "stop_position", "uic_name": "Bern, Zytglogge", "uic_ref": "8507110", "wheelchair": "yes"}}, {"type": "node", "id": 564721053, "lat": 46.9486478, "lon": 7.4405149, "tags": {"bus": "yes", "highway": "bus_stop", "local_ref": "G", "name": "Bern Bahnhof", "network": "Libero", "network:wikidata": "Q2394193", "operator": "Bernmobil", "public_transport": "stop_position", "trolleybus": "yes", "uic_name": "Bern, Bahnhof", "uic_ref": "8576646"}}, {"type": "node", "id": 564721055, "lat": 46.9548554, "lon": 7.4462766, "tags": {"bus": "yes", "ele": "540", "highway": "bus_stop", "name": "Gewerbeschule", "network": "Libero", "network:wikidata": "Q2394193", "operator": "Bernmobil", "public_transport": "stop_position", "shelter": "yes", "tactile_paving": "yes", "trolleybus": "yes", "uic_name": "Bern, Gewerbeschule", "uic_ref": "8588994", "wheelchair": "yes"}}, {"type": "node", "id": 564721058, "lat": 46.9576012, "lon": 7.4469838, "tags": {"bus": "yes", "ele": "540", "highway": "bus_stop", "name": "Lorraine", "network": "Libero", "network:wikidata": "Q2394193", "operator": "Bernmobil", "public_transport": "stop_position", "shelter": "yes", "tactile_paving": "yes", "trolleybus": "yes", "uic_name": "Bern, Lorraine", "uic_ref": "8588996", "wheelchair": "yes"}}, {"type": "node", "id": 564721059, "lat": 46.9604201, "lon": 7.4478583, "tags": {"bench": "yes", "bus": "yes", "ele": "555", "highway": "bus_stop", "name": "Wyleregg", "network": "Libero", "network:wikidata": "Q2394193", "operator": "Bernmobil", "public_transport": "stop_position", "shelter": "yes", "tactile_paving": "yes", "trolleybus": "yes", "uic_name": "Bern, Wyleregg", "uic_ref": "8589008", "wheelchair": "yes"}}, {"type": "node", "id": 564721060, "lat": 46.9610393, "lon": 7.4490165, "tags": {"bench": "yes", "bus": "yes", "ele": "555", "highway": "bus_stop", "name": "Wyleregg", "network": "Libero", "network:wikidata": "Q2394193", "operator": "Bernmobil", "public_transport": "stop_position", "shelter": "no", "tactile_paving": "yes", "trolleybus": "yes", "uic_name": "Bern, Wyleregg", "uic_ref": "8589008", "wheelchair": "yes"}}, {"type": "node", "id": 564721061, "lat": 46.9622972, "lon": 7.4515594, "tags": {"bus": "yes", "ele": "555", "highway": "bus_stop", "name": "Breitfeld", "network": "Libero", "network:wikidata": "Q2394193", "operator": "Bernmobil", "public_transport": "stop_position", "shelter": "no", "trolleybus": "yes", "uic_name": "Bern, Breitfeld", "uic_ref": "8588991", "wheelchair": "yes"}}, {"type": "node", "id": 564721062, "lat": 46.9627237, "lon": 7.452915, "tags": {"bench": "yes", "bus": "yes", "ele": "555", "highway": "bus_stop", "name": "Breitfeld", "network": "Libero", "network:wikidata": "Q2394193", "operator": "Bernmobil", "public_transport": "stop_position", "shelter": "no", "tactile_paving": "yes", "trolleybus": "yes", "uic_name": "Bern, Breitfeld", "uic_ref": "8588991", "wheelchair": "yes"}}, {"type": "node", "id": 564721063, "lat": 46.9634454, "lon": 7.4556969, "tags": {"bus": "yes", "ele": "540", "highway": "bus_stop", "name": "Markuskirche", "network": "Libero", "operator": "SVB;RBS", "public_transport": "stop_position", "trolleybus": "yes", "uic_name": "Bern, Markuskirche", "uic_ref": "8576997"}}, {"type": "node", "id": 564721065, "lat": 46.9653547, "lon": 7.4639779, "tags": {"bus": "yes", "ele": "555", "highway": "bus_stop", "name": "Wyler", "network": "Libero", "operator": "SVB;RBS", "public_transport": "stop_position", "trolleybus": "yes", "uic_name": "Bern, Wyler", "uic_ref": "8589007"}}, {"type": "node", "id": 564721066, "lat": 46.9665708, "lon": 7.4643628, "tags": {"bus": "yes", "ele": "552", "highway": "bus_stop", "name": "Wankdorf Bahnhof", "nat_name": "Bern, Wankdorf Bahnhof", "network": "Libero", "operator": "Bernmobil", "public_transport": "stop_position", "shelter": "yes", "trolleybus": "yes", "uic_name": "Bern Wankdorf, Bahnhof", "uic_ref": "8590129", "wheelchair": "yes"}}, {"type": "node", "id": 565552518, "lat": 46.9594032, "lon": 7.4547688, "tags": {"bus": "yes", "ele": "564", "highway": "bus_stop", "name": "Breitenrain", "network": "Libero", "operator": "Bernmobil;RBS", "public_transport": "stop_position", "tactile_paving": "no", "uic_name": "Bern, Breitenrain", "uic_ref": "8508075", "wheelchair": "yes"}}, {"type": "node", "id": 565552523, "lat": 46.9633089, "lon": 7.4516081, "tags": {"brand": "Bernmobil", "bus": "yes", "ele": "554", "highway": "bus_stop", "name": "Wylerhuus", "network": "Libero", "network:wikidata": "Q2394193", "operator": "Bernmobil", "public_transport": "stop_position", "shelter": "no", "source": "BAV Bundesamt f\u00fcr Verkehr DIDOK 2014", "uic_name": "Bern, Wylerhuus", "uic_ref": "8590085", "wheelchair": "yes"}}, {"type": "node", "id": 565552527, "lat": 46.9648518, "lon": 7.4509698, "tags": {"brand": "Bernmobil", "bus": "yes", "ele": "553", "highway": "bus_stop", "name": "Wylerbad", "network": "Libero", "network:wikidata": "Q2394193", "operator": "Bernmobil", "public_transport": "stop_position", "shelter": "no", "source": "BAV Bundesamt f\u00fcr Verkehr DIDOK 2014", "uic_name": "Bern, Wylerbad", "uic_ref": "8590078", "wheelchair": "no"}}, {"type": "node", "id": 565552528, "lat": 46.9661212, "lon": 7.4508777, "tags": {"brand": "Bernmobil", "bus": "yes", "ele": "553", "highway": "bus_stop", "name": "Scheibenrain", "network": "Libero", "network:wikidata": "Q2394193", "operator": "Bernmobil", "public_transport": "stop_position", "shelter": "no", "source": "BAV Bundesamt f\u00fcr Verkehr DIDOK 2014", "uic_name": "Bern, Scheibenrain", "uic_ref": "8590086", "wheelchair": "no"}}, {"type": "node", "id": 565552529, "lat": 46.9690104, "lon": 7.4504685, "tags": {"brand": "Bernmobil", "bus": "yes", "ele": "524", "highway": "bus_stop", "name": "Wylergut", "network": "Libero", "network:wikidata": "Q2394193", "operator": "Bernmobil", "public_transport": "stop_position", "shelter": "no", "source": "BAV Bundesamt f\u00fcr Verkehr DIDOK 2014", "uic_name": "Bern, Wylergut", "uic_ref": "8590031", "wheelchair": "no"}}, {"type": "node", "id": 566161958, "lat": 46.9660702, "lon": 7.4549742, "tags": {"bench": "yes", "bin": "yes", "bus": "yes", "departures_board": "timetable", "ele": "540", "highway": "bus_stop", "lit": "yes", "name": "Stauffacherbr\u00fccke", "network": "Libero", "operator": "RBS Auto", "public_transport": "platform", "shelter": "yes", "tactile_paving": "yes", "uic_name": "Bern, Stauffacherbr\u00fccke", "uic_ref": "8576988", "wheelchair": "yes"}}, {"type": "node", "id": 597213075, "lat": 46.9592193, "lon": 7.4548086, "tags": {"bus": "yes", "ele": "564", "highway": "bus_stop", "name": "Breitenrain", "network": "Libero", "operator": "Bernmobil;RBS", "public_transport": "stop_position", "tactile_paving": "no", "uic_name": "Bern, Breitenrain", "uic_ref": "8508075", "wheelchair": "yes"}}, {"type": "node", "id": 613042039, "lat": 46.9626847, "lon": 7.4548165, "tags": {"bench": "no", "bin": "yes", "bus": "yes", "departures_board": "timetable", "ele": "554", "highway": "bus_stop", "lit": "no", "name": "Winkelriedstrasse", "network": "Libero", "network:wikidata": "Q2394193", "operator": "RBS Auto", "public_transport": "platform", "shelter": "no", "tactile_paving": "no", "uic_name": "Bern, Winkelriedstrasse", "uic_ref": "8576989", "wheelchair": "yes"}}, {"type": "node", "id": 622512291, "lat": 46.9661371, "lon": 7.4558108, "tags": {"bench": "yes", "bin": "yes", "bus": "yes", "departures_board": "timetable", "ele": "540", "highway": "bus_stop", "lit": "no", "name": "Stauffacherbr\u00fccke", "network": "Libero", "operator": "RBS Auto", "public_transport": "platform", "shelter": "no", "tactile_paving": "yes", "uic_name": "Bern, Stauffacherbr\u00fccke", "uic_ref": "8576988", "wheelchair": "yes"}}, {"type": "node", "id": 622512414, "lat": 46.9669565, "lon": 7.4598888, "tags": {"bench": "yes", "bin": "yes", "bus": "yes", "departures_board": "timetable", "ele": "553", "highway": "bus_stop", "lit": "yes", "name": "Wankdorf City", "network": "Libero", "operator": "RBS Auto", "public_transport": "platform", "shelter": "yes", "tactile_paving": "no", "uic_name": "Bern, Wankdorf City", "uic_ref": "8576987", "wheelchair": "yes"}}, {"type": "node", "id": 622512416, "lat": 46.9669295, "lon": 7.4594993, "tags": {"bench": "yes", "bin": "yes", "bus": "yes", "departures_board": "timetable", "ele": "553", "highway": "bus_stop", "lit": "no", "name": "Wankdorf City", "network": "Libero", "operator": "RBS Auto", "public_transport": "platform", "shelter": "no", "tactile_paving": "no", "uic_name": "Bern, Wankdorf City", "uic_ref": "8576987", "wheelchair": "yes"}}, {"type": "node", "id": 622512571, "lat": 46.9677277, "lon": 7.464206, "tags": {"bench": "yes", "bin": "yes", "departures_board": "realtime", "highway": "bus_stop", "lit": "yes", "name": "Wankdorf Bahnhof Nord", "operator": "RBS", "public_transport": "platform", "ref": "E", "shelter": "yes", "tactile_paving": "yes", "uic_name": "Bern Wankdorf, Bahnhof Nord", "uic_ref": "8595543", "wheelchair": "yes"}}, {"type": "node", "id": 622512572, "lat": 46.9677961, "lon": 7.4641177, "tags": {"bench": "yes", "bin": "yes", "departures_board": "realtime", "highway": "bus_stop", "lit": "yes", "name": "Wankdorf Bahnhof Nord", "operator": "RBS", "public_transport": "platform", "ref": "F", "shelter": "yes", "tactile_paving": "yes", "uic_name": "Bern Wankdorf, Bahnhof Nord", "uic_ref": "8595543", "wheelchair": "yes"}}, {"type": "node", "id": 696660631, "lat": 46.9443323, "lon": 7.4214245, "tags": {"bus": "yes", "ele": "539", "highway": "bus_stop", "name": "Loryplatz", "name:etymology:wikidata": "Q96337523", "operator": "Bernmobil", "public_transport": "stop_position", "ref": "D", "uic_name": "Bern, Loryplatz", "uic_ref": "8590041"}}, {"type": "node", "id": 700711762, "lat": 46.9448422, "lon": 7.4271584, "tags": {"highway": "bus_stop", "name": "Brunnhof", "public_transport": "stop_position", "railway": "tram_stop", "tram": "yes"}}, {"type": "node", "id": 721154741, "lat": 46.9462527, "lon": 7.420936, "tags": {"highway": "bus_stop", "name": "Inselpark", "old_name": "Anna-Seiler-Haus; Holligen", "old_name:-2022-03-20": "Holligen", "old_name:2022-03-21--2022-12-10": "Anna-Seiler-Haus", "public_transport": "stop_position", "trolleybus": "yes"}}, {"type": "node", "id": 725887416, "lat": 46.9521048, "lon": 7.4177229, "tags": {"bench": "no", "bin": "yes", "bus": "yes", "ele": "554", "highway": "bus_stop", "lit": "yes", "name": "Forsthaus", "operator": "PostAuto", "passenger_information_display": "no", "public_transport": "platform", "shelter": "no", "tactile_paving": "yes", "uic_name": "Bern, Forsthaus", "uic_ref": "8583046", "wheelchair": "yes"}}, {"type": "node", "id": 725887597, "lat": 46.9515668, "lon": 7.4224874, "tags": {"bench": "no", "bus": "yes", "departures_board": "timetable", "ele": "554", "highway": "bus_stop", "name": "G\u00fcterbahnhof", "operator": "PostAuto", "public_transport": "platform", "shelter": "no", "tactile_paving": "no", "uic_name": "Bern, G\u00fcterbahnhof", "uic_ref": "8590025", "wheelchair": "yes"}}, {"type": "node", "id": 741107040, "lat": 46.947258, "lon": 7.4361318, "tags": {"bus": "yes", "highway": "bus_stop", "local_ref": "F", "name": "Hirschengraben", "public_transport": "stop_position", "trolleybus": "yes"}}, {"type": "node", "id": 802903042, "lat": 46.9495617, "lon": 7.4094426, "tags": {"bench": "no", "bin": "yes", "bus": "yes", "ele": "548", "highway": "bus_stop", "lit": "yes", "name": "Weyermannshaus", "operator": "PostAuto", "public_transport": "platform", "shelter": "no", "tactile_paving": "no", "uic_name": "Bern, Weyermannshaus", "uic_ref": "8571343", "wheelchair": "yes"}}, {"type": "node", "id": 818952027, "lat": 46.9487659, "lon": 7.438785, "tags": {"bus": "yes", "highway": "bus_stop", "level": "2", "name": "Bern, Hauptbahnhof", "operator": "PAG", "public_transport": "stop_position", "ref": "Y", "uic_name": "Bern, Hauptbahnhof", "uic_ref": "8507785"}}, {"type": "node", "id": 859889752, "lat": 46.9731547, "lon": 7.4507402, "tags": {"alt_name": "Bern Tiefenau", "bus": "yes", "description": "Linie 34 ab 21:00 Uhr", "ele": "531", "highway": "bus_stop", "name": "Tiefenau", "network": "Libero", "network:wikidata": "Q2394193", "opening_hours": "21:00-01:00", "operator": "RBS Auto", "public_transport": "platform", "shelter": "yes", "tactile_paving": "yes", "uic_name": "Bern Tiefenau", "uic_ref": "8508052", "wheelchair": "yes"}}, {"type": "node", "id": 859890062, "lat": 46.973001, "lon": 7.4507419, "tags": {"alt_name": "Bern Tiefenau", "bus": "yes", "description": "Linie 34 ab 21:00 Uhr sowie Nachtbus M1", "ele": "531", "highway": "bus_stop", "name": "Tiefenau", "network": "Libero", "network:wikidata": "Q2394193", "opening_hours": "Su-We 21:00-01:00, Th 21:00-01:30, Fr,Sa 21:00-04:00", "operator": "RBS Auto", "public_transport": "platform", "shelter": "yes", "tactile_paving": "yes", "uic_name": "Bern Tiefenau", "uic_ref": "8508052", "wheelchair": "yes"}}, {"type": "node", "id": 892692746, "lat": 46.9656731, "lon": 7.4418919, "tags": {"bus": "yes", "highway": "bus_stop", "name": "\u00c4ussere Enge", "public_transport": "stop_position"}}, {"type": "node", "id": 893878941, "lat": 46.9539845, "lon": 7.4390618, "tags": {"bus": "yes", "highway": "bus_stop", "name": "Henkerbr\u00fcnnli", "public_transport": "stop_position", "trolleybus": "yes"}}, {"type": "node", "id": 895754252, "lat": 46.9638971, "lon": 7.4332914, "tags": {"alt_name": "Flixbus Bern;Flixbus berne", "bus": "yes", "highway": "bus_stop", "name": "Bern (Car-Terminal Neufeld)", "note:route_ref": "Flixbus 106, 122, 306, 322, 417, 437, 477, 1921, N106, N122, N799, N1156, K288/E02", "public_transport": "stop_position", "route_ref": "106;122;306;417;437;477;N106;N122;N1156"}}, {"type": "node", "id": 896840060, "lat": 46.9605999, "lon": 7.4343339, "tags": {"bus": "yes", "highway": "bus_stop", "name": "Br\u00fcckfeld", "public_transport": "stop_position", "trolleybus": "yes"}}, {"type": "node", "id": 983971093, "lat": 46.944307, "lon": 7.3753094, "tags": {"bus": "yes", "highway": "bus_stop", "name": "Br\u00fcnnen Westside Bahnhof", "network": "Libero", "operator": "Bernmobil", "public_transport": "stop_position", "uic_name": "Bern Br\u00fcnnen Westside, Bahnhof", "uic_ref": "8582262"}}, {"type": "node", "id": 1083620168, "lat": 46.9475555, "lon": 7.3949155, "tags": {"bus": "yes", "highway": "bus_stop", "name": "Bethlehem S\u00e4ge", "network": "Libero", "operator": "Bernmobil", "public_transport": "stop_position", "railway": "tram_stop", "tram": "yes"}}, {"type": "node", "id": 1084126164, "lat": 46.94758, "lon": 7.4406116, "tags": {"bus": "yes", "highway": "bus_stop", "local_ref": "A", "name": "Bern Bahnhof", "network": "Libero", "network:wikidata": "Q2394193", "operator": "Bernmobil", "public_transport": "stop_position", "trolleybus": "yes", "uic_name": "Bern, Bahnhof", "uic_ref": "8576646"}}, {"type": "node", "id": 1113988177, "lat": 46.9456357, "lon": 7.3907789, "tags": {"bus": "yes", "highway": "bus_stop", "name": "B\u00fcmpliz Nord Bahnhof", "network": "Libero", "operator": "Bernmobil", "public_transport": "stop_position", "uic_name": "Bern B\u00fcmpliz Nord, Bahnhof", "uic_ref": "8579523"}}, {"type": "node", "id": 1120384670, "lat": 46.9444753, "lon": 7.3841947, "tags": {"bus": "yes", "highway": "bus_stop", "name": "Stapfenacker", "public_transport": "stop_position"}}, {"type": "node", "id": 1233461774, "lat": 46.9681914, "lon": 7.4437975, "tags": {"alt_name": "Bern Felsenau", "bus": "yes", "description": "Linie 34 ab 21:00 Uhr", "ele": "534", "highway": "bus_stop", "name": "Felsenau", "network": "Libero", "network:wikidata": "Q2394193", "opening_hours": "21:00-01:00", "operator": "RBS Auto", "public_transport": "platform", "shelter": "no", "tactile_paving": "yes", "uic_name": "Bern Felsenau", "uic_ref": "8508051", "wheelchair": "yes"}}, {"type": "node", "id": 1233461776, "lat": 46.9683918, "lon": 7.4440982, "tags": {"alt_name": "Bern Felsenau", "bus": "yes", "ele": "534", "highway": "bus_stop", "name": "Felsenau", "network": "Libero", "network:wikidata": "Q2394193", "operator": "RBS Auto", "public_transport": "platform", "shelter": "no", "tactile_paving": "yes", "uic_name": "Bern Felsenau", "uic_ref": "8508051", "wheelchair": "yes"}}, {"type": "node", "id": 1306472677, "lat": 46.9475854, "lon": 7.4568038, "tags": {"brand": "Bernmobil", "bus": "yes", "ele": "500", "highway": "bus_stop", "name": "M\u00fchlenplatz", "network": "Libero", "network:wikidata": "Q2394193", "operator": "Bernmobil", "public_transport": "stop_position", "uic_name": "Bern, M\u00fchlenplatz", "uic_ref": "8590112", "wheelchair": "yes"}}, {"type": "node", "id": 1719969098, "lat": 46.9516406, "lon": 7.3920542, "tags": {"bench": "yes", "bin": "yes", "ele": "555", "highway": "bus_stop", "lit": "yes", "name": "Melchiorstrasse", "operator": "PostAuto", "shelter": "yes", "tactile_paving": "no", "uic_name": "Bern, Melchiorstrasse", "uic_ref": "8583205", "wheelchair": "yes"}}, {"type": "node", "id": 1719970345, "lat": 46.952299, "lon": 7.391956, "tags": {"bench": "yes", "bin": "yes", "ele": "555", "highway": "bus_stop", "lit": "no", "name": "Melchiorstrasse", "operator": "PostAuto", "shelter": "no", "tactile_paving": "no", "uic_name": "Bern, Melchiorstrasse", "uic_ref": "8583205", "wheelchair": "yes"}}, {"type": "node", "id": 1721215296, "lat": 46.9622524, "lon": 7.384986, "tags": {"ele": "495", "highway": "bus_stop", "name": "Eymatt Camping", "operator": "PostAuto", "shelter": "no", "tactile_paving": "no", "uic_name": "Eymatt b. Bern, Camping", "uic_ref": "8571345", "wheelchair": "yes"}}, {"type": "node", "id": 1892668754, "lat": 46.9469748, "lon": 7.4381176, "tags": {"bus": "yes", "highway": "bus_stop", "local_ref": "C", "name": "Hirschengraben", "network": "Libero", "network:wikidata": "Q2394193", "operator": "Bernmobil", "public_transport": "stop_position", "uic_name": "Bern, Hirschengraben", "uic_ref": "8579896"}}, {"type": "node", "id": 2006311761, "lat": 46.9637415, "lon": 7.4547254, "tags": {"bench": "no", "bus": "yes", "departures_board": "timetable", "ele": "554", "highway": "bus_stop", "name": "Winkelriedstrasse", "network": "Libero", "network:wikidata": "Q2394193", "operator": "RBS Auto", "public_transport": "platform", "shelter": "no", "tactile_paving": "no", "uic_name": "Bern, Winkelriedstrasse", "uic_ref": "8576989", "wheelchair": "yes"}}, {"type": "node", "id": 2201887392, "lat": 46.9592892, "lon": 7.464281, "tags": {"brand": "Bernmobil", "bus": "yes", "ele": "540", "highway": "bus_stop", "name": "Guisanplatz Expo", "network": "Libero", "network:wikidata": "Q2394193", "operator": "Bernmobil", "public_transport": "stop_position", "railway": "tram_stop", "tram": "yes", "uic_name": "Bern, Guisanplatz Expo", "uic_ref": "8576990", "wheelchair": "yes"}}, {"type": "node", "id": 2267453431, "lat": 46.9448275, "lon": 7.3988622, "tags": {"bus": "yes", "highway": "bus_stop", "name": "St\u00f6ckacker", "network": "Libero", "operator": "Bernmobil", "public_transport": "stop_position", "railway": "tram_stop", "tram": "yes"}}, {"type": "node", "id": 2278809192, "lat": 46.9412402, "lon": 7.335359, "tags": {"brand": "Bernmobil", "bus": "yes", "ele": "583", "highway": "bus_stop", "name": "Riedbach Bahnhof", "network": "Libero", "operator": "Bernmobil", "public_transport": "stop_position", "source": "BAV Bundesamt f\u00fcr Verkehr DIDOK 2014", "uic_name": "Riedbach, Bahnhof", "uic_ref": "8580427", "wheelchair": "no"}}, {"type": "node", "id": 2339007470, "lat": 46.94525, "lon": 7.472013, "tags": {"bus": "yes", "ele": "537", "highway": "bus_stop", "name": "Ostring", "network": "Libero", "network:wikidata": "Q2394193", "operator": "RBS Auto", "public_transport": "stop_position", "uic_name": "Bern, Ostring", "uic_ref": "8587480"}}, {"type": "node", "id": 2524110639, "lat": 46.9661342, "lon": 7.4754672, "tags": {"bench": "no", "bin": "yes", "brand": "Bernmobil", "bus": "yes", "ele": "560", "highway": "bus_stop", "lit": "no", "name": "W\u00f6lflistrasse", "name:etymology:wikidata": "Q364638", "network": "Libero", "operator": "Bernmobil", "public_transport": "platform", "shelter": "no", "tactile_paving": "yes", "uic_name": "Bern, W\u00f6lflistrasse", "uic_ref": "8595138", "wheelchair": "yes"}}, {"type": "node", "id": 2524289086, "lat": 46.944689, "lon": 7.4830607, "tags": {"brand": "Bernmobil", "bus": "yes", "ele": "554", "highway": "bus_stop", "name": "Dennigkofeng\u00e4ssli", "network": "Libero", "network:wikidata": "Q2394193", "operator": "Bernmobil", "public_transport": "platform", "shelter": "no", "uic_name": "Bern, Dennigkofeng\u00e4ssli", "uic_ref": "8590093", "wheelchair": "no"}}, {"type": "node", "id": 2938859810, "lat": 46.950576, "lon": 7.4406233, "tags": {"bus": "yes", "highway": "bus_stop", "name": "Bollwerk", "public_transport": "stop_position", "trolleybus": "yes"}}, {"type": "node", "id": 3097032556, "lat": 46.9357147, "lon": 7.3563456, "tags": {"brand": "Bernmobil", "bus": "yes", "ele": "585", "highway": "bus_stop", "name": "Ch\u00e4s und Brot", "network": "Libero", "operator": "Bernmobil", "public_transport": "stop_position", "source": "BAV Bundesamt f\u00fcr Verkehr DIDOK 2014", "uic_name": "Oberbottigen, Ch\u00e4s und Brot", "uic_ref": "8571439", "wheelchair": "no"}}, {"type": "node", "id": 3113129457, "lat": 46.9356025, "lon": 7.4333457, "tags": {"bus": "yes", "highway": "bus_stop", "name": "Weissenb\u00fchl", "public_transport": "stop_position", "railway": "tram_stop", "tram": "yes", "wheelchair": "no"}}, {"type": "node", "id": 3113546003, "lat": 46.9457375, "lon": 7.4290254, "tags": {"highway": "bus_stop", "name": "Kaufm\u00e4nnischer Verband", "public_transport": "stop_position", "railway": "tram_stop", "tram": "yes"}}, {"type": "node", "id": 3113546004, "lat": 46.9402409, "lon": 7.4218454, "tags": {"highway": "bus_stop", "name": "Munzinger", "public_transport": "stop_position", "railway": "tram_stop", "tram": "yes"}}, {"type": "node", "id": 3113546005, "lat": 46.9401275, "lon": 7.4220886, "tags": {"highway": "bus_stop", "name": "Munzinger", "public_transport": "stop_position", "railway": "tram_stop", "tram": "yes"}}, {"type": "node", "id": 3137249050, "lat": 46.962988, "lon": 7.4317008, "tags": {"bench": "no", "bin": "no", "bus": "yes", "highway": "bus_stop", "name": "Neufeld P+R", "public_transport": "platform", "shelter": "no", "tactile_paving": "no", "uic_name": "Bern, Neufeld P+R", "uic_ref": "8590075", "wheelchair": "yes"}}, {"type": "node", "id": 3141613349, "lat": 46.9378501, "lon": 7.3952804, "tags": {"bus": "yes", "ele": "560", "highway": "bus_stop", "local_ref": "B", "name": "B\u00fcmpliz S\u00fcd Bahnhof", "network": "Libero", "operator": "Bernmobil", "public_transport": "stop_position", "tactile_paving": "yes", "uic_name": "Bern B\u00fcmpliz S\u00fcd, Bahnhof", "uic_ref": "8589226"}}, {"type": "node", "id": 3161035141, "lat": 46.9472289, "lon": 7.4372083, "tags": {"bus": "yes", "highway": "bus_stop", "local_ref": "E", "name": "Hirschengraben", "public_transport": "stop_position", "trolleybus": "yes"}}, {"type": "node", "id": 3161175165, "lat": 46.9474209, "lon": 7.439663, "tags": {"bus": "yes", "highway": "bus_stop", "local_ref": "M", "name": "Bern Bahnhof", "network": "Libero", "network:wikidata": "Q2394193", "operator": "Bernmobil", "public_transport": "stop_position", "uic_name": "Bern, Bahnhof", "uic_ref": "8576646"}}, {"type": "node", "id": 3161175167, "lat": 46.9406933, "lon": 7.4185574, "tags": {"bench": "yes", "bus": "yes", "highway": "bus_stop", "name": "Fischerm\u00e4tteli", "public_transport": "stop_position", "shelter": "yes", "uic_name": "Bern, Fischerm\u00e4tteli", "uic_ref": "8590014", "wheelchair": "yes"}}, {"type": "node", "id": 3161175168, "lat": 46.9379661, "lon": 7.4167592, "tags": {"brand": "Bernmobil", "bus": "yes", "ele": "558", "highway": "bus_stop", "name": "Hardegg Vidmar", "network": "Libero", "network:wikidata": "Q2394193", "operator": "Bernmobil", "public_transport": "stop_position", "shelter": "yes", "source": "BAV Bundesamt f\u00fcr Verkehr DIDOK 2014", "uic_name": "Bern, Hardegg Vidmar", "uic_ref": "8590073", "wheelchair": "yes"}}, {"type": "node", "id": 3161175169, "lat": 46.9444847, "lon": 7.4312485, "tags": {"bus": "yes", "highway": "bus_stop", "name": "Hasler", "public_transport": "stop_position"}}, {"type": "node", "id": 3161175170, "lat": 46.9459292, "lon": 7.4381008, "tags": {"bus": "yes", "highway": "bus_stop", "local_ref": "D", "name": "Hirschengraben", "network": "Libero", "network:wikidata": "Q2394193", "operator": "Bernmobil", "public_transport": "stop_position", "uic_name": "Bern, Hirschengraben", "uic_ref": "8579896"}}, {"type": "node", "id": 3161175173, "lat": 46.9458116, "lon": 7.4357547, "tags": {"bus": "yes", "highway": "bus_stop", "name": "Kocherpark", "public_transport": "stop_position", "wheelchair": "yes"}}, {"type": "node", "id": 3161175176, "lat": 46.9440843, "lon": 7.4211242, "tags": {"bus": "yes", "highway": "bus_stop", "name": "Loryplatz", "name:etymology:wikidata": "Q96337523", "operator": "Bernmobil", "public_transport": "stop_position", "ref": "D", "uic_name": "Bern, Loryplatz", "uic_ref": "8590041"}}, {"type": "node", "id": 3161184000, "lat": 46.9622186, "lon": 7.4660767, "tags": {"bus": "yes", "highway": "bus_stop", "name": "Wankdorf Center", "network": "Libero", "operator": "Bernmobil", "public_transport": "stop_position", "uic_name": "Bern, Wankdorf Center", "uic_ref": "8588699"}}, {"type": "node", "id": 3161184002, "lat": 46.9644305, "lon": 7.4679885, "tags": {"bus": "yes", "highway": "bus_stop", "name": "Wankdorfplatz", "network": "Libero", "operator": "Bernmobil", "public_transport": "stop_position", "uic_name": "Bern, Wankdorfplatz", "uic_ref": "8576996"}}, {"type": "node", "id": 3161279543, "lat": 46.9431705, "lon": 7.4062082, "tags": {"bus": "yes", "highway": "bus_stop", "name": "Europaplatz Bahnhof", "name:etymology:wikidata": "Q8908", "public_transport": "stop_position"}}, {"type": "node", "id": 3161279544, "lat": 46.9398339, "lon": 7.3993851, "tags": {"brand": "Bernmobil", "bus": "yes", "ele": "588", "highway": "bus_stop", "name": "Bodenweid", "network": "Libero", "network:wikidata": "Q2394193", "operator": "Bernmobil", "public_transport": "stop_position", "uic_name": "Bern, Bodenweid", "uic_ref": "8582552"}}, {"type": "node", "id": 3161279545, "lat": 46.9337462, "lon": 7.3908236, "tags": {"brand": "Bernmobil", "bus": "yes", "ele": "566", "highway": "bus_stop", "name": "Chueweid", "network": "Libero", "operator": "Bernmobil", "public_transport": "stop_position", "source": "BAV Bundesamt f\u00fcr Verkehr DIDOK 2014", "uic_name": "Bern, Chueweid", "uic_ref": "8582554"}}, {"type": "node", "id": 3161279765, "lat": 46.9355863, "lon": 7.393608, "tags": {"brand": "Bernmobil", "bus": "yes", "ele": "564", "highway": "bus_stop", "name": "Weidmatt", "network": "Libero", "operator": "Bernmobil", "public_transport": "stop_position", "source": "BAV Bundesamt f\u00fcr Verkehr DIDOK 2014", "uic_name": "Bern, Weidmatt", "uic_ref": "8582553"}}, {"type": "node", "id": 3161304122, "lat": 46.9441508, "lon": 7.4152427, "tags": {"bus": "yes", "highway": "bus_stop", "name": "Schlossmatte", "network": "Libero", "network:wikidata": "Q2394193", "operator": "Bernmobil", "public_transport": "stop_position", "railway": "tram_stop", "tram": "yes", "uic_name": "Bern, Schlossmatte", "uic_ref": "8590042"}}, {"type": "node", "id": 3161304123, "lat": 46.944181, "lon": 7.4146838, "tags": {"bus": "yes", "highway": "bus_stop", "name": "Schlossmatte", "network": "Libero", "network:wikidata": "Q2394193", "operator": "Bernmobil", "public_transport": "stop_position", "railway": "tram_stop", "tram": "yes", "uic_name": "Bern, Schlossmatte", "uic_ref": "8590042"}}, {"type": "node", "id": 3161304128, "lat": 46.9439195, "lon": 7.4118557, "tags": {"bus": "yes", "highway": "bus_stop", "name": "Steigerhubel", "network": "Libero", "network:wikidata": "Q2394193", "operator": "Bernmobil", "public_transport": "stop_position", "railway": "tram_stop", "tram": "yes", "uic_name": "Bern, Steigerhubel", "uic_ref": "8590005"}}, {"type": "node", "id": 3161304129, "lat": 46.9439435, "lon": 7.4113011, "tags": {"bus": "yes", "highway": "bus_stop", "name": "Steigerhubel", "network": "Libero", "network:wikidata": "Q2394193", "operator": "Bernmobil", "public_transport": "stop_position", "railway": "tram_stop", "tram": "yes", "uic_name": "Bern, Steigerhubel", "uic_ref": "8590005"}}, {"type": "node", "id": 3161308593, "lat": 46.962866, "lon": 7.4519266, "tags": {"brand": "Bernmobil", "bus": "yes", "ele": "555", "highway": "bus_stop", "name": "Breitfeld", "network": "Libero", "operator": "SVB;RBS", "public_transport": "stop_position", "shelter": "no", "source": "BAV Bundesamt f\u00fcr Verkehr DIDOK 2014", "uic_name": "Bern, Breitfeld", "uic_ref": "8588991", "wheelchair": "no"}}, {"type": "node", "id": 3161308594, "lat": 46.963856, "lon": 7.4458877, "tags": {"brand": "Bernmobil", "bus": "yes", "ele": "534", "highway": "bus_stop", "name": "D\u00e4ndlikerweg", "name:etymology:wikidata": "Q94731721", "network": "Libero", "network:wikidata": "Q2394193", "operator": "Bernmobil", "public_transport": "stop_position", "shelter": "no", "source": "BAV Bundesamt f\u00fcr Verkehr DIDOK 2014", "uic_name": "Bern, D\u00e4ndlikerweg", "uic_ref": "8590039", "wheelchair": "no"}}, {"type": "node", "id": 3161308595, "lat": 46.9639056, "lon": 7.4473203, "tags": {"brand": "Bernmobil", "bus": "yes", "ele": "544", "highway": "bus_stop", "name": "Grimselstrasse", "network": "Libero", "network:wikidata": "Q2394193", "operator": "Bernmobil", "public_transport": "stop_position", "shelter": "no", "source": "BAV Bundesamt f\u00fcr Verkehr DIDOK 2014", "uic_name": "Bern, Grimselstrasse", "uic_ref": "8590018", "wheelchair": "yes"}}, {"type": "node", "id": 3161308596, "lat": 46.9628521, "lon": 7.4452086, "tags": {"brand": "Bernmobil", "bus": "yes", "ele": "540", "highway": "bus_stop", "name": "Haldenstrasse", "network": "Libero", "network:wikidata": "Q2394193", "operator": "Bernmobil", "public_transport": "stop_position", "shelter": "no", "source": "BAV Bundesamt f\u00fcr Verkehr DIDOK 2014", "uic_name": "Bern, Haldenstrasse", "uic_ref": "8590017", "wheelchair": "yes"}}, {"type": "node", "id": 3161308597, "lat": 46.9679266, "lon": 7.448235, "tags": {"brand": "Bernmobil", "bus": "yes", "ele": "524", "highway": "bus_stop", "name": "Jaunweg", "network": "Libero", "network:wikidata": "Q2394193", "operator": "Bernmobil", "public_transport": "stop_position", "shelter": "no", "source": "BAV Bundesamt f\u00fcr Verkehr DIDOK 2014", "uic_name": "Bern, Jaunweg", "uic_ref": "8590024", "wheelchair": "no"}}, {"type": "node", "id": 3161308598, "lat": 46.9672192, "lon": 7.4477486, "tags": {"brand": "Bernmobil", "bus": "yes", "ele": "524", "highway": "bus_stop", "name": "Pillonweg", "network": "Libero", "network:wikidata": "Q2394193", "operator": "Bernmobil", "public_transport": "stop_position", "shelter": "no", "source": "BAV Bundesamt f\u00fcr Verkehr DIDOK 2014", "uic_name": "Bern, Pillonweg", "uic_ref": "8590008"}}, {"type": "node", "id": 3161308606, "lat": 46.964649, "lon": 7.4494821, "tags": {"brand": "Bernmobil", "bus": "yes", "ele": "546", "highway": "bus_stop", "name": "Schulhaus Wylergut", "network": "Libero", "network:wikidata": "Q2394193", "operator": "Bernmobil", "public_transport": "stop_position", "shelter": "no", "source": "BAV Bundesamt f\u00fcr Verkehr DIDOK 2014", "uic_name": "Bern, Schulhaus Wylergut", "uic_ref": "8590080", "wheelchair": "yes"}}, {"type": "node", "id": 3161308608, "lat": 46.965068, "lon": 7.4466575, "tags": {"brand": "Bernmobil", "bus": "yes", "ele": "527", "highway": "bus_stop", "name": "Sustenweg", "network": "Libero", "network:wikidata": "Q2394193", "operator": "Bernmobil", "public_transport": "stop_position", "shelter": "no", "source": "BAV Bundesamt f\u00fcr Verkehr DIDOK 2014", "uic_name": "Bern, Sustenweg", "uic_ref": "8590026", "wheelchair": "no"}}, {"type": "node", "id": 3161621646, "lat": 46.9356673, "lon": 7.3549875, "tags": {"brand": "Bernmobil", "bus": "yes", "ele": "585", "highway": "bus_stop", "name": "Ch\u00e4s und Brot", "network": "Libero", "operator": "Bernmobil", "public_transport": "stop_position", "source": "BAV Bundesamt f\u00fcr Verkehr DIDOK 2014", "uic_name": "Oberbottigen, Ch\u00e4s und Brot", "uic_ref": "8571439", "wheelchair": "no"}}, {"type": "node", "id": 3161621647, "lat": 46.9355021, "lon": 7.3494986, "tags": {"brand": "Bernmobil", "bus": "yes", "ele": "592", "highway": "bus_stop", "name": "Oberbottigen Dorf", "network": "Libero", "operator": "Bernmobil", "public_transport": "stop_position", "source": "BAV Bundesamt f\u00fcr Verkehr DIDOK 2014", "uic_name": "Oberbottigen, Dorf", "uic_ref": "8507982", "wheelchair": "no"}}, {"type": "node", "id": 3161621648, "lat": 46.9370719, "lon": 7.3411061, "tags": {"brand": "Bernmobil", "bus": "yes", "ele": "610", "highway": "bus_stop", "name": "Fl\u00fchli", "network": "Libero", "operator": "Bernmobil", "public_transport": "stop_position", "source": "BAV Bundesamt f\u00fcr Verkehr DIDOK 2014", "uic_name": "Oberbottigen, Fl\u00fchli", "uic_ref": "8571440"}}, {"type": "node", "id": 3164181350, "lat": 46.9485198, "lon": 7.3912449, "tags": {"bus": "yes", "highway": "bus_stop", "name": "Blumenfeld", "public_transport": "stop_position"}}, {"type": "node", "id": 3164181352, "lat": 46.9469481, "lon": 7.3894858, "tags": {"bus": "yes", "highway": "bus_stop", "name": "Fellerstrasse", "public_transport": "stop_position"}}, {"type": "node", "id": 3164181356, "lat": 46.9359095, "lon": 7.3908042, "tags": {"bus": "yes", "ele": "562", "highway": "bus_stop", "name": "Technologiepark", "network": "Libero", "operator": "Bernmobil", "public_transport": "stop_position", "uic_name": "Bern, Technologiepark", "uic_ref": "8590084"}}, {"type": "node", "id": 3164181358, "lat": 46.9399665, "lon": 7.3907565, "tags": {"bus": "yes", "highway": "bus_stop", "name": "Bachm\u00e4tteli", "network": "Libero", "operator": "Bernmobil", "public_transport": "stop_position", "uic_name": "B\u00fcmpliz, Bachm\u00e4tteli", "uic_ref": "8571436"}}, {"type": "node", "id": 3166457261, "lat": 46.9397858, "lon": 7.3900295, "tags": {"bus": "yes", "highway": "bus_stop", "name": "Bachm\u00e4tteli", "public_transport": "stop_position"}}, {"type": "node", "id": 3166457262, "lat": 46.9394748, "lon": 7.3860014, "tags": {"bus": "yes", "highway": "bus_stop", "name": "Statthalterstrasse", "public_transport": "stop_position"}}, {"type": "node", "id": 3166580314, "lat": 46.9491172, "lon": 7.4403738, "tags": {"bus": "yes", "highway": "bus_stop", "local_ref": "H", "name": "Bern Bahnhof", "network": "Libero", "network:wikidata": "Q2394193", "operator": "Bernmobil", "public_transport": "stop_position", "uic_name": "Bern, Bahnhof", "uic_ref": "8576646"}}, {"type": "node", "id": 3166580319, "lat": 46.9613593, "lon": 7.4393188, "tags": {"bus": "yes", "highway": "bus_stop", "name": "Innere Enge", "public_transport": "stop_position"}}, {"type": "node", "id": 3166634668, "lat": 46.9581203, "lon": 7.4629525, "tags": {"bus": "yes", "ele": "540", "highway": "bus_stop", "name": "Guisanplatz Expo", "network": "Libero", "network:wikidata": "Q2394193", "operator": "RBS Auto", "public_transport": "stop_position", "tactile_paving": "yes", "uic_name": "Bern, Guisanplatz Expo", "uic_ref": "8576990"}}, {"type": "node", "id": 3166725147, "lat": 46.9452791, "lon": 7.4712266, "tags": {"bus": "yes", "ele": "537", "highway": "bus_stop", "name": "Ostring", "network": "Libero", "network:wikidata": "Q2394193", "operator": "RBS Auto", "public_transport": "stop_position", "uic_name": "Bern, Ostring", "uic_ref": "8587480"}}, {"type": "node", "id": 3166725148, "lat": 46.9640728, "lon": 7.4672689, "tags": {"bus": "yes", "highway": "bus_stop", "name": "Wankdorfplatz", "network": "Libero", "operator": "Bernmobil", "public_transport": "stop_position", "uic_name": "Bern, Wankdorfplatz", "uic_ref": "8576996"}}, {"type": "node", "id": 3166938632, "lat": 46.9549562, "lon": 7.4605243, "tags": {"bus": "yes", "ele": "540", "highway": "bus_stop", "name": "Kasernenstrasse", "network": "Libero", "network:wikidata": "Q2394193", "operator": "RBS Auto", "public_transport": "stop_position", "tactile_paving": "yes", "uic_name": "Bern, Kasernenstrasse", "uic_ref": "8576991"}}, {"type": "node", "id": 3188790072, "lat": 46.9485892, "lon": 7.4476199, "tags": {"brand": "Bernmobil", "bus": "yes", "highway": "bus_stop", "local_ref": "B", "name": "Zytglogge", "network": "Libero", "network:wikidata": "Q2394193", "operator": "Bernmobil", "public_transport": "stop_position", "uic_name": "Bern, Zytglogge", "uic_ref": "8507110", "wheelchair": "yes"}}, {"type": "node", "id": 3188790073, "lat": 46.9481802, "lon": 7.4475165, "tags": {"brand": "Bernmobil", "bus": "yes", "highway": "bus_stop", "local_ref": "A", "name": "Zytglogge", "network": "Libero", "network:wikidata": "Q2394193", "operator": "Bernmobil", "public_transport": "stop_position", "uic_name": "Bern, Zytglogge", "uic_ref": "8507110", "wheelchair": "yes"}}, {"type": "node", "id": 3188979124, "lat": 46.9528515, "lon": 7.4495785, "tags": {"brand": "Bernmobil", "bus": "yes", "ele": "551", "highway": "bus_stop", "name": "Kursaal", "network": "Libero", "network:wikidata": "Q2394193", "operator": "Bernmobil", "public_transport": "stop_position", "uic_name": "Bern, Kursaal", "uic_ref": "8590020"}}, {"type": "node", "id": 3189019315, "lat": 46.9531783, "lon": 7.4497403, "tags": {"brand": "Bernmobil", "bus": "yes", "ele": "551", "highway": "bus_stop", "name": "Kursaal", "network": "Libero", "network:wikidata": "Q2394193", "operator": "Bernmobil", "public_transport": "stop_position", "tactile_paving": "yes", "uic_name": "Bern, Kursaal", "uic_ref": "8590020"}}, {"type": "node", "id": 3189923477, "lat": 46.9390581, "lon": 7.4714565, "tags": {"bus": "yes", "ele": "550", "highway": "bus_stop", "name": "Weltpostverein", "network": "Libero", "network:wikidata": "Q2394193", "operator": "Bernmobil", "public_transport": "stop_position", "tactile_paving": "yes", "uic_name": "Bern, Weltpostverein", "uic_ref": "8588174", "wheelchair": "yes"}}, {"type": "node", "id": 3190086450, "lat": 46.9617317, "lon": 7.465708, "tags": {"bus": "yes", "highway": "bus_stop", "name": "Wankdorf Center", "network": "Libero", "operator": "Bernmobil", "public_transport": "stop_position", "uic_name": "Bern, Wankdorf Center", "uic_ref": "8588699"}}, {"type": "node", "id": 3190120480, "lat": 46.947688, "lon": 7.4659666, "tags": {"bus": "yes", "ele": "565", "highway": "bus_stop", "name": "Schosshalde", "network": "Libero", "network:wikidata": "Q2394193", "operator": "RBS Auto", "public_transport": "stop_position", "uic_name": "Bern, Schosshalde", "uic_ref": "8587479"}}, {"type": "node", "id": 3192156810, "lat": 46.9585041, "lon": 7.4362587, "tags": {"bus": "yes", "highway": "bus_stop", "name": "Engeried", "public_transport": "stop_position", "trolleybus": "yes"}}, {"type": "node", "id": 3192194841, "lat": 46.9481155, "lon": 7.4428535, "tags": {"brand": "Bernmobil", "bus": "yes", "highway": "bus_stop", "name": "B\u00e4renplatz", "network": "Libero", "operator": "Bernmobil", "public_transport": "stop_position", "trolleybus": "yes", "uic_name": "Bern, B\u00e4renplatz", "uic_ref": "8588989"}}, {"type": "node", "id": 3193093988, "lat": 46.9405588, "lon": 7.4184602, "tags": {"bench": "yes", "brand": "Bernmobil", "bus": "yes", "ele": "544", "highway": "bus_stop", "name": "Fischerm\u00e4tteli", "network": "Libero", "network:wikidata": "Q2394193", "operator": "Bernmobil", "public_transport": "stop_position", "source": "BAV Bundesamt f\u00fcr Verkehr DIDOK 2014", "uic_name": "Bern, Fischerm\u00e4tteli", "uic_ref": "8590014", "wheelchair": "yes"}}, {"type": "node", "id": 3193106806, "lat": 46.937807, "lon": 7.416666, "tags": {"bench": "yes", "brand": "Bernmobil", "bus": "yes", "ele": "558", "highway": "bus_stop", "name": "Hardegg Vidmar", "network": "Libero", "network:wikidata": "Q2394193", "operator": "Bernmobil", "public_transport": "stop_position", "shelter": "no", "source": "BAV Bundesamt f\u00fcr Verkehr DIDOK 2014", "uic_name": "Bern, Hardegg Vidmar", "uic_ref": "8590073", "wheelchair": "yes"}}, {"type": "node", "id": 3194906268, "lat": 46.9403814, "lon": 7.435798, "tags": {"bus": "yes", "highway": "bus_stop", "name": "Sulgenau", "network": "Libero", "network:wikidata": "Q2394193", "operator": "Bernmobil", "public_transport": "stop_position", "uic_name": "Bern, Sulgenau", "uic_ref": "8589992"}}, {"type": "node", "id": 3204127938, "lat": 46.9376516, "lon": 7.3721843, "tags": {"alt_name": "Niederbottigen Abzweigung", "bus": "yes", "highway": "bus_stop", "name": "Niederbottigen", "public_transport": "stop_position"}}, {"type": "node", "id": 3264518530, "lat": 46.9355048, "lon": 7.3497584, "tags": {"brand": "Bernmobil", "bus": "yes", "ele": "592", "highway": "bus_stop", "name": "Oberbottigen Dorf", "network": "Libero", "operator": "Bernmobil", "public_transport": "stop_position", "source": "BAV Bundesamt f\u00fcr Verkehr DIDOK 2014", "uic_name": "Oberbottigen, Dorf", "uic_ref": "8507982"}}, {"type": "node", "id": 3457891562, "lat": 46.9635789, "lon": 7.480039, "tags": {"bus": "yes", "departures_board": "timetable", "ele": "557", "highway": "bus_stop", "name": "UPD Waldau", "network": "Libero", "operator": "RBS Auto", "public_transport": "platform", "shelter": "yes", "uic_name": "Bern, UPD Waldau", "uic_ref": "8576999", "wheelchair": "yes"}}, {"type": "node", "id": 3457891563, "lat": 46.9636564, "lon": 7.4798055, "tags": {"bus": "yes", "departures_board": "timetable", "ele": "557", "highway": "bus_stop", "name": "UPD Waldau", "network": "Libero", "operator": "RBS Auto", "public_transport": "platform", "shelter": "yes", "uic_name": "Bern, UPD Waldau", "uic_ref": "8576999", "wheelchair": "yes"}}, {"type": "node", "id": 3901953026, "lat": 46.9478366, "lon": 7.427449, "tags": {"bus": "yes", "highway": "bus_stop", "name": "Inselplatz", "public_transport": "stop_position", "trolleybus": "yes"}}, {"type": "node", "id": 3904906250, "lat": 46.9472771, "lon": 7.4257863, "tags": {"highway": "bus_stop", "name": "Inselspital", "public_transport": "stop_position", "trolleybus": "yes", "wheelchair": "yes"}}, {"type": "node", "id": 3956988665, "lat": 46.9660484, "lon": 7.4754422, "tags": {"bench": "no", "bin": "yes", "brand": "Bernmobil", "bus": "yes", "ele": "560", "highway": "bus_stop", "lit": "no", "name": "W\u00f6lflistrasse", "name:etymology:wikidata": "Q364638", "network": "Libero", "operator": "Bernmobil", "public_transport": "platform", "shelter": "no", "tactile_paving": "yes", "uic_ref": "8595138", "wheelchair": "yes"}}, {"type": "node", "id": 3981831713, "lat": 46.9614754, "lon": 7.3854519, "tags": {"bench": "yes", "bin": "yes", "ele": "495", "highway": "bus_stop", "lit": "no", "name": "Eymatt Camping", "operator": "PostAuto", "shelter": "yes", "tactile_paving": "no", "uic_name": "Eymatt b. Bern, Camping", "uic_ref": "8571345", "wheelchair": "yes"}}, {"type": "node", "id": 4083390222, "lat": 46.946931, "lon": 7.4555859, "tags": {"bus": "yes", "highway": "bus_stop", "name": "Matte", "network": "Moonliner", "public_transport": "stop_position"}}, {"type": "node", "id": 5012836659, "lat": 46.9633652, "lon": 7.4316497, "tags": {"bench": "no", "bin": "yes", "bus": "yes", "highway": "bus_stop", "name": "Neufeld P+R", "public_transport": "platform", "shelter": "no", "tactile_paving": "yes", "uic_name": "Bern, Neufeld P+R", "uic_ref": "8590075", "wheelchair": "yes"}}, {"type": "node", "id": 5181893048, "lat": 46.9439033, "lon": 7.4488069, "tags": {"bus": "yes", "highway": "bus_stop", "name": "Helvetiaplatz", "public_transport": "stop_position"}}, {"type": "node", "id": 5184114699, "lat": 46.9370145, "lon": 7.4474372, "tags": {"bench": "yes", "bin": "yes", "bus": "yes", "highway": "bus_stop", "name": "Ka-We-De", "public_transport": "platform", "shelter": "yes", "source": "BAV Bundesamt f\u00fcr Verkehr DIDOK 2014", "wheelchair": "yes"}}, {"type": "node", "id": 5184114700, "lat": 46.9366519, "lon": 7.4473127, "tags": {"bench": "yes", "bin": "yes", "bus": "yes", "highway": "bus_stop", "name": "Ka-We-De", "public_transport": "platform", "shelter": "no", "source": "BAV Bundesamt f\u00fcr Verkehr DIDOK 2014", "wheelchair": "yes"}}, {"type": "node", "id": 5197114814, "lat": 46.9518656, "lon": 7.4174875, "tags": {"bench": "no", "bin": "no", "bus": "yes", "ele": "554", "highway": "bus_stop", "lit": "no", "name": "Forsthaus", "operator": "PostAuto", "passenger_information_display": "no", "public_transport": "platform", "shelter": "no", "tactile_paving": "yes", "uic_name": "Bern, Forsthaus", "uic_ref": "8583046", "wheelchair": "yes"}}, {"type": "node", "id": 5211755736, "lat": 46.9640804, "lon": 7.4801007, "tags": {"bench": "yes", "brand": "Bernmobil", "bus": "yes", "ele": "557", "highway": "bus_stop", "name": "UPD Waldau", "network": "Libero", "operator": "Bernmobil", "public_transport": "platform", "shelter": "yes", "source": "BAV Bundesamt f\u00fcr Verkehr DIDOK 2014", "uic_name": "Bern, UPD Waldau", "uic_ref": "8576999", "wheelchair": "yes"}}, {"type": "node", "id": 5211755739, "lat": 46.9647167, "lon": 7.4786849, "tags": {"bench": "yes", "brand": "Bernmobil", "bus": "yes", "ele": "557", "highway": "bus_stop", "name": "UPD Waldau", "network": "Libero", "operator": "Bernmobil", "public_transport": "platform", "shelter": "yes", "source": "BAV Bundesamt f\u00fcr Verkehr DIDOK 2014", "uic_name": "Bern, UPD Waldau", "uic_ref": "8576999", "wheelchair": "yes"}}, {"type": "node", "id": 5212082192, "lat": 46.9644736, "lon": 7.4597383, "tags": {"bus": "yes", "ele": "555", "highway": "bus_stop", "name": "Morgartenstrasse", "network": "Libero", "operator": "Bernmobil", "public_transport": "platform", "shelter": "yes", "uic_name": "Bern, Morgartenstrasse", "uic_ref": "8588999", "wheelchair": "yes"}}, {"type": "node", "id": 5212082193, "lat": 46.9643498, "lon": 7.4598152, "tags": {"bus": "yes", "ele": "555", "highway": "bus_stop", "name": "Morgartenstrasse", "network": "Libero", "operator": "Bernmobil", "public_transport": "platform", "shelter": "yes", "uic_name": "Bern, Morgartenstrasse", "uic_ref": "8588999", "wheelchair": "yes"}}, {"type": "node", "id": 5220551720, "lat": 46.9454991, "lon": 7.3896632, "tags": {"bus": "yes", "highway": "bus_stop", "name": "B\u00fcmpliz Nord Bahnhof", "network": "Libero", "operator": "Bernmobil", "public_transport": "stop_position", "uic_name": "Bern B\u00fcmpliz Nord, Bahnhof", "uic_ref": "8579523"}}, {"type": "node", "id": 5221884866, "lat": 46.9430394, "lon": 7.3870094, "tags": {"bus": "yes", "highway": "bus_stop", "name": "Br\u00fcnnenstrasse", "public_transport": "stop_position"}}, {"type": "node", "id": 5247841666, "lat": 46.9320617, "lon": 7.3861794, "tags": {"bus": "yes", "ele": "563", "highway": "bus_stop", "name": "Hallmattstrasse", "network": "Libero", "network:wikidata": "Q2394193", "operator": "Bernmobil", "public_transport": "stop_position", "uic_name": "Bern, Hallmattstrasse", "uic_ref": "8590083"}}, {"type": "node", "id": 5249472512, "lat": 46.9318625, "lon": 7.3836079, "tags": {"bus": "yes", "ele": "563", "highway": "bus_stop", "name": "H\u00fcsliacker", "network": "Libero", "operator": "Bernmobil", "public_transport": "stop_position", "uic_name": "Bern, H\u00fcsliacker", "uic_ref": "8582555"}}, {"type": "node", "id": 5249472513, "lat": 46.9319141, "lon": 7.3837267, "tags": {"bus": "yes", "ele": "563", "highway": "bus_stop", "name": "H\u00fcsliacker", "network": "Libero", "operator": "Bernmobil", "public_transport": "stop_position", "uic_name": "Bern, H\u00fcsliacker", "uic_ref": "8582555"}}, {"type": "node", "id": 5250910396, "lat": 46.9399348, "lon": 7.3995458, "tags": {"brand": "Bernmobil", "bus": "yes", "ele": "588", "highway": "bus_stop", "name": "Bodenweid", "network": "Libero", "network:wikidata": "Q2394193", "operator": "Bernmobil", "public_transport": "stop_position", "tactile_paving": "yes", "uic_name": "Bern, Bodenweid", "uic_ref": "8582552"}}, {"type": "node", "id": 5304994030, "lat": 46.9444826, "lon": 7.4272244, "tags": {"highway": "bus_stop", "name": "Brunnhof", "public_transport": "stop_position", "railway": "tram_stop", "tram": "yes"}}, {"type": "node", "id": 5356251075, "lat": 46.9436722, "lon": 7.4359737, "tags": {"brand": "Bernmobil", "bus": "yes", "highway": "bus_stop", "local_ref": "A", "name": "Monbijou", "network": "Libero", "network:wikidata": "Q2394193", "operator": "Bernmobil", "public_transport": "stop_position", "uic_name": "Bern, Monbijou", "uic_ref": "8589991"}}, {"type": "node", "id": 5356251077, "lat": 46.9432183, "lon": 7.4359381, "tags": {"brand": "Bernmobil", "bus": "yes", "highway": "bus_stop", "local_ref": "B", "name": "Monbijou", "network": "Libero", "network:wikidata": "Q2394193", "operator": "Bernmobil", "public_transport": "stop_position", "uic_name": "Bern, Monbijou", "uic_ref": "8589991"}}, {"type": "node", "id": 5383596294, "lat": 46.9375852, "lon": 7.4322103, "tags": {"bus": "yes", "ele": "540", "highway": "bus_stop", "name": "Beaumont", "network": "Libero", "network:wikidata": "Q2394193", "operator": "Bernmobil", "public_transport": "stop_position", "tactile_paving": "yes", "uic_name": "Bern, Beaumont", "uic_ref": "8590016"}}, {"type": "node", "id": 5420226539, "lat": 46.9491607, "lon": 7.3931557, "tags": {"bus": "yes", "highway": "bus_stop", "name": "Bethlehem Kirche", "public_transport": "stop_position"}}, {"type": "node", "id": 5448820429, "lat": 46.940833, "lon": 7.4412457, "tags": {"bench": "no", "bus": "yes", "highway": "bus_stop", "name": "Dampfzentrale", "public_transport": "platform", "shelter": "no", "tactile_paving": "no"}}, {"type": "node", "id": 5469848045, "lat": 46.9430466, "lon": 7.4435992, "tags": {"bench": "no", "bus": "yes", "highway": "bus_stop", "name": "Marzilistrasse", "public_transport": "platform", "shelter": "no", "source": "BAV Bundesamt f\u00fcr Verkehr DIDOK 2014", "tactile_paving": "no", "wheelchair": "no"}}, {"type": "node", "id": 5469877169, "lat": 46.9452053, "lon": 7.4452278, "tags": {"bus": "yes", "highway": "bus_stop", "name": "Dalmazibr\u00fccke", "public_transport": "platform", "shelter": "no", "source": "BAV Bundesamt f\u00fcr Verkehr DIDOK 2014"}}, {"type": "node", "id": 5472942574, "lat": 46.9385394, "lon": 7.4507727, "tags": {"bus": "yes", "highway": "bus_stop", "name": "Tierpark", "public_transport": "platform", "shelter": "yes", "source": "BAV Bundesamt f\u00fcr Verkehr DIDOK 2014", "wheelchair": "yes"}}, {"type": "node", "id": 5472942576, "lat": 46.9381691, "lon": 7.4503261, "tags": {"bus": "yes", "highway": "bus_stop", "name": "Tierpark", "public_transport": "platform", "shelter": "no", "source": "BAV Bundesamt f\u00fcr Verkehr DIDOK 2014", "wheelchair": "yes"}}, {"type": "node", "id": 5489415624, "lat": 46.9433325, "lon": 7.4068128, "tags": {"bus": "yes", "highway": "bus_stop", "name": "Europaplatz Bahnhof", "name:etymology:wikidata": "Q8908", "public_transport": "stop_position"}}, {"type": "node", "id": 5569829152, "lat": 46.9368056, "lon": 7.476591, "tags": {"bus": "yes", "highway": "bus_stop", "name": "Eggh\u00f6lzli", "network": "Libero", "network:wikidata": "Q2394193", "public_transport": "stop_position", "uic_name": "Bern, Eggh\u00f6lzli", "uic_ref": "8507050"}}, {"type": "node", "id": 5569829156, "lat": 46.9421839, "lon": 7.4674674, "tags": {"bus": "yes", "highway": "bus_stop", "name": "Burgernziel", "network": "Libero", "network:wikidata": "Q2394193", "public_transport": "stop_position", "uic_name": "Bern, Burgernziel", "uic_ref": "8587481", "wheelchair": "yes"}}, {"type": "node", "id": 5624565350, "lat": 46.9389431, "lon": 7.4283098, "tags": {"bus": "yes", "highway": "bus_stop", "name": "Weissensteinstrasse", "public_transport": "stop_position"}}, {"type": "node", "id": 5688495595, "lat": 46.9591365, "lon": 7.4272962, "tags": {"bench": "yes", "bus": "yes", "ele": "554", "highway": "bus_stop", "name": "Bern, Lindenhofspital", "operator": "PAG", "public_transport": "platform", "shelter": "yes", "tactile_paving": "yes", "uic_name": "Bern, Lindenhofspital", "uic_ref": "8583222", "wheelchair": "yes"}}, {"type": "node", "id": 5697492390, "lat": 46.949021, "lon": 7.4034368, "tags": {"bus": "yes", "highway": "bus_stop", "name": "Weyermannshaus Bad", "public_transport": "stop_position"}}, {"type": "node", "id": 5697492401, "lat": 46.9487323, "lon": 7.3826031, "tags": {"bus": "yes", "highway": "bus_stop", "name": "Holenacker", "public_transport": "stop_position"}}, {"type": "node", "id": 5697492410, "lat": 46.9472034, "lon": 7.3838139, "tags": {"bus": "yes", "highway": "bus_stop", "name": "Riedbachstrasse", "public_transport": "stop_position"}}, {"type": "node", "id": 5697492412, "lat": 46.9437615, "lon": 7.3911882, "tags": {"bus": "yes", "highway": "bus_stop", "name": "B\u00fcmpliz Schloss", "network": "Libero", "operator": "Bernmobil", "public_transport": "stop_position", "uic_name": "B\u00fcmpliz, Schloss", "uic_ref": "8582225"}}, {"type": "node", "id": 5697492414, "lat": 46.9414688, "lon": 7.3922506, "tags": {"bus": "yes", "highway": "bus_stop", "name": "B\u00fcmpliz Post", "network": "Libero", "operator": "Bernmobil", "public_transport": "stop_position", "uic_name": "B\u00fcmpliz, Post", "uic_ref": "8579900"}}, {"type": "node", "id": 5697492415, "lat": 46.9407237, "lon": 7.3921918, "tags": {"bus": "yes", "highway": "bus_stop", "name": "Bachm\u00e4tteli", "network": "Libero", "operator": "Bernmobil", "public_transport": "stop_position", "uic_name": "B\u00fcmpliz, Bachm\u00e4tteli", "uic_ref": "8571436"}}, {"type": "node", "id": 5697492418, "lat": 46.9302717, "lon": 7.3849175, "tags": {"bus": "yes", "ele": "569", "highway": "bus_stop", "name": "Hohliebi", "network": "Libero", "network:wikidata": "Q2394193", "operator": "Bernmobil", "public_transport": "stop_position", "source": "BAV Bundesamt f\u00fcr Verkehr DIDOK 2014", "uic_name": "Bern, Hohliebi", "uic_ref": "8590081", "wheelchair": "yes"}}, {"type": "node", "id": 5697492419, "lat": 46.9303742, "lon": 7.3850616, "tags": {"bus": "yes", "ele": "569", "highway": "bus_stop", "name": "Hohliebi", "network": "Libero", "network:wikidata": "Q2394193", "operator": "Bernmobil", "public_transport": "stop_position", "source": "BAV Bundesamt f\u00fcr Verkehr DIDOK 2014", "uic_name": "Bern, Hohliebi", "uic_ref": "8590081", "wheelchair": "yes"}}, {"type": "node", "id": 5726742528, "lat": 46.9392835, "lon": 7.4286254, "tags": {"bus": "yes", "highway": "bus_stop", "name": "Weissensteinstrasse", "public_transport": "stop_position"}}, {"type": "node", "id": 5726742535, "lat": 46.9412486, "lon": 7.4310231, "tags": {"bus": "yes", "highway": "bus_stop", "name": "Eigerplatz", "network": "Libero", "network:wikidata": "Q2394193", "operator": "Bernmobil", "public_transport": "stop_position", "uic_name": "Bern, Eigerplatz", "uic_ref": "8571393", "wheelchair": "yes"}}, {"type": "node", "id": 5731195298, "lat": 46.9476776, "lon": 7.4402542, "tags": {"bus": "yes", "highway": "bus_stop", "local_ref": "D", "name": "Bern Bahnhof", "network": "Libero", "network:wikidata": "Q2394193", "operator": "Bernmobil", "public_transport": "stop_position", "trolleybus": "yes", "uic_name": "Bern, Bahnhof", "uic_ref": "8576646"}}, {"type": "node", "id": 5742936894, "lat": 46.9755378, "lon": 7.4415629, "tags": {"highway": "bus_stop", "name": "F\u00e4hrstrasse", "public_transport": "platform", "shelter": "no", "wheelchair": "yes"}}, {"type": "node", "id": 5742936896, "lat": 46.9753017, "lon": 7.4417543, "tags": {"highway": "bus_stop", "name": "F\u00e4hrstrasse", "public_transport": "platform", "shelter": "yes", "wheelchair": "yes"}}, {"type": "node", "id": 5778443868, "lat": 46.9419462, "lon": 7.4660181, "tags": {"bus": "yes", "highway": "bus_stop", "name": "Burgernziel", "public_transport": "stop_position", "wheelchair": "yes"}}, {"type": "node", "id": 5778443869, "lat": 46.9374322, "lon": 7.4852511, "tags": {"bus": "yes", "ele": "555", "highway": "bus_stop", "name": "Saali", "network": "Bernmobil", "network:wikidata": "Q681700", "operator": "St\u00e4dtische Verkehrsbetriebe Bern", "operator:short": "SVB", "public_transport": "stop_position", "uic_name": "Bern, Saali", "uic_ref": "8589002"}}, {"type": "node", "id": 5778521480, "lat": 46.9378523, "lon": 7.4813051, "tags": {"bus": "yes", "ele": "555", "highway": "bus_stop", "name": "Wittigkofen", "network": "Bernmobil", "network:wikidata": "Q681700", "operator": "St\u00e4dtische Verkehrsbetriebe Bern", "operator:short": "SVB", "public_transport": "stop_position", "uic_name": "Bern, Wittigkofen", "uic_ref": "8589006"}}, {"type": "node", "id": 6122150753, "lat": 46.9410365, "lon": 7.4179149, "tags": {"bus": "yes", "highway": "bus_stop", "name": "Fischerm\u00e4tteli", "network": "Libero", "network:wikidata": "Q2394193", "operator": "Bernmobil", "public_transport": "stop_position", "uic_name": "Bern, Fischerm\u00e4tteli", "uic_ref": "8590014"}}, {"type": "node", "id": 6122150758, "lat": 46.941999, "lon": 7.4160126, "tags": {"bus": "yes", "highway": "bus_stop", "name": "Huberstrasse", "public_transport": "stop_position"}}, {"type": "node", "id": 6131099832, "lat": 46.9374365, "lon": 7.3717154, "tags": {"alt_name": "Niederbottigen Abzweigung", "bus": "yes", "highway": "bus_stop", "name": "Niederbottigen", "public_transport": "stop_position"}}, {"type": "node", "id": 6131099833, "lat": 46.9379774, "lon": 7.371219, "tags": {"alt_name": "Niederbottigen Abzweigung", "bus": "yes", "highway": "bus_stop", "name": "Niederbottigen", "public_transport": "stop_position"}}, {"type": "node", "id": 6131147297, "lat": 46.9341056, "lon": 7.3725835, "tags": {"bus": "yes", "highway": "bus_stop", "name": "Moosweg", "public_transport": "stop_position", "uic_name": "Bern, Moosweg", "uic_ref": "8502904"}}, {"type": "node", "id": 6148162873, "lat": 46.9430934, "lon": 7.406629, "tags": {"bench": "yes", "bin": "yes", "bus": "yes", "covered": "yes", "highway": "bus_stop", "local_ref": "C", "name": "Europaplatz Bahnhof", "name:etymology:wikidata": "Q8908", "public_transport": "platform", "tactile_paving": "no"}}, {"type": "node", "id": 6148409567, "lat": 46.9402481, "lon": 7.4218614, "tags": {"bus": "yes", "highway": "bus_stop", "name": "Munzinger", "public_transport": "stop_position"}}, {"type": "node", "id": 6148409568, "lat": 46.9401202, "lon": 7.4220758, "tags": {"bus": "yes", "highway": "bus_stop", "name": "Munzinger", "public_transport": "stop_position"}}, {"type": "node", "id": 6162304832, "lat": 46.9367731, "lon": 7.4365008, "tags": {"bus": "yes", "highway": "bus_stop", "name": "Wander", "public_transport": "stop_position", "wheelchair": "yes"}}, {"type": "node", "id": 6162387186, "lat": 46.9435159, "lon": 7.4320776, "tags": {"bus": "yes", "highway": "bus_stop", "name": "Hasler", "public_transport": "stop_position", "wheelchair": "yes"}}, {"type": "node", "id": 6201972286, "lat": 46.9563192, "lon": 7.4380395, "tags": {"bus": "yes", "highway": "bus_stop", "name": "Bierh\u00fcbeli", "public_transport": "stop_position", "trolleybus": "yes"}}, {"type": "node", "id": 6353778161, "lat": 46.9666394, "lon": 7.4643604, "tags": {"bus": "yes", "ele": "552", "highway": "bus_stop", "name": "Wankdorf Bahnhof", "nat_name": "Bern, Wankdorf Bahnhof", "network": "Libero", "operator": "Bernmobil", "public_transport": "stop_position", "uic_name": "Bern Wankdorf, Bahnhof", "uic_ref": "8590129"}}, {"type": "node", "id": 6353778162, "lat": 46.9475649, "lon": 7.4401859, "tags": {"bus": "yes", "highway": "bus_stop", "local_ref": "C", "name": "Bern Bahnhof", "public_transport": "stop_position", "wheelchair": "yes"}}, {"type": "node", "id": 6353778163, "lat": 46.9476604, "lon": 7.4405808, "tags": {"bus": "yes", "highway": "bus_stop", "local_ref": "B", "name": "Bern Bahnhof", "public_transport": "stop_position"}}, {"type": "node", "id": 6353778164, "lat": 46.9433059, "lon": 7.4695508, "tags": {"brand": "Bernmobil", "bus": "yes", "highway": "bus_stop", "name": "Sonnenhof", "network": "Libero", "network:wikidata": "Q2394193", "operator": "Bernmobil", "public_transport": "stop_position", "uic_name": "Bern, Sonnenhof", "uic_ref": "8590019"}}, {"type": "node", "id": 6361962476, "lat": 46.9661189, "lon": 7.4687736, "tags": {"ele": "555", "highway": "bus_stop", "name": "Wankdorfbr\u00fccke", "network": "Libero", "operator": "Bernmobil", "public_transport": "platform", "shelter": "no", "tactile_paving": "yes", "uic_name": "Bern, Wankdorfbr\u00fccke", "uic_ref": "8595136", "wheelchair": "yes"}}, {"type": "node", "id": 6361962477, "lat": 46.9661058, "lon": 7.4692677, "tags": {"ele": "555", "highway": "bus_stop", "name": "Wankdorfbr\u00fccke", "network": "Libero", "operator": "Bernmobil", "public_transport": "platform", "shelter": "no", "tactile_paving": "yes", "uic_name": "Bern, Wankdorfbr\u00fccke", "uic_ref": "8595136", "wheelchair": "yes"}}, {"type": "node", "id": 6362074949, "lat": 46.9665207, "lon": 7.4643613, "tags": {"bus": "yes", "highway": "bus_stop", "name": "Wankdorf Bahnhof", "network": "libero", "public_transport": "stop_position", "uic_name": "Bern Wankdorf, Bahnhof", "uic_ref": "8590129"}}, {"type": "node", "id": 6370481110, "lat": 46.9576812, "lon": 7.4756958, "tags": {"bus": "yes", "ele": "559", "highway": "bus_stop", "name": "Zent", "network": "Libero", "network:wikidata": "Q2394193", "operator": "RBS Auto", "public_transport": "stop_position", "uic_name": "Bern, Zent", "uic_ref": "8577001", "wheelchair": "yes"}}, {"type": "node", "id": 6370481123, "lat": 46.9608602, "lon": 7.4790566, "tags": {"bus": "yes", "departures_board": "timetable", "highway": "bus_stop", "name": "Schermenweg", "network": "Libero", "network:wikidata": "Q2394193", "operator": "RBS Auto", "public_transport": "platform", "shelter": "no", "uic_name": "Bern, Schermenweg", "uic_ref": "8577000", "wheelchair": "yes"}}, {"type": "node", "id": 6370481124, "lat": 46.9603658, "lon": 7.4793188, "tags": {"bench": "no", "bin": "no", "bus": "yes", "departures_board": "timetable", "highway": "bus_stop", "name": "Schermenweg", "network": "Libero", "network:wikidata": "Q2394193", "operator": "RBS Auto", "public_transport": "platform", "shelter": "yes", "tactile_paving": "no", "uic_name": "Bern, Schermenweg", "uic_ref": "8577000", "wheelchair": "yes"}}, {"type": "node", "id": 6388114627, "lat": 46.9659881, "lon": 7.442025, "tags": {"bus": "yes", "highway": "bus_stop", "name": "\u00c4ussere Enge", "public_transport": "stop_position"}}, {"type": "node", "id": 6522314382, "lat": 46.943076, "lon": 7.4691606, "tags": {"brand": "Bernmobil", "bus": "yes", "ele": "556", "highway": "bus_stop", "name": "Sonnenhof", "network": "Libero", "network:wikidata": "Q2394193", "operator": "Bernmobil", "public_transport": "stop_position", "uic_name": "Bern, Sonnenhof", "uic_ref": "8590019"}}, {"type": "node", "id": 6522347695, "lat": 46.9424266, "lon": 7.4531317, "tags": {"bus": "yes", "ele": "539", "highway": "bus_stop", "name": "Luisenstrasse", "network": "Libero", "network:wikidata": "Q2394193", "operator": "Bernmobil", "public_transport": "stop_position", "uic_name": "Bern, Luisenstrasse", "uic_ref": "8590006"}}, {"type": "node", "id": 6522347718, "lat": 46.9405201, "lon": 7.4583913, "tags": {"bus": "yes", "ele": "553", "highway": "bus_stop", "name": "Thunplatz", "network": "Libero", "network:wikidata": "Q2394193", "operator": "Bernmobil", "public_transport": "stop_position", "uic_name": "Bern, Thunplatz", "uic_ref": "8589003"}}, {"type": "node", "id": 6522347723, "lat": 46.9423154, "lon": 7.4534345, "tags": {"bus": "yes", "ele": "539", "highway": "bus_stop", "name": "Luisenstrasse", "network": "Libero", "network:wikidata": "Q2394193", "operator": "Bernmobil", "public_transport": "stop_position", "uic_name": "Bern, Luisenstrasse", "uic_ref": "8590006"}}, {"type": "node", "id": 6522347724, "lat": 46.9436212, "lon": 7.4499093, "tags": {"bus": "yes", "ele": "534", "highway": "bus_stop", "name": "Helvetiaplatz", "network": "Libero", "network:wikidata": "Q2394193", "operator": "Bernmobil", "public_transport": "stop_position", "uic_name": "Bern, Helvetiaplatz", "uic_ref": "8507060"}}, {"type": "node", "id": 6715728030, "lat": 46.9583803, "lon": 7.4544867, "tags": {"bus": "yes", "ele": "564", "highway": "bus_stop", "name": "Breitenrain", "network": "Libero", "network:wikidata": "Q2394193", "operator": "Bernmobil", "public_transport": "stop_position", "shelter": "no", "uic_name": "Bern, Breitenrain", "uic_ref": "8508075", "wheelchair": "no"}}, {"type": "node", "id": 6759266185, "lat": 46.9479614, "lon": 7.3769968, "tags": {"bus": "yes", "highway": "bus_stop", "name": "G\u00e4belbach", "public_transport": "stop_position"}}, {"type": "node", "id": 6759266186, "lat": 46.9377404, "lon": 7.3810777, "tags": {"bus": "yes", "highway": "bus_stop", "name": "B\u00fcmpliz", "public_transport": "stop_position"}}, {"type": "node", "id": 6774800932, "lat": 46.9469638, "lon": 7.4478951, "tags": {"brand": "Bernmobil", "bus": "yes", "ele": "540", "highway": "bus_stop", "local_ref": "F", "name": "Zytglogge", "network": "Libero", "network:wikidata": "Q2394193", "operator": "Bernmobil", "public_transport": "stop_position", "uic_name": "Bern, Zytglogge", "uic_ref": "8507110"}}, {"type": "node", "id": 6784756293, "lat": 46.9486925, "lon": 7.4388519, "tags": {"bench": "yes", "bin": "yes", "bus": "yes", "highway": "bus_stop", "level": "2", "name": "Bern, Hauptbahnhof", "operator": "PAG", "public_transport": "platform", "ref": "Y", "shelter": "no", "uic_name": "Bern, Hauptbahnhof", "uic_ref": "8507785", "wheelchair": "yes"}}, {"type": "node", "id": 6802411543, "lat": 46.9371544, "lon": 7.475709, "tags": {"bus": "yes", "highway": "bus_stop", "name": "Eggh\u00f6lzli", "network": "Libero", "network:wikidata": "Q2394193", "public_transport": "stop_position", "uic_name": "Bern, Eggh\u00f6lzli", "uic_ref": "8507050", "wheelchair": "yes"}}, {"type": "node", "id": 6802514976, "lat": 46.9405915, "lon": 7.4189587, "tags": {"bus": "yes", "highway": "bus_stop", "name": "Fischerm\u00e4tteli", "public_transport": "stop_position", "shelter": "yes", "uic_name": "Bern, Fischerm\u00e4tteli", "uic_ref": "8590014", "wheelchair": "yes"}}, {"type": "node", "id": 6802528287, "lat": 46.9458832, "lon": 7.4339821, "tags": {"bus": "yes", "highway": "bus_stop", "name": "Kocherpark", "public_transport": "stop_position", "wheelchair": "yes"}}, {"type": "node", "id": 6812003257, "lat": 46.9585416, "lon": 7.4545673, "tags": {"bus": "yes", "ele": "564", "highway": "bus_stop", "name": "Breitenrain", "network": "Libero", "operator": "RBS;SVB", "public_transport": "stop_position", "shelter": "no", "source": "survey and BAV Bundesamt f\u00fcr Verkehr DIDOK 2014", "uic_name": "Bern, Breitenrain", "uic_ref": "8508075", "wheelchair": "no"}}, {"type": "node", "id": 6964919384, "lat": 46.9726601, "lon": 7.4417784, "tags": {"bus": "yes", "highway": "bus_stop", "name": "Felsenaustrasse", "public_transport": "platform", "shelter": "no", "tactile_paving": "yes", "wheelchair": "yes"}}, {"type": "node", "id": 6964930886, "lat": 46.9725765, "lon": 7.441758, "tags": {"bus": "yes", "highway": "bus_stop", "name": "Felsenaustrasse", "public_transport": "platform", "shelter": "no", "tactile_paving": "yes", "wheelchair": "yes"}}, {"type": "node", "id": 7053232685, "lat": 46.9478094, "lon": 7.4371194, "tags": {"bench": "yes", "bin": "yes", "bus": "yes", "highway": "bus_stop", "lit": "yes", "name": "Schanzenstrasse", "public_transport": "platform", "shelter": "yes", "tactile_paving": "yes", "wheelchair": "yes"}}, {"type": "node", "id": 7053232689, "lat": 46.9480635, "lon": 7.4372779, "tags": {"bench": "yes", "bin": "yes", "bus": "yes", "highway": "bus_stop", "lit": "yes", "name": "Schanzenstrasse", "public_transport": "platform", "shelter": "yes", "tactile_paving": "yes", "wheelchair": "yes"}}, {"type": "node", "id": 7053232690, "lat": 46.9498685, "lon": 7.4362928, "tags": {"bench": "no", "bin": "no", "bus": "yes", "ele": "555", "highway": "bus_stop", "lit": "no", "name": "Obergericht", "operator": "PostAuto", "public_transport": "platform", "shelter": "no", "tactile_paving": "yes", "uic_name": "Bern, Obergericht", "uic_ref": "8579748", "wheelchair": "yes"}}, {"type": "node", "id": 7053232691, "lat": 46.9500696, "lon": 7.4364454, "tags": {"bench": "yes", "bin": "yes", "bus": "yes", "ele": "555", "highway": "bus_stop", "lit": "no", "name": "Obergericht", "operator": "PostAuto", "public_transport": "platform", "shelter": "yes", "tactile_paving": "yes", "uic_name": "Bern, Obergericht", "uic_ref": "8579748", "wheelchair": "yes"}}, {"type": "node", "id": 7053232695, "lat": 46.9507358, "lon": 7.4356297, "tags": {"bench": "yes", "bin": "yes", "bus": "yes", "departures_board": "timetable", "highway": "bus_stop", "lit": "yes", "name": "Universit\u00e4t", "public_transport": "platform", "shelter": "yes", "tactile_paving": "yes", "wheelchair": "yes"}}, {"type": "node", "id": 7053232696, "lat": 46.9511793, "lon": 7.435352, "tags": {"bench": "yes", "bin": "yes", "bus": "yes", "highway": "bus_stop", "lit": "no", "name": "Universit\u00e4t", "public_transport": "platform", "shelter": "no", "tactile_paving": "yes", "wheelchair": "yes"}}, {"type": "node", "id": 7053232697, "lat": 46.952755, "lon": 7.4330232, "tags": {"bench": "yes", "bin": "yes", "bus": "yes", "highway": "bus_stop", "kerb": "raised", "lit": "no", "name": "Mittelstrasse", "passenger_information_display": "yes", "passenger_information_display:speech_output": "yes", "public_transport": "platform", "shelter": "no", "tactile_paving": "yes", "wheelchair": "yes"}}, {"type": "node", "id": 7053232698, "lat": 46.9535789, "lon": 7.4320754, "tags": {"bench": "no", "bin": "no", "bus": "yes", "highway": "bus_stop", "kerb": "raised", "lit": "no", "name": "Mittelstrasse", "passenger_information_display": "no", "public_transport": "platform", "shelter": "no", "tactile_paving": "yes", "wheelchair": "yes"}}, {"type": "node", "id": 7053232699, "lat": 46.9545971, "lon": 7.4301618, "tags": {"bench": "yes", "bin": "yes", "bus": "yes", "departures_board": "realtime", "highway": "bus_stop", "lit": "yes", "name": "Unitobler", "public_transport": "platform", "shelter": "yes", "tactile_paving": "yes", "wheelchair": "yes"}}, {"type": "node", "id": 7053232700, "lat": 46.9551276, "lon": 7.4291992, "tags": {"bench": "no", "bin": "yes", "bus": "yes", "highway": "bus_stop", "lit": "no", "name": "Unitobler", "public_transport": "platform", "shelter": "no", "tactile_paving": "yes", "wheelchair": "yes"}}, {"type": "node", "id": 7053232701, "lat": 46.9556659, "lon": 7.4269258, "tags": {"bus": "yes", "highway": "bus_stop", "name": "L\u00e4nggasse", "public_transport": "platform", "shelter": "no", "wheelchair": "yes"}}, {"type": "node", "id": 7053232702, "lat": 46.956065, "lon": 7.4262922, "tags": {"bench": "yes", "bin": "yes", "bus": "yes", "highway": "bus_stop", "name": "L\u00e4nggasse", "public_transport": "platform", "shelter": "yes", "wheelchair": "yes"}}, {"type": "node", "id": 7053232705, "lat": 46.9561558, "lon": 7.4257826, "tags": {"bus": "yes", "highway": "bus_stop", "name": "L\u00e4nggasse", "public_transport": "platform", "shelter": "no", "wheelchair": "yes"}}, {"type": "node", "id": 7055204411, "lat": 46.9630615, "lon": 7.4321743, "tags": {"bus": "yes", "covered": "yes", "highway": "bus_stop", "name": "Neufeld P+R", "public_transport": "platform", "shelter": "no", "tactile_paving": "yes", "uic_name": "Bern, Neufeld P+R", "uic_ref": "8590075", "wheelchair": "yes"}}, {"type": "node", "id": 7061582204, "lat": 46.9519266, "lon": 7.4420194, "tags": {"bench": "yes", "bin": "yes", "bus": "yes", "highway": "bus_stop", "kerb": "raised", "lit": "yes", "name": "Bollwerk", "passenger_information_display": "no", "public_transport": "platform", "shelter": "yes", "wheelchair": "yes"}}, {"type": "node", "id": 7061582205, "lat": 46.9515892, "lon": 7.4414074, "tags": {"bench": "no", "bin": "yes", "bus": "yes", "highway": "bus_stop", "lit": "yes", "name": "Bollwerk", "public_transport": "platform", "shelter": "no", "tactile_paving": "yes", "wheelchair": "yes"}}, {"type": "node", "id": 7081895196, "lat": 46.940788, "lon": 7.4318238, "tags": {"bench": "no", "bin": "yes", "bus": "yes", "departures_board": "timetable", "highway": "bus_stop", "lit": "yes", "name": "Eigerplatz", "public_transport": "platform", "shelter": "no", "tactile_paving": "yes", "wheelchair": "yes"}}, {"type": "node", "id": 7081895197, "lat": 46.9407601, "lon": 7.4320364, "tags": {"bench": "no", "bin": "yes", "bus": "yes", "departures_board": "realtime", "highway": "bus_stop", "lit": "yes", "name": "Eigerplatz", "public_transport": "platform", "shelter": "no", "tactile_paving": "yes", "wheelchair": "yes"}}, {"type": "node", "id": 7081895198, "lat": 46.9396532, "lon": 7.4367515, "tags": {"bus": "yes", "highway": "bus_stop", "name": "Sulgenau", "public_transport": "platform", "shelter": "no", "tactile_paving": "no", "wheelchair": "yes"}}, {"type": "node", "id": 7081895199, "lat": 46.9397999, "lon": 7.4367719, "tags": {"bench": "no", "bin": "yes", "bus": "yes", "highway": "bus_stop", "lit": "yes", "name": "Sulgenau", "public_transport": "platform", "shelter": "no", "tactile_paving": "no", "wheelchair": "yes"}}, {"type": "node", "id": 7081895201, "lat": 46.939886, "lon": 7.4403511, "tags": {"bus": "yes", "highway": "bus_stop", "name": "Monbijoubr\u00fccke", "public_transport": "platform", "shelter": "no", "tactile_paving": "yes", "wheelchair": "yes"}}, {"type": "node", "id": 7081895202, "lat": 46.9396848, "lon": 7.4407754, "tags": {"bench": "yes", "bin": "yes", "bus": "yes", "highway": "bus_stop", "lit": "yes", "name": "Monbijoubr\u00fccke", "public_transport": "platform", "shelter": "no", "tactile_paving": "yes", "wheelchair": "yes"}}, {"type": "node", "id": 7081928394, "lat": 46.9373681, "lon": 7.4321847, "tags": {"bus": "yes", "ele": "540", "highway": "bus_stop", "name": "Beaumont", "network": "Libero", "network:wikidata": "Q2394193", "operator": "Bernmobil", "public_transport": "stop_position", "tactile_paving": "yes", "uic_name": "Bern, Beaumont", "uic_ref": "8590016"}}, {"type": "node", "id": 7081928397, "lat": 46.9358537, "lon": 7.4301578, "tags": {"bench": "no", "bin": "yes", "bus": "yes", "highway": "bus_stop", "name": "Weissenb\u00fchl Bahnhof", "public_transport": "platform", "shelter": "no", "tactile_paving": "no", "wheelchair": "yes"}}, {"type": "node", "id": 7086937615, "lat": 46.9491751, "lon": 7.3942527, "tags": {"bench": "yes", "bus": "yes", "departures_board": "timetable", "highway": "bus_stop", "name": "Bethlehem Kirche", "public_transport": "platform", "shelter": "yes", "tactile_paving": "yes", "wheelchair": "yes"}}, {"type": "node", "id": 7086937616, "lat": 46.9492779, "lon": 7.3940808, "tags": {"bench": "yes", "bin": "yes", "bus": "yes", "departures_board": "timetable", "highway": "bus_stop", "lit": "no", "name": "Bethlehem Kirche", "public_transport": "platform", "shelter": "yes", "tactile_paving": "yes", "wheelchair": "yes"}}, {"type": "node", "id": 7086937617, "lat": 46.9493623, "lon": 7.3994679, "tags": {"highway": "bus_stop", "name": "Untermattweg", "public_transport": "platform", "shelter": "no", "tactile_paving": "no", "wheelchair": "yes"}}, {"type": "node", "id": 7086937618, "lat": 46.949415, "lon": 7.3991886, "tags": {"highway": "bus_stop", "name": "Untermattweg", "public_transport": "platform", "shelter": "no", "tactile_paving": "no", "wheelchair": "yes"}}, {"type": "node", "id": 7086937619, "lat": 46.9494217, "lon": 7.409573, "tags": {"bench": "yes", "bin": "yes", "bus": "yes", "ele": "548", "highway": "bus_stop", "lit": "yes", "name": "Weyermannshaus", "operator": "PostAuto", "public_transport": "platform", "shelter": "no", "tactile_paving": "no", "uic_name": "Bern, Weyermannshaus", "uic_ref": "8571343", "wheelchair": "yes"}}, {"type": "node", "id": 7086937625, "lat": 46.9499959, "lon": 7.4249174, "tags": {"bench": "yes", "bin": "yes", "bus": "yes", "departures_board": "timetable", "ele": "553", "highway": "bus_stop", "lit": "yes", "name": "Bremgartenfriedhof", "operator": "PostAuto", "public_transport": "platform", "shelter": "no", "tactile_paving": "yes", "uic_name": "Bern, Bremgartenfriedhof", "uic_ref": "8507992", "wheelchair": "yes"}}, {"type": "node", "id": 7086937626, "lat": 46.9496589, "lon": 7.4249177, "tags": {"bench": "yes", "bin": "yes", "bus": "yes", "ele": "553", "highway": "bus_stop", "lit": "yes", "name": "Bremgartenfriedhof", "operator": "PostAuto", "public_transport": "platform", "shelter": "yes", "tactile_paving": "yes", "uic_name": "Bern, Bremgartenfriedhof", "uic_ref": "8507992", "wheelchair": "yes"}}, {"type": "node", "id": 7086937627, "lat": 46.9486671, "lon": 7.4272253, "tags": {"bench": "no", "bin": "yes", "bus": "yes", "departures_board": "timetable", "highway": "bus_stop", "name": "Inselplatz", "public_transport": "platform", "shelter": "no", "wheelchair": "yes"}}, {"type": "node", "id": 7086937628, "lat": 46.9478599, "lon": 7.4272788, "tags": {"bench": "no", "bin": "yes", "bus": "yes", "highway": "bus_stop", "name": "Inselplatz", "public_transport": "platform", "shelter": "no", "tactile_paving": "yes", "wheelchair": "yes"}}, {"type": "node", "id": 7086937629, "lat": 46.947908, "lon": 7.4284384, "tags": {"bench": "yes", "bin": "yes", "bus": "yes", "highway": "bus_stop", "lit": "yes", "name": "Inselplatz", "public_transport": "platform", "shelter": "yes", "tactile_paving": "yes", "wheelchair": "yes"}}, {"type": "node", "id": 7086937641, "lat": 46.9489781, "lon": 7.4384454, "tags": {"bus": "yes", "highway": "bus_stop", "level": "2", "local_ref": "V", "name": "Bern, Hauptbahnhof", "network": "Libero", "network:wikidata": "Q2394193", "operator": "PAG", "public_transport": "stop_position", "uic_name": "Bern, Hauptbahnhof", "uic_ref": "8507785", "wheelchair": "yes"}}, {"type": "node", "id": 7086937642, "lat": 46.9490119, "lon": 7.4385119, "tags": {"bus": "yes", "highway": "bus_stop", "level": "2", "local_ref": "U", "name": "Bern, Hauptbahnhof", "network": "Libero", "network:wikidata": "Q2394193", "operator": "PAG", "public_transport": "stop_position", "uic_name": "Bern, Hauptbahnhof", "uic_ref": "8507785", "wheelchair": "yes"}}, {"type": "node", "id": 7086937643, "lat": 46.9490466, "lon": 7.4385809, "tags": {"bus": "yes", "highway": "bus_stop", "level": "2", "local_ref": "T", "name": "Bern, Hauptbahnhof", "network": "Libero", "network:wikidata": "Q2394193", "operator": "PAG", "public_transport": "stop_position", "uic_name": "Bern, Hauptbahnhof", "uic_ref": "8507785", "wheelchair": "yes"}}, {"type": "node", "id": 7086937644, "lat": 46.9490818, "lon": 7.4386508, "tags": {"bus": "yes", "highway": "bus_stop", "level": "2", "local_ref": "S", "name": "Bern, Hauptbahnhof", "network": "Libero", "network:wikidata": "Q2394193", "operator": "PAG", "public_transport": "stop_position", "uic_name": "Bern, Hauptbahnhof", "uic_ref": "8507785", "wheelchair": "yes"}}, {"type": "node", "id": 7089635408, "lat": 46.959127, "lon": 7.4271123, "tags": {"bench": "yes", "bus": "yes", "ele": "554", "highway": "bus_stop", "name": "Bern, Lindenhofspital", "operator": "PAG", "public_transport": "platform", "shelter": "yes", "tactile_paving": "yes", "uic_name": "Bern, Lindenhofspital", "uic_ref": "8583222", "wheelchair": "yes"}}, {"type": "node", "id": 7114397591, "lat": 46.9400069, "lon": 7.4481833, "tags": {"bench": "no", "bin": "yes", "bus": "yes", "highway": "bus_stop", "lit": "yes", "name": "Aegertenstrasse", "public_transport": "platform", "shelter": "no", "tactile_paving": "yes"}}, {"type": "node", "id": 7114397592, "lat": 46.9401832, "lon": 7.4493809, "tags": {"bench": "no", "bin": "no", "bus": "yes", "highway": "bus_stop", "lit": "yes", "name": "Aegertenstrasse", "public_transport": "platform", "shelter": "no", "tactile_paving": "yes"}}, {"type": "node", "id": 7114397594, "lat": 46.940454, "lon": 7.4567087, "tags": {"bus": "yes", "highway": "bus_stop", "name": "Thunplatz", "public_transport": "platform", "shelter": "no"}}, {"type": "node", "id": 7114397606, "lat": 46.9640128, "lon": 7.4800459, "tags": {"highway": "bus_stop", "name": "UPD Waldau", "network": "Libero", "public_transport": "platform", "uic_name": "Bern, UPD Waldau", "uic_ref": "8576999"}}, {"type": "node", "id": 7114397608, "lat": 46.9478068, "lon": 7.46582, "tags": {"bus": "yes", "ele": "565", "highway": "bus_stop", "name": "Schosshalde", "network": "Libero", "network:wikidata": "Q2394193", "operator": "RBS Auto", "public_transport": "stop_position", "uic_name": "Bern, Schosshalde", "uic_ref": "8587479", "wheelchair": "yes"}}, {"type": "node", "id": 7114397609, "lat": 46.9520353, "lon": 7.461312, "tags": {"bus": "yes", "ele": "569", "highway": "bus_stop", "name": "Rosengarten", "network": "Libero", "network:wikidata": "Q2394193", "operator": "Bernmobil", "public_transport": "stop_position", "uic_name": "Bern, Rosengarten", "uic_ref": "8587485", "wheelchair": "yes"}}, {"type": "node", "id": 7114397612, "lat": 46.9550337, "lon": 7.4605842, "tags": {"bus": "yes", "ele": "540", "highway": "bus_stop", "name": "Kasernenstrasse", "network": "Libero", "network:wikidata": "Q2394193", "operator": "RBS Auto", "public_transport": "stop_position", "tactile_paving": "yes", "uic_name": "Bern, Kasernenstrasse", "uic_ref": "8576991"}}, {"type": "node", "id": 7114397615, "lat": 46.9592534, "lon": 7.4642628, "tags": {"bus": "yes", "highway": "bus_stop", "name": "Guisanplatz Expo", "public_transport": "platform", "source": "yes", "uic_name": "Bern, Guisanplatz Expo", "uic_ref": "8576990"}}, {"type": "node", "id": 7114397643, "lat": 46.9622139, "lon": 7.4525372, "tags": {"bench": "no", "bin": "no", "bus": "yes", "highway": "bus_stop", "lit": "no", "name": "Breitfeld", "public_transport": "platform", "shelter": "no", "tactile_paving": "no", "uic_name": "Bern, Breitfeld", "uic_ref": "8588991"}}, {"type": "node", "id": 7114397644, "lat": 46.9607481, "lon": 7.4537851, "tags": {"bus": "yes", "highway": "bus_stop", "name": "Sch\u00fctzenweg", "public_transport": "platform", "uic_name": "Bern, Sch\u00fctzenweg", "uic_ref": "8590079"}}, {"type": "node", "id": 7114397645, "lat": 46.9610043, "lon": 7.4536751, "tags": {"bench": "yes", "bin": "yes", "bus": "yes", "highway": "bus_stop", "lit": "no", "name": "Sch\u00fctzenweg", "public_transport": "platform", "shelter": "no", "tactile_paving": "no", "uic_name": "Bern, Sch\u00fctzenweg", "uic_ref": "8590079"}}, {"type": "node", "id": 7114397647, "lat": 46.9481664, "lon": 7.443416, "tags": {"bench": "yes", "bin": "yes", "bus": "yes", "highway": "bus_stop", "lit": "yes", "name": "B\u00e4renplatz", "public_transport": "platform", "shelter": "no", "tactile_paving": "no", "uic_name": "Bern, B\u00e4renplatz", "wheelchair": "yes"}}, {"type": "node", "id": 7114397648, "lat": 46.9481548, "lon": 7.4428423, "tags": {"bench": "yes", "bin": "no", "bus": "yes", "highway": "bus_stop", "lit": "yes", "name": "B\u00e4renplatz", "public_transport": "platform", "shelter": "yes", "tactile_paving": "yes", "uic_name": "Bern, B\u00e4renplatz", "wheelchair": "yes"}}, {"type": "node", "id": 7114397649, "lat": 46.946001, "lon": 7.4381089, "tags": {"bench": "yes", "bin": "yes", "bus": "yes", "highway": "bus_stop", "name": "Hirschengraben", "public_transport": "platform", "shelter": "no", "tactile_paving": "yes", "wheelchair": "yes"}}, {"type": "node", "id": 7114397650, "lat": 46.9436484, "lon": 7.435642, "tags": {"bench": "yes", "bin": "yes", "bus": "yes", "highway": "bus_stop", "lit": "yes", "local_ref": "D", "name": "Monbijou", "network": "Libero", "network:wikidata": "Q2394193", "operator": "Bernmobil", "public_transport": "platform", "shelter": "yes", "tactile_paving": "yes", "uic_name": "Bern, Monbijou", "uic_ref": "8589991"}}, {"type": "node", "id": 7114397651, "lat": 46.9436145, "lon": 7.4358646, "tags": {"bench": "yes", "bin": "yes", "bus": "yes", "highway": "bus_stop", "lit": "yes", "local_ref": "C", "name": "Monbijou", "public_transport": "platform", "shelter": "yes", "tactile_paving": "yes", "uic_name": "Bern, Monbijou", "uic_ref": "8589991"}}, {"type": "node", "id": 7114397666, "lat": 46.9309576, "lon": 7.4356406, "tags": {"bench": "yes", "bin": "yes", "bus": "yes", "highway": "bus_stop", "kerb": "raised", "kerb:approach_aid": "yes", "lit": "yes", "name": "Lerbermatt", "network": "Libero", "network:wikidata": "Q2394193", "old_name": "K\u00f6niz, Lerbermatt", "operator": "Bernmobil", "passenger_information_display": "no", "public_transport": "platform", "shelter": "no", "tactile_paving": "yes", "uic_name": "Liebefeld, Lerbermatt", "uic_ref": "8590100", "wheelchair": "yes"}}, {"type": "node", "id": 7128726363, "lat": 46.949119, "lon": 7.4387244, "tags": {"bus": "yes", "highway": "bus_stop", "level": "2", "local_ref": "R", "name": "Bern, Hauptbahnhof", "network": "Libero", "network:wikidata": "Q2394193", "operator": "PAG", "public_transport": "stop_position", "uic_name": "Bern, Hauptbahnhof", "uic_ref": "8507785", "wheelchair": "yes"}}, {"type": "node", "id": 7128726364, "lat": 46.9489422, "lon": 7.4383748, "tags": {"bus": "yes", "highway": "bus_stop", "level": "2", "local_ref": "W", "name": "Bern, Hauptbahnhof", "network": "Libero", "network:wikidata": "Q2394193", "operator": "PAG", "public_transport": "stop_position", "uic_name": "Bern, Hauptbahnhof", "uic_ref": "8507785", "wheelchair": "yes"}}, {"type": "node", "id": 7903418784, "lat": 46.9460888, "lon": 7.4148136, "tags": {"highway": "bus_stop", "name": "Holligen", "network": "Libero", "operator": "Bernmobil", "public_transport": "stop_position", "trolleybus": "yes", "uic_name": "Bern, Holligen", "uic_ref": "8510151", "wheelchair": "yes"}}, {"type": "node", "id": 7921201146, "lat": 46.9464229, "lon": 7.437538, "tags": {"bus": "yes", "highway": "bus_stop", "name": "Hirschengraben", "public_transport": "stop_position"}}, {"type": "node", "id": 7921201148, "lat": 46.9316356, "lon": 7.4455355, "tags": {"bus": "yes", "highway": "bus_stop", "name": "Sandrain", "public_transport": "stop_position"}}, {"type": "node", "id": 7921201149, "lat": 46.9339753, "lon": 7.4401613, "tags": {"bus": "yes", "highway": "bus_stop", "name": "Sch\u00f6negg", "public_transport": "stop_position"}}, {"type": "node", "id": 7921443964, "lat": 46.9468142, "lon": 7.4409662, "tags": {"bus": "yes", "highway": "bus_stop", "local_ref": "K", "name": "Bern Bahnhof", "public_transport": "stop_position"}}, {"type": "node", "id": 8200116386, "lat": 46.9479717, "lon": 7.448757, "tags": {"brand": "Bernmobil", "bus": "yes", "highway": "bus_stop", "name": "Zytglogge", "network": "Libero", "network:wikidata": "Q2394193", "operator": "Bernmobil", "public_transport": "stop_position", "trolleybus": "yes", "uic_name": "Bern, Zytglogge", "uic_ref": "8507110"}}, {"type": "node", "id": 8432718965, "lat": 46.9544791, "lon": 7.4768829, "tags": {"bus": "yes", "highway": "bus_stop", "name": "Waldeck", "network": "Libero", "network:wikidata": "Q2394193", "operator": "RBS Auto", "public_transport": "platform", "uic_name": "Ostermundigen, Waldeck", "uic_ref": "8577002"}}, {"type": "node", "id": 8432884922, "lat": 46.9427158, "lon": 7.400925, "tags": {"bus": "yes", "highway": "bus_stop", "name": "B\u00fcmpliz Unterf\u00fchrung", "network": "Libero", "network:wikidata": "Q2394193", "operator": "Bernmobil", "public_transport": "stop_position", "uic_name": "B\u00fcmpliz, Unterf\u00fchrung", "uic_ref": "8579898"}}, {"type": "node", "id": 8432884923, "lat": 46.9461995, "lon": 7.375102, "tags": {"bus": "yes", "ele": "549", "highway": "bus_stop", "name": "Ramuzstrasse", "name:etymology:wikidata": "Q123635", "network": "Libero", "operator": "Bernmobil", "public_transport": "stop_position", "uic_name": "Bern, Ramuzstrasse", "uic_ref": "8590077"}}, {"type": "node", "id": 8434113976, "lat": 46.9477063, "lon": 7.377305, "tags": {"bus": "yes", "highway": "bus_stop", "name": "G\u00e4belbach", "network": "Libero", "operator": "Bernmobil", "public_transport": "stop_position", "uic_name": "Bern, G\u00e4belbach", "uic_ref": "8590045"}}, {"type": "node", "id": 8434113977, "lat": 46.9445863, "lon": 7.4207892, "tags": {"bus": "yes", "highway": "bus_stop", "name": "Loryplatz", "name:etymology:wikidata": "Q96337523", "network": "Libero", "network:wikidata": "Q2394193", "operator": "Bernmobil", "public_transport": "stop_position", "uic_name": "Bern, Loryplatz", "uic_ref": "8590041"}}, {"type": "node", "id": 8578954099, "lat": 46.9476166, "lon": 7.4394666, "tags": {"bench": "no", "bin": "no", "bus": "yes", "description": "Haltestelle f\u00fcr SBB/BLS-Bahnersatzbusse", "highway": "bus_stop", "level": "0", "lit": "yes", "local_ref": "Q", "name": "Bern Bahnhof", "public_transport": "platform", "shelter": "yes", "tactile_paving": "no"}}, {"type": "node", "id": 8644290090, "lat": 46.9373758, "lon": 7.3957444, "tags": {"brand": "Bernmobil", "bus": "yes", "ele": "560", "highway": "bus_stop", "local_ref": "C", "name": "B\u00fcmpliz S\u00fcd Bahnhof", "network": "Libero", "operator": "Bernmobil", "public_transport": "stop_position", "tactile_paving": "yes", "uic_name": "Bern B\u00fcmpliz S\u00fcd, Bahnhof", "uic_ref": "8589226"}}, {"type": "node", "id": 8644290091, "lat": 46.9375584, "lon": 7.3959845, "tags": {"brand": "Bernmobil", "bus": "yes", "ele": "560", "highway": "bus_stop", "local_ref": "D", "name": "B\u00fcmpliz S\u00fcd Bahnhof", "network": "Libero", "operator": "Bernmobil", "public_transport": "stop_position", "uic_name": "Bern B\u00fcmpliz S\u00fcd, Bahnhof", "uic_ref": "8589226"}}, {"type": "node", "id": 8644290093, "lat": 46.9375486, "lon": 7.3950644, "tags": {"bus": "yes", "ele": "560", "highway": "bus_stop", "local_ref": "A", "name": "B\u00fcmpliz S\u00fcd Bahnhof", "network": "Libero", "operator": "Bernmobil", "public_transport": "stop_position", "tactile_paving": "yes", "uic_name": "Bern B\u00fcmpliz S\u00fcd, Bahnhof", "uic_ref": "8589226"}}, {"type": "node", "id": 8888049985, "lat": 46.9593941, "lon": 7.4634908, "tags": {"bus": "yes", "ele": "540", "highway": "bus_stop", "name": "Guisanplatz Expo", "network": "Libero", "network:wikidata": "Q2394193", "operator": "RBS Auto", "public_transport": "platform", "tactile_paving": "yes", "uic_name": "Bern, Guisanplatz Expo", "uic_ref": "8576990"}}, {"type": "node", "id": 8888049986, "lat": 46.9595212, "lon": 7.4640254, "tags": {"bus": "yes", "ele": "540", "highway": "bus_stop", "name": "Guisanplatz Expo", "network": "Libero", "network:wikidata": "Q2394193", "operator": "RBS Auto", "public_transport": "platform", "tactile_paving": "yes", "uic_name": "Bern, Guisanplatz Expo", "uic_ref": "8576990"}}, {"type": "node", "id": 8888049988, "lat": 46.9532747, "lon": 7.4592458, "tags": {"brand": "Bernmobil", "bus": "yes", "ele": "537", "highway": "bus_stop", "name": "Sch\u00f6nburg", "network": "Libero", "network:wikidata": "Q2394193", "operator": "Bernmobil", "public_transport": "stop_position", "uic_name": "Bern, Sch\u00f6nburg", "uic_ref": "8587484"}}, {"type": "node", "id": 8888049989, "lat": 46.9532904, "lon": 7.4593494, "tags": {"brand": "Bernmobil", "bus": "yes", "ele": "537", "highway": "bus_stop", "name": "Sch\u00f6nburg", "network": "Libero", "network:wikidata": "Q2394193", "operator": "Bernmobil", "public_transport": "stop_position", "uic_name": "Bern, Sch\u00f6nburg", "uic_ref": "8587484"}}, {"type": "node", "id": 9595657785, "lat": 46.946218, "lon": 7.4209435, "tags": {"bench": "yes", "bin": "yes", "departures_board": "realtime;timetable", "highway": "bus_stop", "lit": "yes", "name": "Inselpark", "old_name": "Anna-Seiler-Haus; Holligen", "old_name:-2022-03-20": "Holligen", "old_name:2022-03-21--2022-12-10": "Anna-Seiler-Haus", "passenger_information_display": "yes", "public_transport": "platform", "shelter": "yes", "surface": "asphalt", "tactile_paving": "yes", "trolleybus": "yes", "wheelchair": "yes"}}, {"type": "node", "id": 9658312169, "lat": 46.9363039, "lon": 7.4326383, "tags": {"bus": "yes", "highway": "bus_stop", "name": "Weissenb\u00fchl", "public_transport": "stop_position", "wheelchair": "no"}}, {"type": "node", "id": 9658312170, "lat": 46.9355005, "lon": 7.4338766, "tags": {"bus": "yes", "highway": "bus_stop", "name": "Weissenb\u00fchl", "public_transport": "stop_position", "wheelchair": "no"}}, {"type": "node", "id": 10250463111, "lat": 46.9462918, "lon": 7.4209323, "tags": {"bench": "no", "bin": "yes", "departures_board": "timetable", "highway": "bus_stop", "lit": "yes", "name": "Inselpark", "old_name": "Anna-Seiler-Haus; Holligen", "old_name:-2022-03-20": "Holligen", "old_name:2022-03-21--2022-12-10": "Anna-Seiler-Haus", "public_transport": "platform", "shelter": "no", "surface": "asphalt", "tactile_paving": "yes", "trolleybus": "yes", "wheelchair": "yes"}}, {"type": "node", "id": 10589816006, "lat": 46.9683467, "lon": 7.4436757, "tags": {"bus": "yes", "departures_board": "timetable", "highway": "bus_stop", "name": "Rossfeld", "public_transport": "platform", "shelter": "no", "wheelchair": "yes"}}, {"type": "node", "id": 10589816007, "lat": 46.9681847, "lon": 7.4434124, "tags": {"bus": "yes", "departures_board": "timetable", "highway": "bus_stop", "name": "Rossfeld", "public_transport": "platform", "shelter": "yes", "wheelchair": "yes"}}, {"type": "node", "id": 10759261729, "lat": 46.9374998, "lon": 7.4772768, "tags": {"bus": "yes", "highway": "bus_stop", "name": "Eggh\u00f6lzli", "network": "Libero", "network:wikidata": "Q2394193", "public_transport": "stop_position", "uic_name": "Bern, Eggh\u00f6lzli", "uic_ref": "8507050", "wheelchair": "yes"}}, {"type": "node", "id": 11042963016, "lat": 46.9490603, "lon": 7.440749, "tags": {"bus": "yes", "description": "Haltestelle f\u00fcr RBS-Bahnersatzbusse", "highway": "bus_stop", "local_ref": "Z", "name": "Bern Bahnhof", "operator": "RBS", "public_transport": "platform", "uic_name": "Bern, Bahnhof", "uic_ref": "8576646"}}, {"type": "node", "id": 11383177229, "lat": 46.947838, "lon": 7.4276027, "tags": {"bench": "no", "bin": "yes", "bus": "yes", "highway": "bus_stop", "name": "Inselplatz", "public_transport": "platform", "shelter": "no", "tactile_paving": "yes", "wheelchair": "yes"}}]}